{"type": "FeatureCollection", "features": [{"type": "Feature", "properties": {"name": "견지동", "name_en": "Gyeonji-dong", "aliases": ["gyeonji", "gyeonji-dong", "견지", "견지동"]}, "geometry": {"type": "Point", "coordinates": [126.98243, 37.57435]}}, {"type": "Feature", "properties": {"name": "경운동", "name_en": "Gyeongun-dong", "aliases": ["gyeongun", "gyeongun-dong", "경운", "경운동"]}, "geometry": {"type": "Point", "coordinates": [126.98625, 37.57489]}}, {"type": "Feature", "properties": {"name": "계동", "name_en": "Gye-dong", "aliases": ["gye", "gye-dong", "계", "계동"]}, "geometry": {"type": "Point", "coordinates": [126.9874149, 37.5811587]}}, {"type": "Feature", "properties": {"name": "공평동", "name_en": "Gongpyeong-dong", "aliases": ["gongpyeong", "gongpyeong-dong", "공평", "공평동"]}, "geometry": {"type": "Point", "coordinates": [126.98279, 37.57144]}}, {"type": "Feature", "properties": {"name": "관수동", "name_en": "Gwansu-dong", "aliases": ["gwansu", "gwansu-dong", "관수", "관수동"]}, "geometry": {"type": "Point", "coordinates": [126.99018, 37.5688]}}, {"type": "Feature", "properties": {"name": "관철동", "name_en": "Gwancheol-dong", "aliases": ["gwancheol", "gwancheol-dong", "관철", "관철동"]}, "geometry": {"type": "Point", "coordinates": [126.9857059, 37.5687846]}}, {"type": "Feature", "properties": {"name": "관훈동", "name_en": "Gwanhun-dong", "aliases": ["gwanhun", "gwanhun-dong", "관훈", "관훈동"]}, "geometry": {"type": "Point", "coordinates": [126.9845658, 37.5742524]}}, {"type": "Feature", "properties": {"name": "권농동", "name_en": "Gwonnong-dong", "aliases": ["gwonnong", "gwonnong-dong", "권농", "권농동"]}, "geometry": {"type": "Point", "coordinates": [126.99103, 37.57537]}}, {"type": "Feature", "properties": {"name": "낙원동", "name_en": "Nagwon-dong", "aliases": ["nagwon", "nagwon-dong", "낙원", "낙원동"]}, "geometry": {"type": "Point", "coordinates": [126.98762, 37.57221]}}, {"type": "Feature", "properties": {"name": "대학로거리", "name_en": "Daehangno Street", "aliases": ["daehak-ro", "daehangno", "daehangno street", "daehangnostreet", "대학로", "대학로거리"]}, "geometry": {"type": "Point", "coordinates": [127.0033082, 37.5816817]}}, {"type": "Feature", "properties": {"name": "돈의동", "name_en": "Donui-dong", "aliases": ["donui", "donui-dong", "돈의", "돈의동"]}, "geometry": {"type": "Point", "coordinates": [126.99082, 37.57208]}}, {"type": "Feature", "properties": {"name": "동숭동", "name_en": "Dongsung-dong", "aliases": ["dongsung", "dongsung-dong", "동숭", "동숭동"]}, "geometry": {"type": "Point", "coordinates": [127.0051932, 37.58096]}}, {"type": "Feature", "properties": {"name": "명륜2가", "name_en": "Myeongnyun 2-ga", "aliases": ["myeongnyun 2-ga", "myeongnyun2-ga", "명륜2가"]}, "geometry": {"type": "Point", "coordinates": [126.99869, 37.58446]}}, {"type": "Feature", "properties": {"name": "명륜4가", "name_en": "Myeongnyun 4-ga", "aliases": ["myeongnyun 4-ga", "myeongnyun4-ga", "명륜4가"]}, "geometry": {"type": "Point", "coordinates": [126.99977, 37.58214]}}, {"type": "Feature", "properties": {"name": "묘동", "name_en": "Myo-dong", "aliases": ["myo", "myo-dong", "묘", "묘동"]}, "geometry": {"type": "Point", "coordinates": [126.9918466, 37.5723634]}}, {"type": "Feature", "properties": {"name": "봉익동", "name_en": "Bongik-dong", "aliases": ["bongik", "bongik-dong", "봉익", "봉익동"]}, "geometry": {"type": "Point", "coordinates": [126.99303, 37.572]}}, {"type": "Feature", "properties": {"name": "사간동", "name_en": "Sagan-dong", "aliases": ["sagan", "sagan-dong", "사간", "사간동"]}, "geometry": {"type": "Point", "coordinates": [126.9802, 37.57689]}}, {"type": "Feature", "properties": {"name": "서린동", "name_en": "Seorin-dong", "aliases": ["seorin", "seorin-dong", "서린", "서린동"]}, "geometry": {"type": "Point", "coordinates": [126.97959, 37.56925]}}, {"type": "Feature", "properties": {"name": "소격동", "name_en": "Sogyeok-dong", "aliases": ["sogyeok", "sogyeok-dong", "소격", "소격동"]}, "geometry": {"type": "Point", "coordinates": [126.98073, 37.57962]}}, {"type": "Feature", "properties": {"name": "송현동", "name_en": "Songhyeon-dong", "aliases": ["songhyeon", "songhyeon-dong", "송현", "송현동"]}, "geometry": {"type": "Point", "coordinates": [126.98149, 37.57689]}}, {"type": "Feature", "properties": {"name": "수송동", "name_en": "Susong-dong", "aliases": ["susong", "susong-dong", "수송", "수송동"]}, "geometry": {"type": "Point", "coordinates": [126.98093, 37.57371]}}, {"type": "Feature", "properties": {"name": "안국동", "name_en": "Anguk-dong", "aliases": ["anguk", "anguk-dong", "안국", "안국동"]}, "geometry": {"type": "Point", "coordinates": [126.98363, 37.57721]}}, {"type": "Feature", "properties": {"name": "연건동", "name_en": "Yeongeon-dong", "aliases": ["yeongeon", "yeongeon-dong", "연건", "연건동"]}, "geometry": {"type": "Point", "coordinates": [126.9999208, 37.5784056]}}, {"type": "Feature", "properties": {"name": "연지동", "name_en": "Yeonji-dong", "aliases": ["yeonji", "yeonji-dong", "연지", "연지동"]}, "geometry": {"type": "Point", "coordinates": [126.99949, 37.57358]}}, {"type": "Feature", "properties": {"name": "예지동", "name_en": "Yeji-dong", "aliases": ["yeji", "yeji-dong", "예지", "예지동"]}, "geometry": {"type": "Point", "coordinates": [126.9982556, 37.5695591]}}, {"type": "Feature", "properties": {"name": "와룡동", "name_en": "Waryong-dong", "aliases": ["waryong", "waryong-dong", "와룡", "와룡동"]}, "geometry": {"type": "Point", "coordinates": [126.9922844, 37.581572]}}, {"type": "Feature", "properties": {"name": "운니동", "name_en": "Unni-dong", "aliases": ["unni", "unni-dong", "운니", "운니동"]}, "geometry": {"type": "Point", "coordinates": [126.98793, 37.57603]}}, {"type": "Feature", "properties": {"name": "원남동", "name_en": "Wonnam-dong", "aliases": ["wonnam", "wonnam-dong", "원남", "원남동"]}, "geometry": {"type": "Point", "coordinates": [126.99723, 37.57538]}}, {"type": "Feature", "properties": {"name": "원서동", "name_en": "Wonseo-dong", "aliases": ["wonseo", "wonseo-dong", "원서", "원서동"]}, "geometry": {"type": "Point", "coordinates": [126.9889406, 37.58146]}}, {"type": "Feature", "properties": {"name": "익선동", "name_en": "Ikseon-dong", "aliases": ["ikseon", "ikseon-dong", "ikseondong", "익선", "익선동"]}, "geometry": {"type": "Point", "coordinates": [126.9897757, 37.5743576]}}, {"type": "Feature", "properties": {"name": "인사동", "name_en": "Insa-dong", "aliases": ["insa", "insa-dong", "insadong", "인사", "인사동"]}, "geometry": {"type": "Point", "coordinates": [126.9864242, 37.5716543]}}, {"type": "Feature", "properties": {"name": "인의동", "name_en": "Inui-dong", "aliases": ["inui", "inui-dong", "인의", "인의동"]}, "geometry": {"type": "Point", "coordinates": [126.9971, 37.57236]}}, {"type": "Feature", "properties": {"name": "장사동", "name_en": "Jangsa-dong", "aliases": ["jangsa", "jangsa-dong", "장사", "장사동"]}, "geometry": {"type": "Point", "coordinates": [126.99348, 37.56897]}}, {"type": "Feature", "properties": {"name": "재동", "name_en": "Jae-dong", "aliases": ["jae", "jae-dong", "재", "재동"]}, "geometry": {"type": "Point", "coordinates": [126.9852993, 37.5783667]}}, {"type": "Feature", "properties": {"name": "종로1가", "name_en": "Jongno 1-ga", "aliases": ["jongno 1-ga", "jongno1-ga", "종로1가"]}, "geometry": {"type": "Point", "coordinates": [126.98209, 37.57032]}}, {"type": "Feature", "properties": {"name": "종로2가", "name_en": "Jongno 2-ga", "aliases": ["jongno 2-ga", "jongno2-ga", "종로2가"]}, "geometry": {"type": "Point", "coordinates": [126.9882267, 37.5709125]}}, {"type": "Feature", "properties": {"name": "종로3가", "name_en": "Jongno 3-ga", "aliases": ["jongno 3-ga", "jongno3-ga", "종로3가"]}, "geometry": {"type": "Point", "coordinates": [126.9920231, 37.5707007]}}, {"type": "Feature", "properties": {"name": "종로4가", "name_en": "Jongno 4-ga", "aliases": ["jongno 4-ga", "jongno4-ga", "종로4가"]}, "geometry": {"type": "Point", "coordinates": [126.99771, 37.57036]}}, {"type": "Feature", "properties": {"name": "종로5가", "name_en": "Jongno 5-ga", "aliases": ["jongno 5-ga", "jongno5-ga", "종로5가"]}, "geometry": {"type": "Point", "coordinates": [127.00301, 37.57049]}}, {"type": "Feature", "properties": {"name": "종로6가", "name_en": "Jongno 6-ga", "aliases": ["jongno 6-ga", "jongno6-ga", "종로6가"]}, "geometry": {"type": "Point", "coordinates": [127.00681, 37.57174]}}, {"type": "Feature", "properties": {"name": "중학동", "name_en": "Junghak-dong", "aliases": ["junghak", "junghak-dong", "중학", "중학동"]}, "geometry": {"type": "Point", "coordinates": [126.9794823, 37.5750852]}}, {"type": "Feature", "properties": {"name": "청진동", "name_en": "Cheongjin-dong", "aliases": ["cheongjin", "cheongjin-dong", "청진", "청진동"]}, "geometry": {"type": "Point", "coordinates": [126.9799, 37.57125]}}, {"type": "Feature", "properties": {"name": "충신동", "name_en": "Chungsin-dong", "aliases": ["chungsin", "chungsin-dong", "충신", "충신동"]}, "geometry": {"type": "Point", "coordinates": [127.00537, 37.57459]}}, {"type": "Feature", "properties": {"name": "효제동", "name_en": "Hyoje-dong", "aliases": ["hyoje", "hyoje-dong", "효제", "효제동"]}, "geometry": {"type": "Point", "coordinates": [127.00299, 37.5732]}}, {"type": "Feature", "properties": {"name": "훈정동", "name_en": "Hunjeong-dong", "aliases": ["hunjeong", "hunjeong-dong", "훈정", "훈정동"]}, "geometry": {"type": "Point", "coordinates": [126.9938656, 37.5753522]}}, {"type": "Feature", "properties": {"name": "가회동", "name_en": "Gahoe-dong", "aliases": ["bukchon", "bukchon hanok village", "bukchonhanokvillage", "gahoe", "gahoe-dong", "가회", "가회동", "북촌"]}, "geometry": {"type": "Polygon", "coordinates": [[[126.9830022, 37.5823687], [126.9829246, 37.5825546], [126.9829043, 37.5826096], [126.9829236, 37.5829986], [126.9829268, 37.5831565], [126.9829888, 37.5833027], [126.9831205, 37.5834432], [126.9833296, 37.5835866], [126.9837843, 37.5838615], [126.9835283, 37.584258], [126.9834585, 37.584477], [126.9838116, 37.5849642], [126.9840495, 37.5851123], [126.984372, 37.5852525], [126.9845713, 37.5853532], [126.9850765, 37.5856949], [126.985103, 37.5858804], [126.985117, 37.5859953], [126.9853951, 37.5861525], [126.9853181, 37.5862781], [126.98542, 37.5865459], [126.9858438, 37.5867075], [126.9861603, 37.5871156], [126.9860272, 37.5874531], [126.9862125, 37.5876638], [126.98612165699637, 37.58796], [126.98777224566844, 37.58796], [126.9878205, 37.5878638], [126.9877052, 37.58753], [126.9876493, 37.5872369], [126.9878232, 37.5869413], [126.9879895, 37.5866884], [126.9878584, 37.5861029], [126.9880271, 37.5858403], [126.9880914, 37.5855093], [126.9884583, 37.585611], [126.9889869, 37.5855437], [126.9889262, 37.5852002], [126.9888901, 37.5848163], [126.9894583, 37.5836923], [126.9894433, 37.5829028], [126.9897688, 37.5825007], [126.9898083, 37.5822123], [126.9895121, 37.581671], [126.9895764, 37.5809025], [126.9893195, 37.5809088], [126.9892199, 37.5789957], [126.9892095, 37.5787044], [126.9892474, 37.5783044], [126.9893205, 37.5774939], [126.9887166, 37.5774574], [126.9878865, 37.5775194], [126.9872495, 37.5773165], [126.9867803, 37.5771275], [126.986599, 37.577045], [126.9863043, 37.5769056], [126.9856409, 37.576609], [126.9855119, 37.5768887], [126.9856185, 37.5769318], [126.9854847, 37.5774269], [126.9851801, 37.5773922], [126.9851008, 37.5774335], [126.9846134, 37.5773212], [126.9843847, 37.5780478], [126.984272, 37.5781541], [126.9841858, 37.5784416], [126.9840038, 37.5784219], [126.9838803, 37.5787828], [126.9842251, 37.5788769], [126.9843448, 37.5790329], [126.9840145, 37.5792693], [126.9838938, 37.5793502], [126.9838, 37.5794476], [126.9839598, 37.5796118], [126.9838467, 37.5796741], [126.9838602, 37.5799357], [126.9838636, 37.5799838], [126.9839178, 37.5801673], [126.9839721, 37.5802856], [126.9840232, 37.580377], [126.9837799, 37.5805267], [126.9837481, 37.5805627], [126.9837374, 37.5805857], [126.9837298, 37.5806635], [126.9837333, 37.5806849], [126.9838264, 37.5809784], [126.9838429, 37.5810302], [126.9839843, 37.5810003], [126.9840061, 37.5810918], [126.9840601, 37.5811676], [126.9840389, 37.5813993], [126.9840077, 37.5814809], [126.9839726, 37.5815272], [126.9839085, 37.5815592], [126.9838636, 37.5815743], [126.9838298, 37.5815991], [126.9837584, 37.5816883], [126.9838419, 37.5817512], [126.9836524, 37.5819271], [126.9835694, 37.5819069], [126.9833603, 37.58208], [126.9831061, 37.5820793], [126.9830022, 37.5823687]]]}}, {"type": "Feature", "properties": {"name": "삼청동", "name_en": "Samcheong-dong", "aliases": ["samcheong", "samcheong-dong", "삼청", "삼청동"]}, "geometry": {"type": "Polygon", "coordinates": [[[126.9862125, 37.5876638], [126.9860272, 37.5874531], [126.9861603, 37.5871156], [126.9858438, 37.5867075], [126.98542, 37.5865459], [126.9853181, 37.5862781], [126.9853951, 37.5861525], [126.985117, 37.5859953], [126.985103, 37.5858804], [126.9850765, 37.5856949], [126.9845713, 37.5853532], [126.984372, 37.5852525], [126.9840495, 37.5851123], [126.9838116, 37.5849642], [126.9834585, 37.584477], [126.9835283, 37.584258], [126.9837843, 37.5838615], [126.9833296, 37.5835866], [126.9831205, 37.5834432], [126.9829888, 37.5833027], [126.9829268, 37.5831565], [126.9829236, 37.5829986], [126.9829043, 37.5826096], [126.9829246, 37.5825546], [126.9830022, 37.5823687], [126.9831061, 37.5820793], [126.9833603, 37.58208], [126.9835694, 37.5819069], [126.9836524, 37.5819271], [126.9838419, 37.5817512], [126.9837584, 37.5816883], [126.9838298, 37.5815991], [126.9838636, 37.5815743], [126.9839085, 37.5815592], [126.9839726, 37.5815272], [126.9840077, 37.5814809], [126.9840389, 37.5813993], [126.9840601, 37.5811676], [126.9840061, 37.5810918], [126.9839843, 37.5810003], [126.9838429, 37.5810302], [126.9838264, 37.5809784], [126.9837333, 37.5806849], [126.9837298, 37.5806635], [126.9837374, 37.5805857], [126.9837481, 37.5805627], [126.9837799, 37.5805267], [126.9840232, 37.580377], [126.9839721, 37.5802856], [126.9839178, 37.5801673], [126.9838636, 37.5799838], [126.9838602, 37.5799357], [126.9838467, 37.5796741], [126.9839598, 37.5796118], [126.9838, 37.5794476], [126.9838938, 37.5793502], [126.9840145, 37.5792693], [126.9843448, 37.5790329], [126.9842251, 37.5788769], [126.9838803, 37.5787828], [126.9840038, 37.5784219], [126.9841858, 37.5784416], [126.984272, 37.5781541], [126.9843847, 37.5780478], [126.9846134, 37.5773212], [126.9851008, 37.5774335], [126.9851801, 37.5773922], [126.9854847, 37.5774269], [126.9856185, 37.5769318], [126.9855119, 37.5768887], [126.9856409, 37.576609], [126.984816, 37.5762322], [126.9843539, 37.5759937], [126.9833218, 37.5755667], [126.9830705, 37.5755035], [126.982697, 37.5754816], [126.9815618, 37.5756981], [126.980996, 37.5759734], [126.9806539, 37.576111], [126.9796194, 37.5760424], [126.9796541, 37.576263], [126.9796487, 37.5764334], [126.9796409, 37.5767052], [126.9796285, 37.5771383], [126.9796263, 37.5772339], [126.9796372, 37.5774937], [126.979649, 37.5781315], [126.9796509, 37.5783043], [126.9796501, 37.5783696], [126.9796595, 37.5785349], [126.9796719, 37.5787757], [126.9796724, 37.5787899], [126.9796838, 37.5788575], [126.9797063, 37.5789709], [126.9797306, 37.5790847], [126.9797664, 37.5792184], [126.9797798, 37.5792679], [126.9797867, 37.5792957], [126.9798653, 37.5795902], [126.980013, 37.5801061], [126.9800849, 37.580357], [126.9801919, 37.5807557], [126.9802183, 37.5808472], [126.9802278, 37.5808894], [126.9801903, 37.5809278], [126.9801245, 37.5809627], [126.9800698, 37.580992], [126.980089, 37.5810677], [126.9800957, 37.5810956], [126.9800971, 37.5810977], [126.9801198, 37.5811739], [126.9801992, 37.5813837], [126.9802302, 37.5814646], [126.9803242, 37.581719], [126.9803527, 37.5817961], [126.9803816, 37.5819258], [126.9804755, 37.5823911], [126.9804791, 37.5824332], [126.9804727, 37.5824759], [126.9804337, 37.5825501], [126.9803953, 37.5825881], [126.980345, 37.5826311], [126.9803303, 37.5826137], [126.9803096, 37.5826279], [126.9802907, 37.5826402], [126.980192, 37.5827076], [126.9799998, 37.5828352], [126.9799457, 37.5828759], [126.9799142, 37.5828996], [126.9798447, 37.5829538], [126.9797768, 37.5830082], [126.9796686, 37.5830956], [126.9796405, 37.5831182], [126.9796037, 37.5831478], [126.9795179, 37.5832167], [126.9793983, 37.5833123], [126.9793609, 37.5833427], [126.9792897, 37.5833899], [126.9792261, 37.5834241], [126.9792229, 37.5834273], [126.979233, 37.5834396], [126.9792612, 37.5834324], [126.9792995, 37.5835187], [126.9792675, 37.5835284], [126.9792644, 37.583569], [126.9792515, 37.5836601], [126.9792456, 37.5837014], [126.9792461, 37.5837118], [126.9792404, 37.5837428], [126.9792362, 37.5837653], [126.9792351, 37.5837671], [126.9792334, 37.5837804], [126.9791924, 37.5839956], [126.9791828, 37.5840797], [126.9791854, 37.5841181], [126.9791862, 37.584121], [126.9791861, 37.5841282], [126.9791868, 37.5841304], [126.9791883, 37.58415], [126.9791971, 37.5842987], [126.9791863, 37.5843213], [126.9791768, 37.5843812], [126.9791615, 37.5844749], [126.9791436, 37.5845151], [126.9791368, 37.5845305], [126.979097, 37.5846227], [126.9790583, 37.584694], [126.9790564, 37.5846961], [126.9790555, 37.5846993], [126.9790541, 37.5847014], [126.9790685, 37.5848543], [126.9791107, 37.5849623], [126.9792181, 37.5850725], [126.9793564, 37.5852094], [126.979403, 37.5852512], [126.9794867, 37.5852994], [126.9795316, 37.5853358], [126.9795544, 37.5853655], [126.9795856, 37.5853821], [126.9796034, 37.5854445], [126.9796138, 37.5854915], [126.9796115, 37.5855139], [126.9795847, 37.5855946], [126.9795756, 37.5856407], [126.979563, 37.5857078], [126.9795526, 37.5857843], [126.9795733, 37.5858602], [126.9795509, 37.5859735], [126.9793917, 37.586252], [126.9793203, 37.5863066], [126.9791833, 37.5865427], [126.9791839, 37.5871234], [126.9790962, 37.5873153], [126.9790095, 37.5873813], [126.9788393, 37.5874796], [126.978741, 37.5875123], [126.9786552, 37.587584], [126.9786316, 37.587666], [126.978578, 37.5877774], [126.9785431, 37.5878023], [126.9784851, 37.5878044], [126.9783814, 37.5877973], [126.9783055, 37.58782], [126.9782328, 37.5878786], [126.9782033, 37.5879049], [126.9781738, 37.5879262], [126.97811484425287, 37.58796], [126.98612165699637, 37.58796], [126.9862125, 37.5876638]]]}}, {"type": "Feature", "properties": {"name": "이화동", "name_en": "Ihwa-dong", "aliases": ["ihwa", "ihwa-dong", "이화", "이화동"]}, "geometry": {"type": "Polygon", "coordinates": [[[126.9967101, 37.5784346], [126.9965333, 37.5793126], [126.9964716, 37.5798034], [126.9963186, 37.5805985], [126.9963512, 37.5810128], [126.9966564, 37.5813148], [126.9969453, 37.5815572], [126.9975503, 37.5819829], [126.9978213, 37.5817741], [126.9979094, 37.581258], [126.9988461, 37.5813316], [126.9997172, 37.5812196], [126.999872, 37.5811276], [127.0006854, 37.5813221], [127.0006869, 37.581389], [127.001415, 37.5814029], [127.0014882, 37.581385], [127.0017761, 37.5813957], [127.0020469, 37.5814512], [127.0020336, 37.58152], [127.00201, 37.5815754], [127.0018646, 37.5819165], [127.0017707, 37.582246], [127.0016715, 37.5827816], [127.0017184, 37.5831298], [127.0020309, 37.5832705], [127.0022439, 37.5832768], [127.0028809, 37.5838581], [127.0032499, 37.5840438], [127.0033957, 37.5840507], [127.0038012, 37.5844087], [127.0038173, 37.5844704], [127.0039339, 37.5845267], [127.0039326, 37.5847244], [127.0040855, 37.5848615], [127.0041137, 37.5849912], [127.0044664, 37.5853068], [127.0045321, 37.5855725], [127.0047211, 37.5857494], [127.0049438, 37.5856224], [127.0050621, 37.5856598], [127.0053469, 37.5855377], [127.0058124, 37.5852994], [127.0062487, 37.5853164], [127.0063979, 37.5854086], [127.006548, 37.5855125], [127.0066768, 37.5853717], [127.0068963, 37.5852582], [127.006891, 37.5846548], [127.0071218, 37.5841244], [127.0071302, 37.5839291], [127.0071292, 37.5837485], [127.0071929, 37.5834561], [127.0072823, 37.5833162], [127.007258, 37.583068], [127.007121, 37.5828259], [127.0069667, 37.5826034], [127.0067488, 37.5823099], [127.006934, 37.5821949], [127.0070091, 37.5820321], [127.0070345, 37.5819968], [127.0070755, 37.5819631], [127.0072889, 37.5818599], [127.0073155, 37.5818421], [127.0073398, 37.5818198], [127.0074865, 37.5816211], [127.0078091, 37.5814895], [127.0080207, 37.5811944], [127.008314, 37.5810459], [127.0086275, 37.5806201], [127.0088581, 37.5803527], [127.0088318, 37.5802749], [127.0088152, 37.5801777], [127.008796, 37.5800472], [127.008784, 37.5799905], [127.0087219, 37.579866], [127.0086156, 37.579739], [127.0084983, 37.5795932], [127.0084139, 37.5795304], [127.008298, 37.5794475], [127.0082279, 37.5793867], [127.0081418, 37.5792934], [127.0081, 37.5792111], [127.0080796, 37.5790832], [127.008078, 37.5788826], [127.0080621, 37.5787395], [127.0080594, 37.5787], [127.0080488, 37.5785456], [127.0080619, 37.5784978], [127.0080806, 37.578452], [127.008191, 37.5782924], [127.0082815, 37.5781998], [127.0083205, 37.5781625], [127.0083642, 37.5781047], [127.008395, 37.578052], [127.0084032, 37.5780161], [127.008414, 37.5779774], [127.0084155, 37.5779375], [127.0084093, 37.5778901], [127.008386, 37.5777677], [127.0083724, 37.5776952], [127.0083558, 37.5775383], [127.0083822, 37.5774752], [127.0084481, 37.5774191], [127.0085993, 37.5773195], [127.0086756, 37.5772316], [127.0086909, 37.5771921], [127.00869, 37.577118], [127.008696, 37.5770162], [127.0086943, 37.5769845], [127.0086827, 37.5769171], [127.0086483, 37.5767766], [127.0086365, 37.5766961], [127.008533, 37.5766965], [127.0080507, 37.5766784], [127.0073658, 37.5766024], [127.007093, 37.5765022], [127.006529, 37.5764365], [127.006411, 37.576326], [127.0059755, 37.5762515], [127.0052636, 37.5759668], [127.0044023, 37.5758898], [127.0042223, 37.5757605], [127.0037113, 37.5756559], [127.0033023, 37.5755713], [127.002831, 37.5755381], [127.0030004, 37.5752963], [127.0023943, 37.5752525], [127.0023166, 37.5751982], [127.0020564, 37.5751568], [127.001878, 37.5750813], [127.0017064, 37.575076], [127.0016581, 37.5750122], [127.0015669, 37.574974], [127.0013753, 37.5749887], [127.0013174, 37.5753205], [127.0013067, 37.5757435], [127.0012611, 37.5758541], [127.0012759, 37.5761061], [127.0009929, 37.5761155], [127.0009956, 37.5760029], [127.0009606, 37.5758944], [127.0006978, 37.5759454], [127.0006737, 37.5760645], [127.0005423, 37.5760762], [127.0004135, 37.5760326], [127.0003036, 37.5758881], [127.0001748, 37.5758392], [127.0001165, 37.5758615], [127.0000353, 37.5758604], [126.9999549, 37.5757817], [126.9999227, 37.5758307], [126.9995579, 37.5759455], [126.9994955, 37.5759886], [126.9995987, 37.5760331], [126.9995311, 37.576141], [126.9994238, 37.5761772], [126.9993916, 37.576141], [126.9991391, 37.5761522], [126.9990376, 37.5763387], [126.9990201, 37.5764388], [126.9987881, 37.5767143], [126.9987828, 37.5768298], [126.9988454, 37.5768458], [126.998809, 37.5769725], [126.998416, 37.5769024], [126.9984636, 37.576698], [126.9982302, 37.5766597], [126.9980602, 37.576569], [126.9979997, 37.5767152], [126.9978876, 37.576685], [126.9977286, 37.5770679], [126.9976321, 37.5770487], [126.9976401, 37.5769807], [126.997439, 37.5769488], [126.9971656, 37.5769428], [126.9971294, 37.5770859], [126.9967101, 37.5784346]]]}}, {"type": "Feature", "properties": {"name": "혜화동", "name_en": "Hyehwa-dong", "aliases": ["hyehwa", "hyehwa-dong", "혜화", "혜화동"]}, "geometry": {"type": "Polygon", "coordinates": [[[126.9877052, 37.58753], [126.9878205, 37.5878638], [126.98777224566844, 37.58796], [127.00394555647058, 37.58796], [127.0039634, 37.5879339], [127.003942, 37.5877957], [127.0038981, 37.5877228], [127.0039926, 37.5877676], [127.004056, 37.5877128], [127.0040104, 37.5876788], [127.0041338, 37.5875789], [127.0042365, 37.5871445], [127.0051403, 37.5869513], [127.005867, 37.5869465], [127.0061744, 37.5865951], [127.006616, 37.5860491], [127.006548, 37.5855125], [127.0063979, 37.5854086], [127.0062487, 37.5853164], [127.0058124, 37.5852994], [127.0053469, 37.5855377], [127.0050621, 37.5856598], [127.0049438, 37.5856224], [127.0047211, 37.5857494], [127.0045321, 37.5855725], [127.0044664, 37.5853068], [127.0041137, 37.5849912], [127.0040855, 37.5848615], [127.0039326, 37.5847244], [127.0039339, 37.5845267], [127.0038173, 37.5844704], [127.0038012, 37.5844087], [127.0033957, 37.5840507], [127.0032499, 37.5840438], [127.0028809, 37.5838581], [127.0022439, 37.5832768], [127.0020309, 37.5832705], [127.0017184, 37.5831298], [127.0016715, 37.5827816], [127.0017707, 37.582246], [127.0018646, 37.5819165], [127.00201, 37.5815754], [127.0020336, 37.58152], [127.0020469, 37.5814512], [127.0017761, 37.5813957], [127.0014882, 37.581385], [127.001415, 37.5814029], [127.0006869, 37.581389], [127.0006854, 37.5813221], [126.999872, 37.5811276], [126.9997172, 37.5812196], [126.9988461, 37.5813316], [126.9979094, 37.581258], [126.9978213, 37.5817741], [126.9975503, 37.5819829], [126.997748, 37.5821485], [126.997529, 37.5826418], [126.9974146, 37.5827813], [126.9972076, 37.582909], [126.997061, 37.5828564], [126.9965561, 37.582739], [126.9963339, 37.5827561], [126.996295, 37.5828188], [126.9962615, 37.5828262], [126.9961783, 37.5830983], [126.9961247, 37.583126], [126.9960173, 37.5835121], [126.9959155, 37.583566], [126.995827, 37.5835681], [126.9956151, 37.5838189], [126.9952686, 37.5841589], [126.9947013, 37.5848423], [126.9944651, 37.5851645], [126.9940727, 37.5855835], [126.9934907, 37.5866094], [126.9936731, 37.586682], [126.9934371, 37.5869965], [126.9934961, 37.5872665], [126.9904759, 37.5870667], [126.9895215, 37.5874428], [126.9892386, 37.5875938], [126.98906, 37.5875845], [126.9887814, 37.5875584], [126.9886494, 37.5875228], [126.9884771, 37.5874322], [126.9882159, 37.5873002], [126.9876493, 37.5872369], [126.9877052, 37.58753]]]}}]}