{"type": "FeatureCollection", "features": [{"type": "Feature", "geometry": {"type": "MultiLineString", "coordinates": [[[126.9791451, 37.5690278], [126.9791491, 37.569054], [126.9791678, 37.5692228], [126.9791688, 37.5692561], [126.9791699, 37.5692947]], [[126.9791451, 37.5690278], [126.9791406, 37.568985], [126.9791386, 37.5689633], [126.9791377, 37.5689434], [126.9791915, 37.56894], [126.9792102, 37.5689268], [126.9792191, 37.5689007], [126.9792179, 37.5688684]], [[126.9791451, 37.5690278], [126.9792862, 37.5690224], [126.9794117, 37.5690176]], [[126.9793345, 37.5688623], [126.9793533, 37.5688862], [126.979384, 37.5689041], [126.9793991, 37.5689087]], [[126.9825226, 37.5687196], [126.9824677, 37.5687241], [126.9820487, 37.5687474], [126.981309, 37.5687884], [126.9811017, 37.5688031], [126.9798126, 37.5688956], [126.9794661, 37.5689218], [126.9794245, 37.5689164], [126.9793991, 37.5689087]], [[126.9794117, 37.5690176], [126.9794041, 37.5689617], [126.9794016, 37.568929], [126.9793991, 37.5689087]], [[126.9794117, 37.5690176], [126.9794169, 37.5690511], [126.9794302, 37.5692181], [126.979435, 37.5692556]], [[126.9794117, 37.5690176], [126.9795291, 37.5690091], [126.9800485, 37.5689685]], [[126.9794388, 37.5692859], [126.979435, 37.5692556]], [[126.9810434, 37.5691476], [126.9800819, 37.5692164], [126.979435, 37.5692556]], [[126.9800485, 37.5689685], [126.9800517, 37.5689855], [126.9800883, 37.5689826], [126.9800924, 37.5690026], [126.9801681, 37.5689967]], [[126.9800485, 37.5689685], [126.9804925, 37.5689238], [126.9809942, 37.5688871], [126.9810292, 37.5688852]], [[126.9801681, 37.5689967], [126.9801836, 37.5690719], [126.9801928, 37.5691431], [126.98104308752825, 37.56911112864731]], [[126.98103111789159, 37.56891640113565], [126.9801681, 37.5689967]], [[126.9808141, 37.5700525], [126.9808468, 37.569835], [126.9808456, 37.5696629], [126.9808141, 37.5695204], [126.9807931, 37.5694889], [126.9808059, 37.5692705], [126.980805, 37.5692222], [126.9810156, 37.5692043], [126.9810187, 37.5691802], [126.9810434, 37.5691476]], [[126.98103111789159, 37.56891640113565], [126.9810292, 37.5688852]], [[126.9811128, 37.5688807], [126.9810292, 37.5688852]], [[126.98104308752825, 37.56911112864731], [126.98103111789159, 37.56891640113565]], [[126.9818286, 37.5688422], [126.98103111789159, 37.56891640113565]], [[126.9810434, 37.5691476], [126.9810441, 37.5691276], [126.98104308752825, 37.56911112864731]], [[126.98104308752825, 37.56911112864731], [126.9813231, 37.5691006]], [[126.98136, 37.5691242], [126.9810434, 37.5691476]], [[126.9811092, 37.5688383], [126.9811128, 37.5688807]], [[126.9811128, 37.5688807], [126.9813238, 37.5688693], [126.9820541, 37.56881], [126.9825333, 37.5687786]], [[126.98136, 37.5691242], [126.9813597, 37.5691098], [126.9813241, 37.5691119], [126.9813231, 37.5691006]], [[126.9818627, 37.5690659], [126.9813546, 37.5690978], [126.9813231, 37.5691006]], [[126.98136, 37.5691242], [126.9819129, 37.5690827], [126.982588, 37.5690312], [126.9825861, 37.5690204], [126.98257966939485, 37.56896953772235]], [[126.9818286, 37.5688422], [126.9818311, 37.5688599], [126.9818527, 37.5689963], [126.9818627, 37.5690659]], [[126.9818286, 37.5688422], [126.9823964, 37.5688077], [126.98255865254394, 37.568803306880575]], [[126.98257966939485, 37.56896953772235], [126.982466, 37.5689856], [126.9818627, 37.5690659]], [[126.9824936, 37.5692347], [126.9824298, 37.5691828], [126.9824357, 37.5691328], [126.9823322, 37.5691385], [126.9819233, 37.5691656], [126.9819491, 37.5691379], [126.9825247, 37.5690978], [126.9825698, 37.5691094], [126.9826094, 37.5691195], [126.9826532, 37.5691477], [126.9826696, 37.5692138]], [[126.9825333, 37.5687786], [126.9825278, 37.5687657], [126.9825267, 37.5687553], [126.9825226, 37.5687196]], [[126.9825556, 37.5686115], [126.9825562, 37.5686254], [126.9825587, 37.5686767], [126.9825489, 37.5686988], [126.9825226, 37.5687196]], [[126.98255865254394, 37.568803306880575], [126.9825574, 37.5687934], [126.9825333, 37.5687786]], [[126.98257966939485, 37.56896953772235], [126.98255865254394, 37.568803306880575]], [[126.98255865254394, 37.568803306880575], [126.9825626, 37.5688032], [126.9829284, 37.5687933], [126.9831797, 37.5687616]], [[126.9834488, 37.5688676], [126.983338, 37.5688839], [126.983289, 37.5688921], [126.9830519, 37.5689174], [126.9828807, 37.568927], [126.98257966939485, 37.56896953772235]], [[126.9829346, 37.5686012], [126.9829488, 37.5686154], [126.9829717, 37.5686251]], [[126.9829717, 37.5686251], [126.9829922, 37.5686336], [126.9830422, 37.5686414], [126.983651, 37.5685349]], [[126.9830965, 37.5687248], [126.9829888, 37.568739], [126.9829825, 37.568697], [126.9829717, 37.5686251]], [[126.9830965, 37.5687248], [126.9831005, 37.568759], [126.983176, 37.5687506], [126.9831797, 37.5687616]], [[126.9830965, 37.5687248], [126.9834602, 37.5686695], [126.984508, 37.5684596], [126.9854379, 37.5682907], [126.985614, 37.5682585], [126.9856364, 37.568254]], [[126.9834158, 37.5687319], [126.9831797, 37.5687616]], [[126.9834158, 37.5687319], [126.9834423, 37.568811], [126.9834488, 37.5688676]], [[126.9852038, 37.5683901], [126.9849439, 37.5684313], [126.984882, 37.5684427], [126.9834158, 37.5687319]], [[126.9845361, 37.5686523], [126.9834488, 37.5688676]], [[126.9845361, 37.5686523], [126.9845561, 37.568767]], [[126.9852327, 37.5685094], [126.9845361, 37.5686523]], [[126.9852038, 37.5683901], [126.9852214, 37.5684594], [126.9852327, 37.5685094]], [[126.9884704, 37.5680419], [126.9879301, 37.5680476], [126.9866949, 37.5680762], [126.9866406, 37.5680789], [126.985712, 37.5682918], [126.9852038, 37.5683901]], [[126.9852327, 37.5685094], [126.9867416, 37.5682459], [126.9871918, 37.5681953]], [[126.9856204, 37.5682036], [126.9856364, 37.568254]], [[126.9856364, 37.568254], [126.9865964, 37.5680612], [126.9866998, 37.5680521], [126.9868032, 37.5680431], [126.9873989, 37.5680278]], [[126.9871918, 37.5681953], [126.9873401, 37.5683088]], [[126.9884733, 37.5681685], [126.9878801, 37.5681807], [126.9876196, 37.5681867], [126.9875124, 37.5681873], [126.9874953, 37.5681874], [126.9874899, 37.5681876], [126.9874832, 37.5681873], [126.9874788, 37.5681877], [126.9874726, 37.5681881], [126.9874484, 37.5681876], [126.9874446, 37.5681874], [126.9874403, 37.5681876], [126.9874349, 37.5681879], [126.9874304, 37.5681882], [126.9871918, 37.5681953]], [[126.9884704, 37.5680419], [126.988469, 37.5680902], [126.9884733, 37.5681685]], [[126.9901521, 37.568107760707115], [126.9895693, 37.5680661], [126.989551, 37.5680647], [126.9891981, 37.5680576], [126.9889061, 37.5680405], [126.9884704, 37.5680419]], [[126.9884733, 37.5681685], [126.9885132, 37.5681696], [126.9885253, 37.56817], [126.9885427, 37.5681704], [126.988557, 37.5681708], [126.9885717, 37.5681712], [126.9886306, 37.5681729], [126.9886437, 37.5681733], [126.98866, 37.5681737], [126.9886782, 37.5681742], [126.9886956, 37.5681747], [126.988778, 37.568177], [126.9893884, 37.5681859], [126.9894167, 37.5681863], [126.9894551, 37.5681869], [126.9894938, 37.5681875], [126.9895318, 37.568188], [126.9895938, 37.5681889], [126.9896719, 37.5681964]], [[126.9896719, 37.5681964], [126.9896642, 37.5682765]], [[126.9901521, 37.56824385712546], [126.9900385, 37.5682487], [126.9896719, 37.5681964]], [[126.9901521, 37.568107760707115], [126.9901521, 37.5680381]], [[126.990217, 37.5681124], [126.9901521, 37.568107760707115]], [[126.9901521, 37.56824385712546], [126.9901521, 37.568107760707115]], [[126.9901521, 37.5683548], [126.9901521, 37.56824385712546]], [[126.9909138, 37.5682513], [126.9902748, 37.5682401], [126.9902027, 37.5682417], [126.9901521, 37.56824385712546]], [[126.990217, 37.5681124], [126.9901753, 37.5680396]], [[126.990217, 37.5681124], [126.9902361, 37.5681138], [126.9909639, 37.5681683]], [[126.9909138, 37.5682513], [126.9909117, 37.5684141]], [[126.9909138, 37.5682513], [126.9909572, 37.5682545]], [[126.9909572, 37.5682545], [126.9921158, 37.56834], [126.9923657, 37.5683585], [126.9923706, 37.5683588], [126.9923775, 37.5683593], [126.9923866, 37.56836], [126.9923915, 37.5683604], [126.9923937, 37.5683605], [126.9923997, 37.5683608], [126.9924038, 37.5683611], [126.9924076, 37.5683614], [126.9924106, 37.5683615], [126.9924149, 37.5683617], [126.9924202, 37.568362], [126.9924245, 37.5683625], [126.9925626, 37.568373], [126.9930733, 37.5684101]], [[126.9909639, 37.5681683], [126.9909605, 37.5682116], [126.9909572, 37.5682545]], [[126.9909639, 37.5681683], [126.9923837, 37.5682747], [126.9923872, 37.5682749], [126.9923913, 37.5682753], [126.9923947, 37.5682755], [126.9924278, 37.568277], [126.9924313, 37.5682776], [126.9924353, 37.5682782], [126.9924398, 37.5682788], [126.9924428, 37.5682793], [126.9924956, 37.5682831], [126.9926041, 37.568291], [126.9927785, 37.5683042]], [[126.9926376, 37.5681995], [126.9927785, 37.5683042]], [[126.9927785, 37.5683042], [126.9930839, 37.5683272]], [[126.9930614, 37.5686896], [126.9930801, 37.5685942]], [[126.9930733, 37.5684101], [126.9933116, 37.5684274], [126.9933889, 37.568433], [126.9945445, 37.5685169], [126.9949579, 37.5685469], [126.9950783, 37.5685583]], [[126.9930839, 37.5683272], [126.9930783, 37.5683708], [126.9930733, 37.5684101]], [[126.9930839, 37.5683272], [126.9941508, 37.5684077], [126.9941741, 37.5684095], [126.9941957, 37.5684111], [126.9942176, 37.5684128], [126.9942387, 37.5684143], [126.9947126, 37.5684501], [126.9949893, 37.568471], [126.99513194484284, 37.56848391634117]], [[126.9943577, 37.5682007], [126.9943522, 37.5682397], [126.9943402, 37.5683361]], [[126.9944167, 37.5688149], [126.9946578, 37.5688324], [126.994666, 37.5687908], [126.9946928, 37.5687871], [126.9946985, 37.5687053]], [[126.9950783, 37.5685583], [126.9951134, 37.5685616], [126.9951169, 37.568562], [126.9951205, 37.5685623], [126.9951249, 37.5685627], [126.99512898101122, 37.56856309298627]], [[126.9950783, 37.5685583], [126.9950736, 37.568599], [126.9951055, 37.5686173], [126.9951266, 37.5686267]], [[126.9951154, 37.5688273], [126.9951266, 37.5686267]], [[126.9951266, 37.5686267], [126.99512898101122, 37.56856309298627]], [[126.99512898101122, 37.56856309298627], [126.9951384, 37.568564], [126.9951422, 37.5685644], [126.9951477, 37.5685649], [126.99516137850155, 37.56856618622437]], [[126.99512898101122, 37.56856309298627], [126.99513194484284, 37.56848391634117]], [[126.99513194484284, 37.56848391634117], [126.995166, 37.568487], [126.99516996990388, 37.568487366019504]], [[126.99513194484284, 37.56848391634117], [126.9951378, 37.5683275]], [[126.9955223, 37.5683519], [126.9951378, 37.5683275]], [[126.9951378, 37.5683275], [126.9951709, 37.5681089]], [[126.99516137850155, 37.56856618622437], [126.995203, 37.5685701]], [[126.99516137850155, 37.56856618622437], [126.9951556, 37.5686192], [126.9951991, 37.5686249], [126.995203, 37.5685701]], [[126.99516996990388, 37.568487366019504], [126.99516137850155, 37.56856618622437]], [[126.99516996990388, 37.568487366019504], [126.9952083, 37.5684909], [126.9952425, 37.568494], [126.9953803, 37.5685065], [126.9954232, 37.5685104], [126.995457, 37.5685135], [126.99551288999204, 37.5685185582402]], [[126.99516996990388, 37.568487366019504], [126.9951774, 37.5684192], [126.9951779, 37.5684142], [126.9951814, 37.5683822], [126.99551946104711, 37.56840217996733]], [[126.99550835225806, 37.56859907325958], [126.995203, 37.5685701]], [[126.9952971, 37.5686867], [126.9952986, 37.5686737]], [[126.9954855, 37.5688426], [126.9954914, 37.5687723], [126.9954948, 37.5687481], [126.9954959, 37.5687402], [126.9955035, 37.5686854], [126.99550835225806, 37.56859907325958]], [[127.00017161034519, 37.56935810074445], [127.0000206, 37.5693298], [126.9999348, 37.5693122], [126.9998402, 37.5692904], [126.9980515, 37.5688822], [126.9979043, 37.568862], [126.9978967, 37.568861], [126.9978868, 37.5688597], [126.9978811, 37.5688589], [126.9977964, 37.5688473], [126.997768, 37.5688434], [126.9971973, 37.5687659], [126.9971162, 37.5687549], [126.997025, 37.5687425], [126.996932, 37.5687299], [126.9968519, 37.568719], [126.9967692, 37.5687078], [126.9967551, 37.5687066], [126.9966538, 37.5686978], [126.9965563, 37.5686894], [126.9964594, 37.5686811], [126.9963673, 37.5686731], [126.9962214, 37.5686605], [126.9961965, 37.5686587], [126.9961063, 37.568651], [126.9959576, 37.5686382], [126.9957614, 37.5686223], [126.9955803, 37.5686059], [126.99550835225806, 37.56859907325958]], [[126.99550835225806, 37.56859907325958], [126.9955102, 37.5685662], [126.99551288999204, 37.5685185582402]], [[126.99551288999204, 37.5685185582402], [126.9956139, 37.5685277], [126.9963864, 37.568606], [126.9963962, 37.5686069], [126.9964056, 37.5686079], [126.9964142, 37.5686088], [126.9964229, 37.5686096], [126.996432, 37.5686106], [126.996441, 37.5686115], [126.9964485, 37.5686122], [126.9967759, 37.5686454], [126.9976942, 37.5687459], [126.9977677, 37.568754], [126.9978882, 37.5687745], [126.9978986, 37.5687763], [126.9979141, 37.5687789], [126.9979203, 37.56878], [126.9980682, 37.5688052], [127.0000396, 37.5691707], [127.0001261, 37.5691861], [127.0001344, 37.5691861], [127.00022158329827, 37.569200678438776]], [[126.99551288999204, 37.5685185582402], [126.99551946104711, 37.56840217996733]], [[126.99551946104711, 37.56840217996733], [126.9955621, 37.5684047]], [[126.99551946104711, 37.56840217996733], [126.9955223, 37.5683519]], [[126.9955223, 37.5683519], [126.9955467, 37.5681083], [126.9955822, 37.5677543], [126.9956145, 37.5674324], [126.9956527, 37.5670519], [126.99567, 37.5668789], [126.9957008, 37.5667429]], [[126.9989619, 37.5688763], [126.9987091, 37.5688185], [126.998489, 37.5687819], [126.9983092, 37.5687579], [126.9981721, 37.5687273], [126.998121, 37.5686599], [126.9980915, 37.5686207], [126.9981067, 37.568481]], [[126.9989619, 37.5688763], [126.9989514, 37.5688898], [126.9989333, 37.5688995], [126.9989198, 37.5688995], [126.9985999, 37.5688264], [126.9983413, 37.5687792], [126.9981487, 37.5687412], [126.9980979, 37.5687283], [126.9980676, 37.5687139], [126.998046, 37.5686973], [126.9980325, 37.5686737], [126.9980261, 37.5686552], [126.9980331, 37.5686242], [126.9980425, 37.5685358], [126.9980501, 37.5685159], [126.9980606, 37.5685057], [126.9980763, 37.5684932], [126.9980892, 37.5684863], [126.9981067, 37.568481]], [[126.9989619, 37.5688763], [126.9989693, 37.5688575], [126.9988346, 37.568831], [126.9988308, 37.5688289], [126.9987142, 37.5688037], [126.9983341, 37.5687494], [126.99833, 37.5687492], [126.9982245, 37.5687338], [126.9981786, 37.5687232], [126.9981055, 37.5686225], [126.9981141, 37.5685819], [126.9981263, 37.5684779], [126.9981067, 37.568481]], [[126.9982492, 37.569778], [126.9984653, 37.5690844]], [[126.9988519, 37.5691726], [126.9988228, 37.5692817], [126.9988038, 37.56945], [126.9988341, 37.5697801], [126.9988255, 37.5698475]], [[126.9989619, 37.5688763], [126.9989897, 37.5688833]], [[126.999409, 37.5692996], [126.999369, 37.569562]], [[126.9996735, 37.5688032], [126.9996291, 37.5690427]], [[127.0001472, 37.569441], [127.0001605, 37.5693931], [127.00017161034519, 37.56935810074445]], [[127.0018828, 37.5696995], [127.0018127, 37.569691], [127.00153, 37.569613], [127.0009165, 37.5694977], [127.00017161034519, 37.56935810074445]], [[127.00017161034519, 37.56935810074445], [127.00022158329827, 37.569200678438776]], [[127.00022158329827, 37.569200678438776], [127.0018639, 37.5694753], [127.0019108, 37.5694813]], [[127.00022158329827, 37.569200678438776], [127.0002271, 37.5691833], [127.0002389, 37.569144]], [[127.0003584, 37.5694828], [127.0003088, 37.5697435]], [[127.0009171, 37.5699798], [127.0010512, 37.5696136]], [[127.0013234, 37.5699261], [127.0014328, 37.5698134], [127.0015026, 37.5697415]], [[127.0015026, 37.5697415], [127.0015331, 37.5697459]], [[127.0015376, 37.5697055], [127.0015026, 37.5697415]], [[127.0017583, 37.5693822], [127.0015067, 37.569343]], [[127.0015331, 37.5697459], [127.0017667, 37.5697751]], [[127.0018444, 37.5703333], [127.0017481, 37.5703307], [127.0017707, 37.570142], [127.0018045, 37.569895], [127.0017145, 37.5697921], [127.0015557, 37.5697753], [127.0014792, 37.5697946], [127.001514, 37.5697565], [127.0015331, 37.5697459]], [[127.0015331, 37.5697459], [127.0015724, 37.5697307], [127.0017391, 37.5697416], [127.0018054, 37.5697566]], [[127.0017583, 37.5693822], [127.0017149, 37.5693878]], [[127.0018202, 37.5693471], [127.0017782, 37.5693776], [127.0017583, 37.5693822]], [[127.0018051, 37.5697851], [127.0017667, 37.5697751]], [[127.0017667, 37.5697751], [127.0018054, 37.5697566]], [[127.0018051, 37.5697851], [127.0018711, 37.5698546], [127.0019274, 37.5699121]], [[127.0018051, 37.5697851], [127.0017825, 37.5697991], [127.0018502, 37.5698676], [127.0018763, 37.5699005], [127.0018243, 37.570243], [127.0018197, 37.5702856], [127.0018485, 37.5702884]], [[127.0018051, 37.5697851], [127.0018253, 37.5697725], [127.0018153, 37.5697589], [127.0018054, 37.5697566]], [[127.0018828, 37.5696995], [127.0018208, 37.5697493], [127.0018054, 37.5697566]], [[127.0018202, 37.5693471], [127.0018351, 37.5693626]], [[127.0019295, 37.5688975], [127.0019089, 37.5690963], [127.0018902, 37.5692508], [127.001868, 37.5693026], [127.0018202, 37.5693471]], [[127.0018351, 37.5693626], [127.0018515, 37.5693801], [127.0018725, 37.5694102], [127.0019108, 37.5694813]], [[127.0018351, 37.5693626], [127.0018671, 37.5693377], [127.0019062, 37.5693078], [127.0019245, 37.5692668], [127.0019317, 37.5691852]], [[127.0018828, 37.5696995], [127.001986, 37.5697121], [127.0019963, 37.5697122], [127.0022455, 37.5697142]], [[127.0019068, 37.569675], [127.0018828, 37.5696995]], [[127.0019068, 37.569675], [127.0019385, 37.5696775], [127.0019562, 37.5695059], [127.0019212, 37.5695041]], [[127.0019068, 37.569675], [127.0018375, 37.5696695], [127.001856, 37.5695004], [127.0019212, 37.5695041]], [[127.0019068, 37.569675], [127.0019121, 37.5696203], [127.0019185, 37.5695423], [127.0019212, 37.5695041]], [[127.0019108, 37.5694813], [127.0022022, 37.5695184], [127.0022537, 37.5695182]], [[127.0019212, 37.5695041], [127.0019108, 37.5694813]], [[127.0022865, 37.5698381], [127.0023047, 37.5698547], [127.0022207, 37.5699124], [127.0021913, 37.569933], [127.0021731, 37.5701784], [127.0021673, 37.5702556], [127.0021642, 37.5703047], [127.002138, 37.5703045]], [[127.002138, 37.5703458], [127.0021654, 37.5703452], [127.0021858, 37.5703444], [127.002233, 37.5699403], [127.0023286, 37.5698692], [127.002682, 37.5698719], [127.0027336, 37.5698995], [127.0027273, 37.5698497]], [[127.0022865, 37.5698381], [127.0022013, 37.5698947], [127.002142, 37.5699225]], [[127.002213, 37.569199], [127.0022081, 37.5692442], [127.0022111, 37.5692813], [127.0022233, 37.5693127], [127.0022474, 37.5693441], [127.0022795, 37.5693778]], [[127.0031442, 37.5697228], [127.0022455, 37.5697142]], [[127.0022455, 37.5697142], [127.0022844, 37.569787], [127.0023142, 37.5698169]], [[127.0022537, 37.5695182], [127.0022455, 37.5697142]], [[127.0022795, 37.5693778], [127.0022756, 37.5694124], [127.0022707, 37.5694553], [127.0022537, 37.5695182]], [[127.003155, 37.5695222], [127.0028663, 37.5695152], [127.0022537, 37.5695182]], [[127.0022795, 37.5693778], [127.0022948, 37.5693939], [127.0023476, 37.5694398], [127.0023751, 37.5694503], [127.0024299, 37.5694543], [127.0025304, 37.569455]], [[127.0022865, 37.5698381], [127.0022749, 37.5698275], [127.0023142, 37.5698169]], [[127.0022865, 37.5698381], [127.0023353, 37.569834]], [[127.0023142, 37.5698169], [127.0023353, 37.569834]], [[127.0027273, 37.5698497], [127.0027014, 37.5698149], [127.0023142, 37.5698169]], [[127.0027273, 37.5698497], [127.0026894, 37.5698395], [127.0023824, 37.5698336], [127.0023353, 37.569834]], [[127.0025523, 37.5694551], [127.0025304, 37.569455]], [[127.0025304, 37.569455], [127.0025307, 37.5694478], [127.0025348, 37.5694481], [127.0025423, 37.5694483], [127.0025514, 37.5694486], [127.0025989, 37.5694501], [127.0025807, 37.5694576], [127.0025534, 37.5694638], [127.0025308, 37.5694647], [127.0025304, 37.569455]], [[127.0025716, 37.5694056], [127.0025818, 37.5694051], [127.0025881, 37.5694054], [127.005791, 37.5693886]], [[127.0027984, 37.569817], [127.0027273, 37.5698497]], [[127.0031442, 37.5697228], [127.003151, 37.5695969], [127.003155, 37.5695222]], [[127.0031442, 37.5697228], [127.0032348, 37.569722], [127.0038633, 37.5697275], [127.0044924, 37.5697314], [127.00453279895724, 37.569731160642675]], [[127.003155, 37.5695222], [127.00453471564595, 37.569553521933074]], [[127.0045322, 37.5697876], [127.0045326, 37.5697496], [127.00453279895724, 37.569731160642675]], [[127.00453279895724, 37.569731160642675], [127.00453471564595, 37.569553521933074]], [[127.00453279895724, 37.569731160642675], [127.0062646, 37.5697209]], [[127.00453471564595, 37.569553521933074], [127.0062693, 37.5695929]], [[127.00453471564595, 37.569553521933074], [127.0045351, 37.5695179], [127.0045384, 37.5694758]], [[127.0056717, 37.5690823], [127.0057841, 37.5693037], [127.005791, 37.5693886]], [[127.005791, 37.5693886], [127.006451, 37.5693851], [127.0064542, 37.5693452], [127.0065427, 37.5693455], [127.0066628, 37.5693434], [127.0066786, 37.5693443], [127.0067262, 37.5694012], [127.0093444, 37.5695149], [127.0093915, 37.5695392]], [[127.0062646, 37.5697209], [127.0062675, 37.5696422], [127.0062693, 37.5695929]], [[127.0062646, 37.5697209], [127.0065104, 37.5697194], [127.0082893, 37.569797], [127.0084092, 37.5698033]], [[127.0062693, 37.5695929], [127.006505, 37.5695983], [127.0084248, 37.569692]], [[127.0077677, 37.5703721], [127.0077954, 37.5699058]], [[127.0084092, 37.5698033], [127.0091986, 37.5698449], [127.0091992, 37.5698799], [127.0093607, 37.5698854]], [[127.0084092, 37.5698033], [127.008417, 37.5697478], [127.0084248, 37.569692]], [[127.0091638, 37.569728], [127.0084248, 37.569692]], [[127.0093489, 37.569997], [127.0094267, 37.5700202], [127.0094586, 37.570043], [127.0094618, 37.5700733], [127.0094267, 37.5702756], [127.00939, 37.5704045], [127.0093549, 37.5704727], [127.0090965, 37.570809], [127.0090375, 37.5708874], [127.0089674, 37.5709392], [127.0089232, 37.5709482]], [[127.0091638, 37.569728], [127.0092938, 37.5697343], [127.0093206, 37.5697334]], [[127.0092952, 37.5697046], [127.0092938, 37.5697152], [127.0091664, 37.5697099], [127.0091638, 37.569728]], [[127.0093599, 37.5698705], [127.0093292, 37.5698697], [127.0093204, 37.5698343], [127.009319, 37.5698236], [127.009317, 37.5698047], [127.0093163, 37.5697811], [127.0093174, 37.5697598], [127.0093191, 37.5697446], [127.0093206, 37.5697334]], [[127.0093206, 37.5697334], [127.0093228, 37.5697203], [127.0093287, 37.5696928], [127.0093346, 37.5696707], [127.0093451, 37.5696386], [127.0094582, 37.5696461], [127.0094518, 37.5697287]], [[127.0093206, 37.5697334], [127.0094518, 37.5697287]], [[127.0093489, 37.569997], [127.0092418, 37.5699579], [127.0086404, 37.569909], [127.0086946, 37.5699924], [127.0087486, 37.5699983], [127.008936, 37.5700134], [127.0090086, 37.570057], [127.0090078, 37.5700349], [127.0092334, 37.5700412], [127.0092813, 37.5700589], [127.0092787, 37.5701277], [127.009298, 37.5701022], [127.0093048, 37.5700326], [127.0093489, 37.569997]], [[127.0093489, 37.569997], [127.0093568, 37.5699723], [127.0093642, 37.5699486], [127.0093607, 37.5698854]], [[127.0093599, 37.5698705], [127.0093572, 37.5698183]], [[127.0093599, 37.5698705], [127.0094407, 37.5698727], [127.0094518, 37.5697287]], [[127.0093599, 37.5698705], [127.0093607, 37.5698854]]]}, "properties": {"name": "청계천공원", "green_type": "park", "type_label": "Park walk", "path_m": 10422, "segments": 368, "quiet_value": 9375.3, "quiet_label": "busy", "access": "", "fee": "", "access_class": "public"}}, {"type": "Feature", "geometry": {"type": "MultiLineString", "coordinates": [[[126.9787075, 37.5791516], [126.9787137, 37.579317], [126.9786923, 37.5793181]], [[126.9789019, 37.5810709], [126.9788537, 37.581073], [126.9788409, 37.5808908], [126.9788471, 37.5808799]], [[126.9788747, 37.580826], [126.9788471, 37.5808799]], [[126.9789191, 37.5808763], [126.9788471, 37.5808799]], [[126.9788891, 37.5804475], [126.9788476, 37.5804439]], [[126.9788653, 37.5807652], [126.9788306, 37.580542], [126.9788476, 37.5804439]], [[126.979133, 37.5796204], [126.9790072, 37.579646], [126.9788983, 37.5796925], [126.978912, 37.5800732], [126.9788476, 37.5804439]], [[126.978859, 37.5765804], [126.9793132, 37.5765939], [126.9793727, 37.5765692]], [[126.9788653, 37.5807652], [126.9789343, 37.5807658]], [[126.9788747, 37.580826], [126.9788653, 37.5807652]], [[126.979325, 37.5796199], [126.9793267, 37.5795659], [126.9791606, 37.579568], [126.9789642, 37.5796084], [126.9788756, 37.5796254], [126.9787259, 37.5796381], [126.9787248, 37.5797235], [126.978762, 37.5797088], [126.9787915, 37.5797019], [126.9788156, 37.579704], [126.9788418, 37.5797226], [126.9788646, 37.5799379], [126.9788612, 37.5800064], [126.9787774, 37.5805118], [126.9787513, 37.5805352], [126.9787378, 37.5807711], [126.9788653, 37.5807652]], [[126.9788747, 37.580826], [126.9789191, 37.5808763]], [[126.9788747, 37.580826], [126.9791789, 37.580806]], [[126.9788891, 37.5804475], [126.9790983, 37.5804612]], [[126.9789343, 37.5807658], [126.978938, 37.5807233], [126.9789152, 37.5805474], [126.9788891, 37.5804475]], [[126.9791358, 37.5796877], [126.978999, 37.5796908], [126.9789695, 37.5797035], [126.9789588, 37.5797258], [126.9789796, 37.5799745], [126.9789152, 37.580287], [126.9788837, 37.5804236], [126.9788891, 37.5804475]], [[126.9789019, 37.5810709], [126.978923, 37.581337]], [[126.9789019, 37.5810709], [126.9789394, 37.5810692], [126.9789266, 37.5808871], [126.9789191, 37.5808763]], [[126.9796789, 37.5813217], [126.9797101, 37.5817538], [126.9797153, 37.5818251], [126.9797206, 37.5818988], [126.9795917, 37.582072], [126.9795394, 37.5821238], [126.9789153, 37.5821579]], [[126.9789191, 37.5808763], [126.9789601, 37.5808742], [126.9789682, 37.5808471], [126.9789957, 37.5808365], [126.9791217, 37.5808344], [126.9791479, 37.5808524], [126.9791539, 37.5808737], [126.9791599, 37.581049], [126.97917, 37.5813509], [126.9792099, 37.5813504]], [[126.9789343, 37.5807658], [126.9793035, 37.5807527]], [[126.9791381, 37.5804646], [126.9790983, 37.5804612]], [[126.9793035, 37.5807527], [126.9793122, 37.5807329], [126.9793162, 37.5806882], [126.9792713, 37.5805958], [126.9792424, 37.5805713], [126.9791841, 37.5805596], [126.9791499, 37.5805431], [126.9791298, 37.5805182], [126.9791204, 37.5804873], [126.9791177, 37.5804725], [126.9790983, 37.5804671], [126.9790983, 37.5804612]], [[126.9792814, 37.5804135], [126.9792626, 37.5804044], [126.9792237, 37.5804055], [126.9791834, 37.5804098], [126.9791492, 37.5804193], [126.9791244, 37.5804528], [126.9790983, 37.5804565], [126.9790983, 37.5804612]], [[126.979133, 37.5796204], [126.9791358, 37.5796877]], [[126.979325, 37.5796199], [126.9792736, 37.5796167], [126.979133, 37.5796204]], [[126.979142, 37.5798339], [126.9791358, 37.5796877]], [[126.9791358, 37.5796877], [126.9791908, 37.5796865], [126.9792188, 37.5796989], [126.9793663, 37.5798477], [126.9793716, 37.5800114], [126.9793985, 37.5800433], [126.9795755, 37.5801347], [126.9796399, 37.5802091], [126.9796716, 37.5802663], [126.9796944, 37.5803545], [126.9797279, 37.5804687], [126.9797588, 37.5805214], [126.9797735, 37.5805734], [126.979807, 37.5807026], [126.979862, 37.5808099], [126.9798868, 37.5808359], [126.9798991, 37.5808331], [126.9799157, 37.5808248], [126.9798801, 37.5807382], [126.9798962, 37.5807313], [126.9797272, 37.5802248], [126.97963, 37.5801148], [126.979447, 37.5800101], [126.9794329, 37.5799984], [126.9794101, 37.5797078], [126.9792981, 37.5796961], [126.979286, 37.5796621], [126.9792921, 37.5796328], [126.9793246, 37.5796313], [126.979325, 37.5796199]], [[126.9791381, 37.5804646], [126.979133, 37.5804894], [126.97914, 37.5805139], [126.9791581, 37.5805345], [126.9791846, 37.5805483], [126.9792157, 37.5805531], [126.9792491, 37.5805476]], [[126.9792703, 37.5804377], [126.9792426, 37.5804251], [126.9792109, 37.5804217], [126.97918, 37.5804281], [126.9791546, 37.5804431], [126.9791381, 37.5804646]], [[126.979142, 37.5798339], [126.9792025, 37.5798551], [126.9792359, 37.579877], [126.979267, 37.5799153], [126.9792785, 37.5799673], [126.9792819, 37.5800303], [126.979275, 37.5800723], [126.9792537, 37.5801022]], [[126.979142, 37.5798339], [126.9791271, 37.5798704], [126.9791086, 37.5799416], [126.9791052, 37.5800055], [126.9791282, 37.5800329], [126.9791489, 37.5800475], [126.9791996, 37.580074], [126.9792537, 37.5801022]], [[126.9791789, 37.580806], [126.9793217, 37.580806]], [[126.9791789, 37.580806], [126.979194, 37.5810905]], [[126.979194, 37.5810905], [126.9791921, 37.5811053], [126.979193, 37.5811202], [126.9791966, 37.5811348]], [[126.979194, 37.5810905], [126.9792109, 37.5810554], [126.9792276, 37.5810409]], [[126.9791966, 37.5811348], [126.9792162, 37.5811671], [126.9792319, 37.581179]], [[126.9791966, 37.5811348], [126.9792099, 37.5813504]], [[126.9792056, 37.580862], [126.9792056, 37.580938], [126.979225, 37.5809475], [126.9792276, 37.5810409]], [[126.979503, 37.5808261], [126.9795046, 37.5808434], [126.9792237, 37.5808508], [126.9792056, 37.580862]], [[126.9792056, 37.580862], [126.9792253, 37.5808567], [126.979287, 37.5808551], [126.9793601, 37.5808684], [126.9794305, 37.5808896], [126.9794842, 37.5809178], [126.9795318, 37.5809608], [126.9795433, 37.5809673]], [[126.9795402, 37.5826255], [126.9791419, 37.5826468], [126.9792403, 37.5827906], [126.9792322, 37.5828647], [126.9791854, 37.5829919], [126.9792485, 37.5831353], [126.9792078, 37.5832899]], [[126.9792155, 37.5814407], [126.9792099, 37.5813504]], [[126.9792319, 37.581179], [126.9792304, 37.5812005], [126.9792196, 37.5812037], [126.9792254, 37.581274], [126.9792317, 37.5813503], [126.9792099, 37.5813504]], [[126.9792276, 37.5810409], [126.9792319, 37.581179]], [[126.9794152, 37.5810424], [126.9793781, 37.581019], [126.9793327, 37.5810081], [126.9792854, 37.5810111], [126.9792429, 37.5810276], [126.9792276, 37.5810409]], [[126.9794152, 37.5810424], [126.9794382, 37.5810733], [126.979446, 37.5811087], [126.9794377, 37.5811439], [126.9794143, 37.5811746], [126.9793788, 37.5811969], [126.9793357, 37.5812078], [126.9792905, 37.5812061], [126.9792489, 37.5811919], [126.9792319, 37.581179]], [[126.9792491, 37.5805476], [126.9793113, 37.5806198], [126.9793309, 37.5806663], [126.9793321, 37.5807302], [126.9793291, 37.5807517]], [[126.9792769, 37.580532], [126.9792491, 37.5805476]], [[126.9792537, 37.5801022], [126.9793033, 37.5801287], [126.979324, 37.5801415]], [[126.9792703, 37.5804377], [126.9792899, 37.5804576], [126.9792987, 37.5804819], [126.9792944, 37.5805088], [126.9792769, 37.580532]], [[126.9792814, 37.5804135], [126.9792703, 37.5804377]], [[126.9792769, 37.580532], [126.9793033, 37.5805495], [126.9793126, 37.580551]], [[126.9792814, 37.5804135], [126.9793075, 37.5804214], [126.9793209, 37.5804459], [126.9793126, 37.580551]], [[126.979324, 37.5801415], [126.9793321, 37.5802173], [126.9793286, 37.5802538], [126.9793033, 37.5803578], [126.9792814, 37.5804135]], [[126.9793291, 37.5807517], [126.9793035, 37.5807527]], [[126.9796096, 37.5805221], [126.9795509, 37.5805504], [126.9795002, 37.5805577], [126.9793873, 37.5805632], [126.9793126, 37.580551]], [[126.9793126, 37.580551], [126.9793175, 37.5805644], [126.9793363, 37.5806021], [126.9793491, 37.5806393], [126.9793605, 37.5806856], [126.9793584, 37.5807339], [126.9793626, 37.5807509]], [[126.9793217, 37.580806], [126.9794668, 37.5808169], [126.979503, 37.5808261]], [[126.9793217, 37.580806], [126.9793291, 37.5807517]], [[126.979324, 37.5801415], [126.9793781, 37.5801424], [126.9794415, 37.580147], [126.9794691, 37.5801634], [126.9794933, 37.5802008], [126.9795566, 37.5802967], [126.9795854, 37.5803478], [126.9796085, 37.5804244], [126.9796096, 37.5805221]], [[126.9793291, 37.5807517], [126.9793626, 37.5807509]], [[126.9794962, 37.5807477], [126.9793626, 37.5807509]], [[126.979371, 37.5766008], [126.9793727, 37.5765692]], [[126.9793727, 37.5765692], [126.9793736, 37.576453], [126.9793428, 37.5763956], [126.9793884, 37.5763791], [126.9794146, 37.576373]], [[126.9794829, 37.5764019], [126.9794146, 37.576373]], [[126.9794367, 37.5781564], [126.9794264, 37.5779575], [126.9794213, 37.5769978], [126.9794233, 37.5769074], [126.9794294, 37.5766264], [126.9794146, 37.576373]], [[126.9794152, 37.5810424], [126.9795433, 37.5809673]], [[126.9797923, 37.579976], [126.9796496, 37.5795849], [126.9795768, 37.5793252], [126.9795328, 37.5791734], [126.9795124, 37.579077], [126.9794691, 37.5787839], [126.9794367, 37.5781564]], [[126.9794367, 37.5781564], [126.9794779, 37.5781536], [126.9795613, 37.5781478]], [[126.9794962, 37.5807477], [126.979503, 37.5808261]], [[126.9794962, 37.5807477], [126.9796656, 37.5807451], [126.9796843, 37.5809651], [126.979687, 37.5810597], [126.9796991, 37.5810591], [126.9797024, 37.5811883], [126.9797716, 37.5811885]], [[126.97961, 37.5809282], [126.979567, 37.5808616], [126.9795209, 37.5808306], [126.979503, 37.5808261]], [[126.9795433, 37.5809673], [126.9795599, 37.5809837], [126.9795827, 37.5810108], [126.9796089, 37.5810517], [126.979625, 37.5810852], [126.9796464, 37.5813254], [126.9796789, 37.5813217]], [[126.97961, 37.5809282], [126.9795433, 37.5809673]], [[126.9795966, 37.5833385], [126.9795728, 37.5832649], [126.9795457, 37.5831813], [126.9796641, 37.5830955], [126.9797826, 37.5829882], [126.979849, 37.582906], [126.9798882, 37.5828267], [126.9799138, 37.5827729], [126.9799697, 37.582658], [126.9800111, 37.5825416], [126.9800468, 37.5824067], [126.9800737, 37.5822949], [126.9800915, 37.5822054], [126.9801022, 37.5820246], [126.9801128, 37.581827], [126.9801143, 37.5815088], [126.9801137, 37.5814917], [126.9801064, 37.5812498]], [[126.9796096, 37.5805221], [126.9796142, 37.5805759], [126.9796349, 37.5806125], [126.9796971, 37.5806599], [126.9797133, 37.5807101], [126.9797098, 37.5807393], [126.9797121, 37.5807767], [126.9797467, 37.5808242], [126.9797662, 37.5808561], [126.9797743, 37.5809264], [126.9797766, 37.5811135], [126.9797824, 37.5811738], [126.9797716, 37.5811885]], [[126.97961, 37.5809282], [126.9796672, 37.5811172], [126.9796753, 37.5812723]], [[126.9796753, 37.5812723], [126.9796789, 37.5813217]], [[126.9796753, 37.5812723], [126.9797248, 37.5812523], [126.9797716, 37.5811885]], [[126.9797716, 37.5811885], [126.9797896, 37.5811962], [126.979746, 37.5812616], [126.9797722, 37.5812733], [126.9797226, 37.5813195], [126.9796789, 37.5813217]], [[126.9801064, 37.5812498], [126.9801004, 37.5810531], [126.9800938, 37.5809947], [126.9800787, 37.5809363], [126.9799854, 37.5805817], [126.9797923, 37.579976]], [[126.9797923, 37.579976], [126.9798339, 37.5799631], [126.9798871, 37.5799528]], [[126.9801064, 37.5812498], [126.980157, 37.5812514], [126.9802659, 37.5812548]]]}, "properties": {"name": "경복궁", "green_type": "park", "type_label": "Park walk", "path_m": 3315, "segments": 208, "quiet_value": 1498.1, "quiet_label": "moderate", "access": "", "fee": "yes", "access_class": "paid"}}, {"type": "Feature", "geometry": {"type": "MultiLineString", "coordinates": [[[127.0069435, 37.5825237], [127.0070524, 37.5827025], [127.0072136, 37.5829916], [127.0070004, 37.5830334], [127.0065135, 37.5829354], [127.0062905, 37.5830612], [127.0063123, 37.5831255]], [[127.0065665, 37.5803395], [127.0067223, 37.580338], [127.0068256, 37.5802633], [127.0070003, 37.5802282]], [[127.0068117, 37.5825226], [127.0068127, 37.5825473], [127.0068032, 37.5825708], [127.0067843, 37.5825904], [127.0067583, 37.5826039], [127.006728, 37.5826098], [127.006697, 37.5826073], [127.0066689, 37.5825968], [127.0066468, 37.5825794], [127.0066337, 37.5825585], [127.0066297, 37.5825353], [127.0066351, 37.5825123], [127.0066495, 37.5824919], [127.0066712, 37.5824761], [127.0066982, 37.5824666], [127.0067118, 37.5824656]], [[127.0071436, 37.5811664], [127.0070851, 37.581257], [127.0070014, 37.5813927], [127.0069308, 37.5815303], [127.0068661, 37.5816638], [127.0068113, 37.5818069], [127.006767, 37.5819411], [127.0067397, 37.5820556], [127.0067135, 37.5822107], [127.0066976, 37.5823389], [127.0067079, 37.5824213], [127.0067118, 37.5824656]], [[127.0068117, 37.5825226], [127.0068005, 37.5824996], [127.0067814, 37.5824817], [127.0067563, 37.5824696], [127.0067275, 37.5824644], [127.0067118, 37.5824656]], [[127.0069435, 37.5825237], [127.0068117, 37.5825226]], [[127.0069435, 37.5825237], [127.006931, 37.5824843], [127.0069227, 37.5824357], [127.0069032, 37.5823592], [127.006905, 37.5823352], [127.006918, 37.5823113], [127.006983, 37.582204], [127.0070389, 37.582096], [127.0070942, 37.5820164], [127.0071103, 37.5819998], [127.0071574, 37.5819656], [127.0073676, 37.58186], [127.0073887, 37.5818444], [127.0073985, 37.5818257], [127.0073917, 37.5818107]], [[127.0070003, 37.5802282], [127.0072367, 37.580252], [127.0074166, 37.5802383], [127.007574, 37.5802327]], [[127.0070003, 37.5802282], [127.0069296, 37.5804002], [127.0069168, 37.5804748], [127.0068885, 37.5805514], [127.0068564, 37.5806222], [127.0068229, 37.5807119], [127.0068067, 37.5807934], [127.0067887, 37.5808812], [127.006759, 37.5809763], [127.006733, 37.5810637], [127.0066717, 37.5811647], [127.0066317, 37.5812755], [127.0066136, 37.5813298], [127.0065904, 37.5813993], [127.0065956, 37.5814456], [127.0066224, 37.5814908], [127.0066778, 37.5814908], [127.0067352, 37.5814694], [127.0067755, 37.5814429], [127.0068559, 37.5813614], [127.006972, 37.581257], [127.0070323, 37.5812021], [127.0070748, 37.5811791], [127.0071217, 37.5811667], [127.0071436, 37.5811664]], [[127.0070003, 37.5802282], [127.0070435, 37.58014], [127.0071333, 37.5800653], [127.007146, 37.5800261], [127.0071551, 37.5799789], [127.0071485, 37.5799488], [127.0071485, 37.5799099], [127.0071395, 37.5798709], [127.0071328, 37.5798125], [127.0071261, 37.5797417], [127.0071306, 37.5796302], [127.0071462, 37.5795063], [127.0071842, 37.579393], [127.0072177, 37.5794426], [127.0072401, 37.579524], [127.0072468, 37.5795983], [127.0072624, 37.5796815], [127.0072801, 37.57977], [127.0073184, 37.5798383], [127.0073913, 37.5799114], [127.0074902, 37.5800037], [127.0075349, 37.5800887], [127.007574, 37.5802327]], [[127.0070422, 37.5852512], [127.0069996, 37.585061], [127.0069831, 37.5849852], [127.0069518, 37.584894], [127.0069463, 37.5847863], [127.0070443, 37.5844913], [127.0070924, 37.5843919], [127.0071409, 37.5843195], [127.0072258, 37.5838376], [127.0072296, 37.5837275], [127.0072419, 37.5836873], [127.0073293, 37.5835513], [127.0073912, 37.5834337], [127.0074123, 37.5833877], [127.0074203, 37.5833522], [127.0074099, 37.583133], [127.0074569, 37.5829037], [127.0073116, 37.5827775], [127.0072617, 37.5827179], [127.0071133, 37.5825806], [127.0070301, 37.582449], [127.0069766, 37.5823494], [127.006982, 37.582309], [127.0070072, 37.5822521], [127.0070402, 37.5821885], [127.0070833, 37.5821041], [127.0071137, 37.5820617], [127.0071611, 37.582011], [127.0071976, 37.581987], [127.0072285, 37.5819747], [127.0074599, 37.5819148], [127.0074842, 37.5819016], [127.0075085, 37.5818812], [127.0075369, 37.581847], [127.0075986, 37.5817393], [127.0076317, 37.5817136], [127.0077431, 37.5816712], [127.0078047, 37.5816641], [127.0078638, 37.5816441], [127.007923, 37.5816108], [127.007961, 37.5815687], [127.0080247, 37.5814833], [127.0081398, 37.5813571], [127.0082015, 37.5813027], [127.0082174, 37.5812972], [127.0082492, 37.5812999]], [[127.0071436, 37.5811664], [127.0071511, 37.5812044], [127.0071752, 37.5812602], [127.0071912, 37.5813135], [127.0071933, 37.5813769], [127.0071719, 37.5814371], [127.0071556, 37.5815051], [127.0071442, 37.5815811], [127.0071384, 37.5816565], [127.007156, 37.5817283], [127.0072117, 37.5817748], [127.00724, 37.5817875], [127.0072764, 37.581797], [127.007317, 37.5818026], [127.007372, 37.5818033], [127.0073917, 37.5818107]], [[127.0075467, 37.5804408], [127.0075, 37.5805715], [127.0074458, 37.5807139], [127.0073818, 37.5808309], [127.0073227, 37.5809324], [127.0072538, 37.5810416], [127.0071436, 37.5811664]], [[127.0075115, 37.5816674], [127.0073917, 37.5818107]], [[127.0075115, 37.5816674], [127.0075024, 37.5816248], [127.0075024, 37.5815643], [127.0074946, 37.5815297], [127.0074896, 37.5814968], [127.00748, 37.5814363], [127.0074353, 37.5813541], [127.0074304, 37.581266], [127.0074503, 37.5811603], [127.0074875, 37.5810783], [127.0075467, 37.5810123], [127.0076919, 37.5807568], [127.0077672, 37.5806055]], [[127.0081632, 37.5811881], [127.0081273, 37.5812142], [127.0078869, 37.5814958], [127.0075115, 37.5816674]], [[127.0075467, 37.5804408], [127.0077928, 37.5805539]], [[127.007574, 37.5802327], [127.0075689, 37.5802633], [127.0075639, 37.5803452], [127.0075467, 37.5804408]], [[127.0082492, 37.5812999], [127.0082319, 37.5813594], [127.0082054, 37.5814645], [127.0081722, 37.5815958], [127.0081086, 37.581702], [127.0080356, 37.5817577], [127.0078937, 37.5818071], [127.0078443, 37.5818221], [127.0077731, 37.5818302], [127.0077107, 37.5818538], [127.0076657, 37.581943], [127.0076954, 37.5819758], [127.0076126, 37.5822222]], [[127.0082158, 37.5808859], [127.0077672, 37.5806055]], [[127.0077928, 37.5805539], [127.0077672, 37.5806055]], [[127.0079976, 37.5792678], [127.0079306, 37.5793106], [127.0078185, 37.5795686], [127.007781, 37.5796781], [127.0077604, 37.5797463], [127.00778, 37.5798247], [127.0078443, 37.5798972], [127.0078888, 37.5799302], [127.0078938, 37.5799688], [127.0078741, 37.5800312], [127.0078445, 37.5800819], [127.0078148, 37.5801383], [127.0078298, 37.5802106], [127.0078421, 37.5802692], [127.0078568, 37.5803277], [127.0078519, 37.5804018], [127.0078347, 37.5804701], [127.0077928, 37.5805539]], [[127.0079293, 37.5785505], [127.0079305, 37.5784691], [127.0079463, 37.578416], [127.0080067, 37.5781787], [127.0080197, 37.5781165], [127.0080539, 37.5778105], [127.008061, 37.5777366]], [[127.0081632, 37.5811881], [127.0081968, 37.5811898], [127.0083343, 37.5811752], [127.0084275, 37.5812534]], [[127.0081632, 37.5811881], [127.0081246, 37.581172], [127.0080987, 37.5811461], [127.0080865, 37.5811236], [127.0080788, 37.5810272], [127.0081444, 37.5809469], [127.0082158, 37.5808859]], [[127.0081632, 37.5811881], [127.0082498, 37.5811241], [127.0083798, 37.5810072], [127.0084295, 37.5808541]], [[127.0084295, 37.5808541], [127.0083882, 37.5808564], [127.008337, 37.5808629], [127.0082158, 37.5808859]], [[127.0084275, 37.5812534], [127.0083349, 37.5812838], [127.0082492, 37.5812999]], [[127.0083519, 37.5777124], [127.0083884, 37.5778941], [127.008379, 37.5780105], [127.0083455, 37.578098], [127.0083073, 37.5781536], [127.0082708, 37.5781931], [127.0081962, 37.5782662], [127.0081354, 37.5783437], [127.0080765, 37.5784215], [127.008034, 37.5784926], [127.0080177, 37.5785615], [127.0080252, 37.5787019], [127.0080428, 37.5788956], [127.0080438, 37.5791202], [127.0080759, 37.5792621], [127.0081758, 37.5793885], [127.0083954, 37.5795841], [127.0085203, 37.5798359]], [[127.0084275, 37.5812534], [127.008486, 37.581219], [127.0085321, 37.5811786], [127.0085994, 37.5810586], [127.0086817, 37.5809267], [127.008749, 37.5808293], [127.008935, 37.5806001], [127.0089654, 37.5805194], [127.0089539, 37.5804586]], [[127.0084295, 37.5808541], [127.0084533, 37.5806839], [127.0085967, 37.5805469]], [[127.0084295, 37.5808541], [127.0085694, 37.5808229], [127.0086233, 37.5807457], [127.0086456, 37.5806848]], [[127.008484, 37.5800563], [127.0084688, 37.5800654], [127.0084867, 37.5801597], [127.0084796, 37.580197]], [[127.0085203, 37.5798359], [127.0083987, 37.5798735], [127.008484, 37.5800563]], [[127.0085203, 37.5798359], [127.0085627, 37.5798227], [127.0086534, 37.5800066], [127.008484, 37.5800563]]]}, "properties": {"name": "낙산공원", "green_type": "park", "type_label": "Park walk", "path_m": 3027, "segments": 74, "quiet_value": 645.9, "quiet_label": "calm", "access": "", "fee": "", "access_class": "public"}}, {"type": "Feature", "geometry": {"type": "MultiLineString", "coordinates": [[[127.0082979, 37.5663695], [127.0087266, 37.5668436], [127.008799, 37.5668797], [127.008968, 37.5669967], [127.0090324, 37.5670923], [127.0092657, 37.5674538], [127.0093307, 37.5674466]], [[127.0083235, 37.5665451], [127.0082841, 37.5664694], [127.0082546, 37.5664078], [127.0082626, 37.5663844], [127.0082979, 37.5663695]], [[127.0082979, 37.5663695], [127.0082883, 37.5663565], [127.0082795, 37.566343], [127.008277, 37.5663281], [127.008281, 37.5663134], [127.0082908, 37.566301], [127.0083051, 37.5662918], [127.0083225, 37.5662869], [127.0083362, 37.5662863], [127.0083496, 37.5662885], [127.0083629, 37.5662914], [127.0084887, 37.5663174]], [[127.0083235, 37.5665451], [127.0085415, 37.5668096], [127.0088013, 37.5671866]], [[127.0083235, 37.5665451], [127.0083139, 37.5665407], [127.0088013, 37.5671866]], [[127.0087124, 37.5663186], [127.0086215, 37.5663068], [127.0086273, 37.5663525], [127.008527, 37.5663247], [127.0084887, 37.5663174]], [[127.0084887, 37.5663174], [127.0085121, 37.5663846], [127.0085519, 37.5664642], [127.0086714, 37.5666386], [127.0087662, 37.5667364], [127.0088857, 37.5668311], [127.009053, 37.5670187], [127.0093307, 37.5674466]], [[127.0103042, 37.5669453], [127.0101844, 37.5668319], [127.0100356, 37.5666227], [127.0099115, 37.566528], [127.0097965, 37.5664851], [127.0093672, 37.5664036], [127.0087124, 37.5663186]], [[127.0097711, 37.5670157], [127.0094161, 37.5670041], [127.0092002, 37.5669414], [127.0090406, 37.5667798], [127.0088837, 37.566631], [127.0088005, 37.5665045], [127.0087415, 37.5664227], [127.0087124, 37.5663186]], [[127.0093896, 37.5679733], [127.0093329, 37.5678911], [127.0088013, 37.5671866]], [[127.0093665, 37.5679818], [127.0090427, 37.5675369], [127.0088013, 37.5671866]], [[127.009194, 37.5680428], [127.0093665, 37.5679818]], [[127.009428, 37.5674599], [127.0093307, 37.5674466]], [[127.0093307, 37.5674466], [127.009402, 37.5675575]], [[127.0098803, 37.5685949], [127.0098658, 37.5685923], [127.0098315, 37.5685792], [127.0098014, 37.5685594], [127.0097749, 37.5685384], [127.0097526, 37.5685125], [127.0093665, 37.5679818]], [[127.0093896, 37.5679733], [127.0093665, 37.5679818]], [[127.009402, 37.5675575], [127.0094405, 37.5677915], [127.00945, 37.5678952], [127.0093896, 37.5679733]], [[127.009428, 37.5674599], [127.009402, 37.5675575]], [[127.009428, 37.5674599], [127.0096359, 37.5680257], [127.0097217, 37.5681702], [127.0097995, 37.5682595], [127.0098317, 37.5682884], [127.0098639, 37.5683084], [127.0099068, 37.5683235], [127.0099497, 37.5683297], [127.0099985, 37.568333], [127.0100429, 37.5683249], [127.0100532, 37.5683362]], [[127.009428, 37.5674599], [127.0093893, 37.5673398], [127.009388, 37.5672267], [127.0094242, 37.5671663], [127.0095579, 37.5670874], [127.0095641, 37.5670611], [127.0097711, 37.5670157]], [[127.0103042, 37.5669453], [127.0101823, 37.5669255], [127.0097711, 37.5670157]], [[127.0100532, 37.5683362], [127.0100999, 37.5683871], [127.0101932, 37.5684953], [127.0100323, 37.5685726], [127.0099934, 37.5685897], [127.0099502, 37.5685986], [127.0099059, 37.5685996], [127.009891, 37.5685977], [127.0098803, 37.5685949]], [[127.0098803, 37.5685949], [127.0099014, 37.5686265], [127.0099524, 37.568703], [127.0099756, 37.5687364]], [[127.0100532, 37.5683362], [127.0098803, 37.5685949]], [[127.0099756, 37.5687364], [127.0099334, 37.5687595], [127.0098993, 37.5688107], [127.0098879, 37.5688678], [127.0099068, 37.5692556], [127.0099807, 37.5692592], [127.0100858, 37.5689365], [127.0100856, 37.5689095], [127.0100801, 37.5688824], [127.0099756, 37.5687364]], [[127.0099756, 37.5687364], [127.0099936, 37.5687265], [127.010032, 37.5687054], [127.0104214, 37.5685377], [127.0106578, 37.5684428], [127.0107741, 37.5684003], [127.0108071, 37.5683941], [127.0108376, 37.5683934], [127.0108605, 37.5684061], [127.0108852, 37.5684215], [127.0109019, 37.568434], [127.0109091, 37.5684566], [127.0108512, 37.5684651], [127.010719, 37.5684983], [127.0105938, 37.5685455], [127.010459, 37.5686139], [127.0103748, 37.5686632], [127.0103242, 37.5686983], [127.0102731, 37.5687421]], [[127.0100631, 37.5683217], [127.0100532, 37.5683362]], [[127.0100631, 37.5683217], [127.0101382, 37.5683462], [127.0101429, 37.5683393], [127.0101526, 37.5683287], [127.0101634, 37.5683225], [127.0101802, 37.5683178], [127.0102395, 37.5683105], [127.0102763, 37.568194]], [[127.0100631, 37.5683217], [127.0100757, 37.5683049], [127.0100868, 37.5682845]], [[127.0103042, 37.5669453], [127.0102431, 37.5670035], [127.0102521, 37.5671394], [127.0102498, 37.5675345], [127.0102589, 37.5676596], [127.0102544, 37.5678581], [127.0102334, 37.5679256], [127.0102183, 37.5679743], [127.0101372, 37.5681536], [127.0100868, 37.5682845]], [[127.0100868, 37.5682845], [127.0102181, 37.5681555], [127.0102409, 37.5681644]], [[127.0101397, 37.5687354], [127.0101655, 37.5686489], [127.0102444, 37.5687172]], [[127.0102409, 37.5681644], [127.0102807, 37.56818], [127.0102763, 37.568194]], [[127.0102409, 37.5681644], [127.0102499, 37.5681889], [127.0102763, 37.568194]], [[127.0102763, 37.568194], [127.0103224, 37.5682029], [127.0104131, 37.5682182]]]}, "properties": {"name": "동대문역사문화공원", "green_type": "park", "type_label": "Park walk", "path_m": 2119, "segments": 108, "quiet_value": 5287.6, "quiet_label": "moderate", "access": "", "fee": "", "access_class": "public"}}, {"type": "Feature", "geometry": {"type": "MultiLineString", "coordinates": [[[127.00275, 37.5676847], [127.0026985, 37.5676664], [127.0026666, 37.5676629], [127.0026441, 37.5676681], [127.0025186, 37.5677687], [127.0024534, 37.5678159], [127.0024346, 37.5678319]], [[127.0027303, 37.5670201], [127.0027248, 37.5670694], [127.0026603, 37.5670857], [127.0026589, 37.5670327], [127.0025814, 37.5670349], [127.0025029, 37.5670934], [127.0024927, 37.567106], [127.0024906, 37.5671875], [127.0024927, 37.5671927], [127.0024735, 37.5673822], [127.0024666, 37.5673806]], [[127.0027303, 37.5670201], [127.0027324, 37.5670015], [127.002726, 37.56699], [127.0027027, 37.5669757], [127.0026311, 37.5669757], [127.0025793, 37.5669863], [127.0025584, 37.5669965], [127.0025331, 37.5670033]], [[127.0027303, 37.5670201], [127.0026326, 37.5669978]], [[127.0026854, 37.5673904], [127.0026402, 37.5675264], [127.0026406, 37.5675512], [127.0026453, 37.5675681], [127.00275, 37.5676847]], [[127.002771, 37.5670198], [127.0027303, 37.5670201]], [[127.00275, 37.5676847], [127.0027644, 37.5677008], [127.0027974, 37.5677106], [127.0028253, 37.567709]], [[127.0028852, 37.5669646], [127.0029046, 37.5670356], [127.0028201, 37.5670486], [127.0028108, 37.56705], [127.0027679, 37.5670548], [127.0027697, 37.5670267], [127.002771, 37.5670198]], [[127.0029424, 37.5669565], [127.0029402, 37.566953], [127.002922, 37.5669445], [127.0028421, 37.5669593], [127.0028202, 37.5669693], [127.0027931, 37.5669919], [127.0027725, 37.5670111], [127.002771, 37.5670198]], [[127.0028852, 37.5669646], [127.0028263, 37.5669895], [127.0027937, 37.5670142], [127.002771, 37.5670198]], [[127.0028253, 37.567709], [127.0028306, 37.567722], [127.0029496, 37.5676854]], [[127.0028253, 37.567709], [127.0028211, 37.5676986], [127.0031967, 37.5675836], [127.0030644, 37.5670731], [127.0030947, 37.567067], [127.0032486, 37.5675732], [127.0032702, 37.5675475], [127.0032829, 37.5675306], [127.0032756, 37.5674636], [127.0032787, 37.5673798], [127.0032995, 37.5673538], [127.0033562, 37.5673159], [127.0033688, 37.5672959], [127.0032292, 37.5670161], [127.0032569, 37.5670088]], [[127.0028253, 37.567709], [127.0028416, 37.567708], [127.0029496, 37.5676854]], [[127.0028852, 37.5669646], [127.0029424, 37.5669565]], [[127.0029424, 37.5669565], [127.0032143, 37.5669183]], [[127.0029496, 37.5676854], [127.0032007, 37.5676082], [127.0032131, 37.5676303]], [[127.0029496, 37.5676854], [127.0032131, 37.5676303]], [[127.0032131, 37.5676303], [127.0032335, 37.5676666], [127.0034162, 37.5676345], [127.0034144, 37.5676206], [127.0034166, 37.5675815], [127.0034303, 37.5675432], [127.003385, 37.5675506], [127.0033742, 37.5675177]], [[127.0032986, 37.5675526], [127.0033044, 37.5675986], [127.0032929, 37.5676136], [127.0032131, 37.5676303]], [[127.0032143, 37.5669183], [127.0032569, 37.5670088]], [[127.0032143, 37.5669183], [127.0037334, 37.5668452]], [[127.0033815, 37.5673006], [127.0033837, 37.5672928], [127.0033769, 37.5672636], [127.0032569, 37.5670088]], [[127.0032569, 37.5670088], [127.0032656, 37.5670065], [127.003381, 37.5672388], [127.0034038, 37.567252], [127.0034342, 37.5672544], [127.0035177, 37.5672075], [127.0036558, 37.5671473], [127.0037135, 37.5671232], [127.0037257, 37.5671052], [127.0036877, 37.5668825], [127.0037382, 37.5668756]], [[127.0032986, 37.5675526], [127.0032974, 37.5674361], [127.0032963, 37.5673769], [127.0033507, 37.567342], [127.0033771, 37.5673165], [127.0033815, 37.5673006]], [[127.0032986, 37.5675526], [127.0033742, 37.5675177]], [[127.0036214, 37.5674994], [127.0037334, 37.5674787], [127.0036887, 37.5673363], [127.0033375, 37.5674059], [127.0033742, 37.5675177]], [[127.0036214, 37.5674994], [127.003611, 37.5674668], [127.0034235, 37.567495], [127.0033742, 37.5675177]], [[127.0033815, 37.5673006], [127.0034858, 37.5673288], [127.0035219, 37.5673372], [127.0035587, 37.5673381], [127.003592, 37.5673353], [127.0038046, 37.5672978]], [[127.0036298, 37.5675256], [127.0036214, 37.5674994]], [[127.0036298, 37.5675256], [127.0036095, 37.5675345], [127.0035766, 37.5675107], [127.0036214, 37.5674994]], [[127.0045882, 37.5671343], [127.0047006, 37.5673629], [127.0047191, 37.5674005], [127.0047507, 37.5674648], [127.0047437, 37.5674992], [127.0045602, 37.5675869], [127.0037938, 37.5677368], [127.0037504, 37.5677324], [127.0037, 37.5676924], [127.0036298, 37.5675256]], [[127.0036298, 37.5675256], [127.0036891, 37.5675202], [127.003768, 37.5675422], [127.0037987, 37.5675161], [127.0038393, 37.567494], [127.0039339, 37.5674756], [127.0039827, 37.5674465], [127.0040009, 37.5673952], [127.0040951, 37.5673212], [127.0040836, 37.5672687], [127.0045649, 37.5671658], [127.0045534, 37.5671421]], [[127.0037334, 37.5668452], [127.0037382, 37.5668756]], [[127.0037334, 37.5668452], [127.0042295, 37.5667845]], [[127.0038046, 37.5672978], [127.0037382, 37.5668756]], [[127.0037382, 37.5668756], [127.0037667, 37.5668717], [127.0038138, 37.5670931], [127.0038396, 37.567122], [127.0038836, 37.5671244], [127.0039929, 37.5671196], [127.0040689, 37.5671184], [127.0040977, 37.5671027], [127.0041342, 37.5669511], [127.0041068, 37.5668187], [127.0041843, 37.5668079], [127.0041958, 37.5668529]], [[127.0038046, 37.5672978], [127.0040538, 37.5672538], [127.0041204, 37.5672389]], [[127.0041204, 37.5672389], [127.0041783, 37.5670397], [127.0041811, 37.5668828], [127.0041958, 37.5668529]], [[127.0041204, 37.5672389], [127.0041794, 37.5672256], [127.0045534, 37.5671421]], [[127.0041958, 37.5668529], [127.0042207, 37.5669499], [127.0042298, 37.5670149], [127.0041782, 37.5671593], [127.0041782, 37.5671918], [127.0041782, 37.5672075], [127.0045464, 37.5671278], [127.0045534, 37.5671421]], [[127.0042295, 37.5667845], [127.0041958, 37.5668529]], [[127.0044243, 37.5668453], [127.0043792, 37.56682], [127.0042295, 37.5667845]], [[127.0044243, 37.5668453], [127.00452, 37.5669954], [127.0045882, 37.5671343]], [[127.0044243, 37.5668453], [127.0044478, 37.5668379], [127.0045614, 37.5667988], [127.0046742, 37.5667709], [127.0046756, 37.5667339], [127.0047346, 37.5666999], [127.0054622, 37.5665676]], [[127.0045882, 37.5671343], [127.0045534, 37.5671421]], [[127.0047211, 37.5671046], [127.0045882, 37.5671343]]]}, "properties": {"name": "훈련원공원", "green_type": "park", "type_label": "Park walk", "path_m": 1818, "segments": 98, "quiet_value": null, "quiet_label": "—", "access": "", "fee": "", "access_class": "public"}}, {"type": "Feature", "geometry": {"type": "MultiLineString", "coordinates": [[[127.0079493, 37.5750515], [127.0081261, 37.5750466], [127.0082623, 37.5751836], [127.0083518, 37.5752464], [127.0084249, 37.5752786], [127.0085887, 37.5752691]], [[127.0079737, 37.5749081], [127.0080144, 37.5749698], [127.0081607, 37.5749247], [127.0084555, 37.5750085], [127.0084534, 37.5750584], [127.0086318, 37.5751478]], [[127.0079963, 37.5767482], [127.0079769, 37.5768576], [127.0081273, 37.576859], [127.0081308, 37.5769025], [127.0084843, 37.5768809]], [[127.0080839, 37.5776027], [127.0082996, 37.5776338]], [[127.0081125, 37.5758059], [127.0083195, 37.5757998]], [[127.0081155, 37.5774957], [127.0082965, 37.5773437]], [[127.0084437, 37.5767287], [127.0082756, 37.5767526], [127.00815, 37.5767105], [127.0081175, 37.576641]], [[127.0083254, 37.5762824], [127.0081479, 37.5763164]], [[127.0082747, 37.5754564], [127.0084021, 37.5754029], [127.008476, 37.5753828], [127.0085305, 37.5753745], [127.0085623, 37.5753707], [127.0085937, 37.5753442], [127.0086262, 37.5752879], [127.0086456, 37.5752395], [127.0086517, 37.5752317], [127.008661, 37.5752258], [127.0086732, 37.5752254], [127.0086968, 37.575232], [127.0086997, 37.5752326], [127.0087225, 37.5752375]], [[127.0083598, 37.5756123], [127.0082867, 37.5754993]], [[127.0082965, 37.5773437], [127.0081686, 37.5772381], [127.0081173, 37.5771369], [127.0084202, 37.5770913]], [[127.0082965, 37.5773437], [127.0084434, 37.5772279], [127.0084595, 37.5772152], [127.0084746, 37.5772024]], [[127.0086161, 37.5745669], [127.0085645, 37.5745905], [127.0085559, 37.5745947], [127.0084553, 37.5746432], [127.0084448, 37.5746488], [127.00833, 37.5747094]], [[127.0084174, 37.5777005], [127.0083519, 37.5777124], [127.0083276, 37.5775477], [127.0083602, 37.5774671], [127.008429, 37.5773816], [127.0085956, 37.5772244], [127.0086464, 37.5771175], [127.0085917, 37.5766681], [127.0085273, 37.5764788], [127.0084627, 37.5761999], [127.008434, 37.576059], [127.0084292, 37.5759113], [127.0084188, 37.5757981], [127.0084572, 37.5756537], [127.0086324, 37.575414], [127.0087225, 37.5752375]], [[127.0084202, 37.5770913], [127.0084459, 37.5770948], [127.0084607, 37.5770983], [127.0084716, 37.5771033], [127.0084785, 37.577108], [127.0084838, 37.577113], [127.0084896, 37.5771226], [127.0084918, 37.57713], [127.0084926, 37.5771368], [127.008492, 37.5771499], [127.0084895, 37.5771646], [127.008486, 37.5771771], [127.0084798, 37.5771958], [127.0084746, 37.5772024]], [[127.0085022, 37.5770569], [127.0084917, 37.5770665], [127.0084801, 37.5770736], [127.0084589, 37.5770822], [127.0084202, 37.5770913]], [[127.0084251, 37.5772836], [127.0084549, 37.5772333], [127.0084746, 37.5772024]], [[127.0085706, 37.5744523], [127.0084351, 37.574479]], [[127.0085022, 37.5770569], [127.0085047, 37.5770775], [127.0085052, 37.5770944], [127.0085049, 37.57711], [127.0085043, 37.5771315], [127.0085015, 37.5771562], [127.0084946, 37.5771751], [127.0084872, 37.5771869], [127.0084746, 37.5772024]], [[127.0085158, 37.5770072], [127.0085161, 37.5770186], [127.0085122, 37.5770366], [127.0085082, 37.5770461], [127.0085022, 37.5770569]], [[127.0086928, 37.5748042], [127.0088268, 37.5748348]], [[127.0087925, 37.5752543], [127.0087574, 37.5752449], [127.0087225, 37.5752375]], [[127.0088268, 37.5748348], [127.0088185, 37.5748874], [127.0087421, 37.5751991], [127.0087225, 37.5752375]], [[127.0087925, 37.5734909], [127.0087965, 37.5733015], [127.0087898, 37.5731305], [127.008726, 37.5728287]], [[127.0087532, 37.576996], [127.008711, 37.5769728], [127.0086924, 37.5767177], [127.0086709, 37.5766009], [127.0086408, 37.5765074], [127.0086076, 37.5763969], [127.0085632, 37.5761536], [127.0085493, 37.5759804], [127.0085533, 37.5758323], [127.0085786, 37.5757235], [127.0086196, 37.5755982], [127.0087018, 37.5754302], [127.0087681, 37.5752924], [127.0087925, 37.5752543]], [[127.0087925, 37.5734909], [127.0089486, 37.5734914]], [[127.0087925, 37.5734909], [127.0087754, 37.573728], [127.008706, 37.5741762], [127.008783, 37.574653], [127.0088268, 37.5748348]], [[127.0089518, 37.5743157], [127.0090517, 37.5745817], [127.0090521, 37.5747002], [127.0090435, 37.5748263], [127.0089647, 37.5749845], [127.0088486, 37.5751545], [127.0087925, 37.5752543]], [[127.0089518, 37.5743157], [127.0088409, 37.5741488], [127.0088519, 37.573994], [127.0089475, 37.5738173], [127.0089603, 37.5737272], [127.0090106, 37.5736724], [127.0089486, 37.5734914]], [[127.0089486, 37.5734914], [127.0089229, 37.5734171], [127.0089453, 37.5731879], [127.0089328, 37.5731054], [127.0089315, 37.5729683], [127.0089073, 37.5729152], [127.0089047, 37.572777], [127.0089208, 37.5727302], [127.009012, 37.5726579], [127.0091058, 37.5726218], [127.0092531, 37.5726165]], [[127.0089518, 37.5743157], [127.0090309, 37.5743165], [127.0092517, 37.5743019]]]}, "properties": {"name": "성줄어린이공원", "green_type": "park", "type_label": "Park walk", "path_m": 1711, "segments": 68, "quiet_value": 440.1, "quiet_label": "calm", "access": "", "fee": "", "access_class": "public"}}, {"type": "Feature", "geometry": {"type": "MultiLineString", "coordinates": [[[126.9798646, 37.5760461], [126.9799516, 37.5760573], [126.9804426, 37.5760206], [126.9805634, 37.5760069]], [[126.9808541, 37.5769704], [126.9804807, 37.5770312]], [[126.9805634, 37.5760069], [126.9806596, 37.5762404]], [[126.9805634, 37.5760069], [126.9814589, 37.5758912]], [[126.9806596, 37.5762404], [126.9807116, 37.5763109], [126.980702, 37.5764267], [126.9807038, 37.576671], [126.9807458, 37.5767972], [126.9808541, 37.5769704]], [[126.9806596, 37.5762404], [126.9808286, 37.5761933], [126.9810339, 37.5761462], [126.9811834, 37.57611], [126.9813313, 37.576083], [126.9814763, 37.5760599]], [[126.9806685, 37.5776425], [126.9808223, 37.5775878], [126.9808472, 37.577579], [126.980885, 37.5775629]], [[126.9818095, 37.5770871], [126.9816051, 37.5770503], [126.9814671, 37.5770315], [126.9813923, 37.5770224], [126.981295, 37.5770099], [126.9811344, 37.5769956], [126.9808541, 37.5769704]], [[126.9812344, 37.5772901], [126.9811416, 37.5772232], [126.9810599, 37.5771528], [126.9809699, 37.5770653], [126.9808541, 37.5769704]], [[126.980885, 37.5775629], [126.981003, 37.5774236], [126.9811074, 37.5773436], [126.9811654, 37.5773116], [126.9812344, 37.5772901]], [[126.9814154, 37.5776512], [126.9812509, 37.5774252], [126.9810767, 37.5774812], [126.980885, 37.5775629]], [[126.9811016, 37.577746], [126.9812266, 37.5777147], [126.9814154, 37.5776512]], [[126.9812344, 37.5772901], [126.9814171, 37.5773748], [126.9816075, 37.577559], [126.9816111, 37.5777124], [126.9815535, 37.5778205], [126.9814373, 37.5778641]], [[126.9812344, 37.5772901], [126.9814655, 37.5772519], [126.9816142, 37.5772279], [126.9817814, 37.5772106]], [[126.9814435, 37.5780168], [126.9813162, 37.5780468], [126.98128, 37.5779256]], [[126.9814154, 37.5776512], [126.9814297, 37.5776791], [126.9814373, 37.5778641]], [[126.9814435, 37.5780168], [126.9814373, 37.5778641]], [[126.981452, 37.5783086], [126.9814986, 37.5782476], [126.9814435, 37.5780168]], [[126.9814487, 37.5758355], [126.9814589, 37.5758912]], [[126.9814589, 37.5758912], [126.9814763, 37.5760599]], [[126.9829325, 37.5758056], [126.9828321, 37.5757297], [126.98272, 37.5757038], [126.9825379, 37.5757038], [126.9821446, 37.5757387], [126.9815173, 37.5758837], [126.9814589, 37.5758912]], [[126.9814763, 37.5760599], [126.9816669, 37.5760533], [126.9818859, 37.5760503]], [[126.9818095, 37.5770871], [126.9817814, 37.5772106]], [[126.9817814, 37.5772106], [126.9820062, 37.5772033], [126.9821653, 37.5772148], [126.9823289, 37.5772359], [126.9824401, 37.577248], [126.982546, 37.5772607]], [[126.9820736, 37.5765391], [126.9820726, 37.5766637], [126.9820503, 37.5767828], [126.9820001, 37.5768937], [126.9819339, 37.5769793], [126.9818095, 37.5770871]], [[126.9818859, 37.5760503], [126.9819431, 37.5761693], [126.9819885, 37.5762761], [126.9820736, 37.5765391]], [[126.9829325, 37.5758056], [126.9827227, 37.5758705], [126.9825734, 37.5759406], [126.982417, 37.5759798], [126.9821878, 37.5760177], [126.9818859, 37.5760503]], [[126.9820736, 37.5765391], [126.9821731, 37.5765279], [126.9823044, 37.5765432], [126.9824104, 37.5765492], [126.9827235, 37.5766151]], [[126.9825406, 37.5772843], [126.983427, 37.5774176]], [[126.9828499, 37.5762911], [126.9832192, 37.5763971]], [[126.9829325, 37.5758056], [126.9830102, 37.5758985]]]}, "properties": {"name": "열린송현 녹지광장", "green_type": "park", "type_label": "Park walk", "path_m": 1580, "segments": 66, "quiet_value": 1498.1, "quiet_label": "moderate", "access": "", "fee": "", "access_class": "public"}}, {"type": "Feature", "geometry": {"type": "MultiLineString", "coordinates": [[[127.0077054, 37.5730116], [127.0079764, 37.5730021], [127.0079673, 37.5728374], [127.0080088, 37.572836], [127.0080035, 37.5727409], [127.0078936, 37.5727447]], [[127.0077687, 37.572862], [127.0078936, 37.5727447]], [[127.0081219, 37.5724922], [127.0080543, 37.5726122], [127.0079428, 37.5727372], [127.0078936, 37.5727447]], [[127.0079911, 37.5724191], [127.0081219, 37.5724922]], [[127.0085727, 37.5724578], [127.0085168, 37.5724992], [127.00838, 37.5726353], [127.0081219, 37.5724922]], [[127.0081219, 37.5724922], [127.0082143, 37.5724329], [127.008361, 37.5722685], [127.0084358, 37.5721846]], [[127.0082809, 37.5721052], [127.0084358, 37.5721846]], [[127.0085727, 37.5724578], [127.0085321, 37.5724502], [127.0085207, 37.5724029], [127.0085737, 37.5723355], [127.0085862, 37.572289], [127.0085608, 37.5722485], [127.0084358, 37.5721846]], [[127.0087605, 37.5717894], [127.0086882, 37.5719018], [127.0085733, 37.5720306], [127.0084407, 37.5721791], [127.0084358, 37.5721846]], [[127.0085727, 37.5724578], [127.0086173, 37.57251], [127.0087025, 37.5725296], [127.0087375, 37.5725667], [127.0087308, 37.5726305], [127.008726, 37.5728287], [127.008921, 37.5725177], [127.0090601, 37.5724419], [127.0092526, 37.572392], [127.0093493, 37.5723051], [127.0094279, 37.5721136]], [[127.0085727, 37.5724578], [127.0086863, 37.5723169], [127.0087225, 37.5722608]], [[127.0086223, 37.5717354], [127.0087605, 37.5717894]], [[127.0089299, 37.571879], [127.0088417, 37.5719507], [127.0088024, 37.5720155], [127.0087744, 37.5720993], [127.0087551, 37.5721841], [127.0087225, 37.5722608]], [[127.0087225, 37.5722608], [127.0088834, 37.5722199], [127.0090551, 37.5721497], [127.0092875, 37.572124], [127.0093635, 37.5721285], [127.0094279, 37.5721136]], [[127.0089299, 37.571879], [127.0087605, 37.5717894]], [[127.0090625, 37.5715944], [127.0089672, 37.5715887], [127.0089221, 37.5716263], [127.0087845, 37.5717657], [127.0087605, 37.5717894]], [[127.0090625, 37.5715944], [127.0090424, 37.5715653], [127.009, 37.5715431], [127.0088654, 37.5714727]], [[127.0089299, 37.571879], [127.0090095, 37.571918], [127.00909, 37.5719095], [127.0092187, 37.5718861], [127.0092992, 37.5718542], [127.009385, 37.5717798]], [[127.0089299, 37.571879], [127.0089957, 37.5718367], [127.0090843, 37.5717778], [127.009169, 37.5717067], [127.0091775, 37.571675]], [[127.0092549, 37.5715539], [127.0092176, 37.5715543], [127.0091782, 37.5715568], [127.0090625, 37.5715944]], [[127.009385, 37.5717798], [127.0092643, 37.5717713], [127.0091775, 37.571675]], [[127.0092549, 37.5715539], [127.0091775, 37.571675]], [[127.0092549, 37.5715539], [127.0093161, 37.5715527], [127.0093483, 37.5715366], [127.0094466, 37.5715524], [127.0095235, 37.5715661], [127.0096099, 37.5715842], [127.0096593, 37.5715952], [127.0097331, 37.5716141], [127.0103297, 37.5717372]], [[127.0094279, 37.5721136], [127.0094682, 37.5720498], [127.0095084, 37.5719138], [127.0095084, 37.5718075], [127.0094842, 37.571782], [127.009385, 37.5717798]]]}, "properties": {"name": "흥인지문공원", "green_type": "park", "type_label": "Park walk", "path_m": 1007, "segments": 56, "quiet_value": 9342.3, "quiet_label": "moderate", "access": "", "fee": "", "access_class": "public"}}, {"type": "Feature", "geometry": {"type": "MultiLineString", "coordinates": [[[126.9878813, 37.5710447], [126.9878122, 37.5709827], [126.9877052, 37.5709647], [126.9876103, 37.5709634]], [[126.9876312, 37.5704627], [126.9877591, 37.5704673], [126.9878475, 37.5704684]], [[126.9878813, 37.5710447], [126.988133, 37.5711278]], [[126.9878813, 37.5710447], [126.9878847, 37.5712106], [126.9878734, 37.5712634], [126.9878506, 37.5713652], [126.9878392, 37.5714849], [126.9878344, 37.5716162], [126.9878734, 37.5716922], [126.9879627, 37.5717669], [126.9880715, 37.5717939]], [[126.9884595, 37.5708311], [126.9880182, 37.5706886], [126.9878813, 37.5710447]], [[126.9878935, 37.5718811], [126.9879026, 37.5719842], [126.9879095, 37.5720421], [126.9878907, 37.5720505]], [[126.9880715, 37.5717939], [126.988032, 37.571885]], [[126.9886882, 37.57136], [126.9886759, 37.5713961], [126.9886417, 37.5714682], [126.9885914, 37.5715634], [126.9885492, 37.5716355], [126.9884923, 37.5716999], [126.9884159, 37.5717514], [126.9882892, 37.5718029], [126.9881885, 37.5718068], [126.9880715, 37.5717939]], [[126.988133, 37.5711278], [126.9881112, 37.5711517], [126.9880859, 37.5712005], [126.9880802, 37.5712531], [126.9880941, 37.5713038], [126.9881263, 37.571349], [126.9881584, 37.5713753], [126.9881967, 37.5713958], [126.9882442, 37.5714104], [126.9882947, 37.571416], [126.9883373, 37.5714135], [126.9883785, 37.5714046], [126.9884177, 37.5713889], [126.9884523, 37.5713674], [126.9884798, 37.571342], [126.9885007, 37.5713128]], [[126.988372, 37.5710769], [126.9883275, 37.5710686], [126.9882817, 37.5710678], [126.988238, 37.5710742], [126.9881968, 37.5710875], [126.9881625, 37.5711053], [126.988133, 37.5711278]], [[126.988372, 37.5710769], [126.9884303, 37.5711012]], [[126.988372, 37.5710769], [126.9884595, 37.5708311]], [[126.9884303, 37.5711012], [126.9884629, 37.5711245], [126.988489, 37.5711525], [126.9885132, 37.5711991], [126.9885197, 37.5712493], [126.988514, 37.5712818], [126.9885007, 37.5713128]], [[126.9884303, 37.5711012], [126.9885378, 37.5710909], [126.9886304, 37.5711295], [126.9886921, 37.5711939], [126.9887132, 37.5712866], [126.9886882, 37.57136]], [[126.9885826, 37.5703284], [126.9885874, 37.570427], [126.9885874, 37.5704613], [126.9885737, 37.5705069], [126.9884595, 37.5708311]], [[126.9885007, 37.5713128], [126.9886882, 37.57136]], [[126.9886882, 37.57136], [126.9887671, 37.5713836]], [[126.9887982, 37.570345], [126.9887902, 37.5706867], [126.9888088, 37.5710979], [126.9888211, 37.5713936], [126.9892168, 37.5714584]]]}, "properties": {"name": "탑골공원", "green_type": "park", "type_label": "Park walk", "path_m": 792, "segments": 42, "quiet_value": 13828.1, "quiet_label": "busy", "access": "", "fee": "", "access_class": "public"}}, {"type": "Feature", "geometry": {"type": "MultiLineString", "coordinates": [[[127.0020746, 37.5809498], [127.0023214, 37.5809534]], [[127.0026797, 37.5809606], [127.0023214, 37.5809534]], [[127.0025631, 37.5805505], [127.0024491, 37.5805651], [127.0023596, 37.5805759], [127.0023468, 37.580687], [127.0023214, 37.5809534]], [[127.0023275, 37.5801645], [127.0026548, 37.5801719]], [[127.0025867, 37.580445], [127.0024492, 37.5804871], [127.0023393, 37.580451]], [[127.0026548, 37.5801719], [127.0025312, 37.5796278]], [[127.0026586, 37.5805969], [127.0025631, 37.5805505]], [[127.0025631, 37.5805505], [127.0025867, 37.580445]], [[127.0027325, 37.580465], [127.0026801, 37.5804227], [127.002624, 37.5804348], [127.0025867, 37.580445]], [[127.0030004, 37.5801674], [127.0026548, 37.5801719]], [[127.0027295, 37.5806335], [127.0026586, 37.5805969]], [[127.0026586, 37.5805969], [127.0027325, 37.580465]], [[127.0026797, 37.5809606], [127.0027079, 37.5807849], [127.0027233, 37.5806921], [127.0027295, 37.5806335]], [[127.0028692, 37.5809531], [127.0026797, 37.5809606]], [[127.0028835, 37.5806311], [127.0027295, 37.5806335]], [[127.0027325, 37.580465], [127.0028155, 37.5804304], [127.0028703, 37.5804543], [127.0029205, 37.5804357]], [[127.0028835, 37.5806311], [127.0028814, 37.5807153], [127.0028692, 37.5809531]], [[127.0032858, 37.5809347], [127.0028692, 37.5809531]], [[127.0029636, 37.5806067], [127.0028835, 37.5806311]], [[127.0030051, 37.5805368], [127.0029205, 37.5804357]], [[127.0029205, 37.5804357], [127.0029575, 37.5803968], [127.0030004, 37.5801674]], [[127.0029636, 37.5806067], [127.0030366, 37.5806359], [127.003138, 37.5806354]], [[127.0029636, 37.5806067], [127.0029636, 37.5805481], [127.0030051, 37.5805368]], [[127.0030004, 37.5801674], [127.0030037, 37.5800536]], [[127.0030004, 37.5801674], [127.0030865, 37.580158]], [[127.0031269, 37.5805774], [127.0030715, 37.5805188], [127.0030051, 37.5805368]], [[127.0031269, 37.5805774], [127.0031286, 37.5803909], [127.003125, 37.5802808], [127.0030994, 37.5802338], [127.0030865, 37.580158]], [[127.0030865, 37.580158], [127.0032846, 37.5801467], [127.0033854, 37.5801304]], [[127.0031269, 37.5805774], [127.003138, 37.5806354]], [[127.0032858, 37.5809347], [127.0032825, 37.580835], [127.0031762, 37.580835], [127.003138, 37.5806354]], [[127.003397, 37.58093], [127.0032858, 37.5809347]]]}, "properties": {"name": "마로니에공원", "green_type": "park", "type_label": "Park walk", "path_m": 723, "segments": 64, "quiet_value": 277.5, "quiet_label": "calm", "access": "", "fee": "", "access_class": "public"}}, {"type": "Feature", "geometry": {"type": "MultiLineString", "coordinates": [[[126.9885744, 37.5782807], [126.988543, 37.5783044], [126.9885027, 37.5783068], [126.9884548, 37.5782914], [126.9884279, 37.5782665], [126.9884234, 37.5782357], [126.9882725, 37.578231]], [[126.988797, 37.578639], [126.9883571, 37.5786337], [126.9883115, 37.5786496], [126.988278, 37.5786368], [126.9882686, 37.578605], [126.9882807, 37.5785082], [126.9883115, 37.578471], [126.9883303, 37.5784317], [126.9883303, 37.5783956], [126.9883196, 37.578352], [126.9882874, 37.5783021], [126.9882713, 37.5782542], [126.9882725, 37.578231]], [[126.9889352, 37.5781173], [126.9889097, 37.5780916], [126.9888601, 37.5780767], [126.9887858, 37.5780776], [126.9887069, 37.5780977], [126.9886428, 37.578098], [126.9886026, 37.5780831], [126.9885006, 37.578064], [126.9884108, 37.5780682], [126.9883585, 37.5780959], [126.9883048, 37.5781362], [126.988274, 37.5782], [126.9882725, 37.578231]], [[126.9885744, 37.5782807], [126.9885685, 37.5782535]], [[126.9888024, 37.5783552], [126.9886836, 37.5782665], [126.9886462, 37.5782914], [126.9886103, 37.578295], [126.9885744, 37.5782807]], [[126.988797, 37.578639], [126.9888024, 37.5783552]], [[126.988797, 37.578639], [126.9889084, 37.5786101], [126.9889769, 37.5786353]], [[126.9888882, 37.5783541], [126.9888024, 37.5783552]], [[126.9888858, 37.577781], [126.9888607, 37.5777834], [126.988853, 37.5779874]], [[126.9888858, 37.577781], [126.9888856, 37.5777049], [126.9888883, 37.5775495], [126.9888922, 37.5773702]], [[126.9888858, 37.577781], [126.989066, 37.5777804], [126.9890648, 37.5778744]], [[126.9888882, 37.5783541], [126.9888664, 37.578524], [126.9888719, 37.5785653], [126.9889089, 37.5785864], [126.9889773, 37.5786119]], [[126.9889352, 37.5781173], [126.9889271, 37.5782946], [126.9888882, 37.5783541]], [[126.9889352, 37.5781173], [126.9889658, 37.578062], [126.9890999, 37.5780619]], [[126.9891826, 37.5786657], [126.9890008, 37.5786838], [126.9889753, 37.5786833], [126.9889769, 37.5786353]], [[126.9889769, 37.5786353], [126.9889773, 37.5786119]], [[126.9889773, 37.5786119], [126.9889806, 37.5784489], [126.9890298, 37.5784489], [126.9890358, 37.5783086], [126.9890906, 37.5783123], [126.9890999, 37.5780619]], [[126.9890648, 37.5778744], [126.9891293, 37.5778754], [126.98915, 37.577861], [126.9891556, 37.5777351], [126.9891656, 37.5777227], [126.9891806, 37.5777227], [126.9891925, 37.5777366], [126.9891838, 37.5779224], [126.989195, 37.5779319], [126.9892379, 37.5779339]], [[126.9890999, 37.5780619], [126.9891039, 37.5779729], [126.9890618, 37.5779721], [126.9890648, 37.5778744]], [[126.9897919, 37.5784086], [126.9896491, 37.5783605], [126.9895555, 37.5783298], [126.9894857, 37.578292], [126.9893713, 37.5782569], [126.9892153, 37.5782333]]]}, "properties": {"name": "현대원서공원", "green_type": "park", "type_label": "Park walk", "path_m": 689, "segments": 42, "quiet_value": 1471.7, "quiet_label": "calm", "access": "", "fee": "", "access_class": "public"}}, {"type": "Feature", "geometry": {"type": "MultiLineString", "coordinates": [[[126.9798345, 37.5714916], [126.9794494, 37.5713648], [126.9793115, 37.5713506]], [[126.9798345, 37.5714916], [126.9797934, 37.5716546]], [[126.9798345, 37.5714916], [126.9801251, 37.5715116]], [[126.9801251, 37.5715116], [126.9802178, 37.57119]], [[126.9806698, 37.5714973], [126.9801251, 37.5715116]]]}, "properties": {"name": "청진공원", "green_type": "park", "type_label": "Park walk", "path_m": 178, "segments": 10, "quiet_value": 9375.3, "quiet_label": "busy", "access": "", "fee": "", "access_class": "public"}}, {"type": "Feature", "geometry": {"type": "MultiLineString", "coordinates": [[[126.995931, 37.584707], [126.9958166, 37.5847384], [126.9957751, 37.5847828]], [[126.995931, 37.584707], [126.995918, 37.5847702]], [[126.9963397, 37.5846968], [126.9960922, 37.5846885], [126.995931, 37.584707]], [[126.996333, 37.5848155], [126.9963397, 37.5846968]], [[126.9963397, 37.5846968], [126.996621, 37.584645]], [[126.9967705, 37.5847292], [126.996621, 37.584645]], [[126.9967705, 37.5847292], [126.996819, 37.5846456], [126.9967708, 37.5845998], [126.9966243, 37.5845784], [126.996621, 37.584645]], [[126.9967651, 37.5848628], [126.9967705, 37.5847292]]]}, "properties": {"name": "경학 어린이공원", "green_type": "park", "type_label": "Park walk", "path_m": 167, "segments": 16, "quiet_value": 203.7, "quiet_label": "calm", "access": "", "fee": "", "access_class": "public"}}, {"type": "Feature", "geometry": {"type": "MultiLineString", "coordinates": [[[127.0101003, 37.5819298], [127.0100994, 37.581914], [127.0101003, 37.5818587], [127.0097801, 37.5818562], [127.0097781, 37.5817896], [127.0097781, 37.5817676]], [[127.0101988, 37.5822642], [127.0101729, 37.582264], [127.0099576, 37.5822649]], [[127.0101991, 37.5823415], [127.0101988, 37.5822642]], [[127.0103835, 37.5820045], [127.0101997, 37.5820265], [127.0101984, 37.5821721], [127.0101988, 37.5822642]], [[127.0102473, 37.5826691], [127.0102541, 37.5824417], [127.0102563, 37.5823414]]]}, "properties": {"name": "낙산정원", "green_type": "park", "type_label": "Park walk", "path_m": 155, "segments": 18, "quiet_value": null, "quiet_label": "—", "access": "", "fee": "", "access_class": "public"}}, {"type": "Feature", "geometry": {"type": "MultiLineString", "coordinates": [[[126.9824096, 37.5746191], [126.9822871, 37.5746275], [126.9821092, 37.5747887], [126.9817506, 37.5748414]], [[126.9824096, 37.5746191], [126.9824201, 37.5747485], [126.9824292, 37.5748033], [126.9824457, 37.5748867]], [[126.9824096, 37.5746191], [126.9829181, 37.5746101]]]}, "properties": {"name": "우정총국시민광장", "green_type": "park", "type_label": "Park walk", "path_m": 142, "segments": 6, "quiet_value": 9375.3, "quiet_label": "busy", "access": "", "fee": "", "access_class": "public"}}, {"type": "Feature", "geometry": {"type": "MultiLineString", "coordinates": [[[127.0090559, 37.5830073], [127.0091473, 37.5830077]], [[127.0091459, 37.583128], [127.0091473, 37.5830077]], [[127.0092008, 37.5828626], [127.0091481, 37.582934], [127.0091473, 37.5830077]], [[127.0092404, 37.5831297], [127.0092536, 37.5830408], [127.0092576, 37.5829886]], [[127.0092576, 37.5829886], [127.0095813, 37.5829943]], [[127.0092576, 37.5829886], [127.0092592, 37.5829404], [127.0092598, 37.5828613]], [[127.0093637, 37.5822629], [127.0095221, 37.5822668], [127.0097735, 37.5822657]]]}, "properties": {"name": "삼선공원", "green_type": "park", "type_label": "Park walk", "path_m": 133, "segments": 14, "quiet_value": null, "quiet_label": "—", "access": "", "fee": "", "access_class": "public"}}, {"type": "Feature", "geometry": {"type": "MultiLineString", "coordinates": [[[126.9925969, 37.5737711], [126.9927059, 37.5735745], [126.9928746, 37.573322], [126.9931741, 37.5728847], [126.9934403, 37.5725682], [126.9936113, 37.5723608], [126.9937899, 37.5721612], [126.9938495, 37.572102], [126.9938401, 37.5720917]], [[126.9937629, 37.5706747], [126.9929895, 37.5706465], [126.9929161, 37.5706487], [126.9928559, 37.5706456]], [[126.9937631, 37.57148], [126.9937962, 37.5714816], [126.9938736, 37.5715009], [126.993942, 37.5715519], [126.9939782, 37.5715997], [126.993997, 37.5716821], [126.9940399, 37.5717411], [126.9940825, 37.5717764], [126.9941063, 37.5717882]], [[126.9937639, 37.5708327], [126.9939742, 37.5708424], [126.9939722, 37.5707019]], [[126.9941318, 37.571119], [126.9940163, 37.5710876], [126.9940217, 37.5710277], [126.9939748, 37.5710247], [126.9939709, 37.5708537], [126.993764, 37.5708489]], [[126.9937766, 37.5720769], [126.9938401, 37.5720917]], [[126.994067, 37.5720391], [126.9938401, 37.5720917]], [[126.9943285, 37.5707193], [126.994319, 37.5707188], [126.9940404, 37.5707052], [126.9940292, 37.5707047], [126.9939722, 37.5707019]], [[126.9950793, 37.5706704], [126.993967, 37.5706372], [126.9939016, 37.5706372], [126.9938519, 37.5706497], [126.9938158, 37.5706694], [126.9937977, 37.5706934], [126.9939592, 37.5707013], [126.9939722, 37.5707019]], [[126.994067, 37.5720391], [126.994054, 37.5719569], [126.9940456, 37.5719173], [126.9940443, 37.5718819], [126.9940523, 37.5718577], [126.9940733, 37.5718253], [126.9941063, 37.5717882]], [[126.9946232, 37.5720246], [126.994067, 37.5720391]], [[126.9941063, 37.5717882], [126.9941207, 37.5717953], [126.9942213, 37.5718304], [126.9943212, 37.5718463], [126.994404, 37.5718559], [126.9944319, 37.571853], [126.9944865, 37.5718362], [126.9945499, 37.5718386], [126.9946807, 37.5718666]], [[126.9943703, 37.5710388], [126.9942941, 37.5710348], [126.9942518, 37.5710417], [126.9942099, 37.5710581], [126.9941506, 37.5711039], [126.9941264, 37.57114], [126.9941107, 37.5711666], [126.9941043, 37.5712287], [126.9941285, 37.5712824], [126.9942146, 37.5714073], [126.9942398, 37.5714777], [126.9942398, 37.5715301], [126.994225, 37.5715819], [126.9941097, 37.5717844], [126.9941063, 37.5717882]], [[126.9941463, 37.5710958], [126.9941215, 37.5710935], [126.9940552, 37.5710135], [126.9940417, 37.5708297], [126.9943649, 37.5708441]], [[126.9943285, 37.5707193], [126.9943599, 37.5707207], [126.9943673, 37.5707211], [126.9949646, 37.5707502], [126.9950854, 37.5707561]], [[126.9943649, 37.5708441], [126.9943508, 37.5708289], [126.9943515, 37.5708204], [126.9943285, 37.5707193]], [[126.9943649, 37.5708441], [126.9947395, 37.5708583], [126.9948016, 37.570859], [126.9950688, 37.5708651]], [[126.9943703, 37.5710388], [126.9943767, 37.5709039], [126.9943649, 37.5708441]], [[126.9943703, 37.5710388], [126.9944044, 37.5710451], [126.9944912, 37.571072], [126.9945526, 37.5710839], [126.9946072, 37.5710903], [126.9946545, 37.5710802], [126.9947259, 37.5710576], [126.9948039, 37.5710458], [126.9948998, 37.5710434], [126.9949788, 37.5710486]], [[126.9946232, 37.5720246], [126.9946201, 37.5720517], [126.9945705, 37.5721824], [126.9945078, 37.5722907]], [[126.9946232, 37.5720246], [126.9947412, 37.5720665]], [[126.9946232, 37.5720246], [126.9946807, 37.5718666]], [[126.9949788, 37.5710486], [126.9946827, 37.5718612], [126.9946807, 37.5718666]], [[126.9947412, 37.5720665], [126.9948753, 37.5720971], [126.9950322, 37.5721043], [126.995246, 37.5720521], [126.9952759, 37.5720431]], [[126.9947412, 37.5720665], [126.9948388, 37.5718509], [126.9948442, 37.5718398]], [[126.9952324, 37.5718633], [126.9951354, 37.5719069], [126.9949967, 37.5719447], [126.9949382, 37.5719423], [126.9949182, 37.5719264], [126.9948966, 37.5718837], [126.9948442, 37.5718398]], [[126.9950139, 37.5714974], [126.9948442, 37.5718398]], [[126.9949788, 37.5710486], [126.9949838, 37.5710351], [126.9950636, 37.5709491]], [[126.9950139, 37.5714974], [126.9951094, 37.5715629]], [[126.9950139, 37.5714974], [126.9951073, 37.5712697], [126.9951649, 37.5710308]], [[126.9950636, 37.5709491], [126.9951797, 37.5709588], [126.995168, 37.571018], [126.9951649, 37.5710308]], [[126.9950688, 37.5708651], [126.9950685, 37.5708702], [126.995064, 37.5709421], [126.9950636, 37.5709491]], [[126.9950688, 37.5708651], [126.9950677, 37.570853], [126.9950854, 37.5707561]], [[126.9950793, 37.5706704], [126.9952864, 37.5706766], [126.995318, 37.5706873], [126.9953563, 37.5707195], [126.9953854, 37.5707706], [126.9950854, 37.5707561]], [[126.9950793, 37.5706704], [126.9950882, 37.5707485], [126.9950854, 37.5707561]], [[126.9950793, 37.5706704], [126.9950804, 37.570631], [126.9950818, 37.5705777], [126.9950828, 37.5705405], [126.9950838, 37.5705038]], [[126.9952324, 37.5718633], [126.9952314, 37.5717868], [126.9952416, 37.5717433], [126.9952202, 37.5716917], [126.9951704, 37.5716281], [126.9951094, 37.5715629]], [[126.9951094, 37.5715629], [126.9951826, 37.5715105], [126.9953117, 37.5714759], [126.9954438, 37.5714428], [126.9954695, 37.5714278]], [[126.9951649, 37.5710308], [126.995268, 37.5710537], [126.9954794, 37.5710562], [126.9955383, 37.5710288]], [[126.9952324, 37.5718633], [126.9952124, 37.5718947], [126.9952759, 37.5720431]], [[126.9955556, 37.5716579], [126.9955038, 37.5717522], [126.9954296, 37.5718118], [126.9953422, 37.5718392], [126.9952324, 37.5718633]], [[126.9958422, 37.5720147], [126.9955802, 37.5719926], [126.9954324, 37.5719962], [126.9952759, 37.5720431]], [[126.9955241, 37.571446], [126.9955029, 37.5714337], [126.9954695, 37.5714278]], [[126.995523, 37.5713808], [126.9954946, 37.571413], [126.9954695, 37.5714278]], [[126.9955434, 37.5709869], [126.9954672, 37.5708596], [126.9954824, 37.5707855]], [[126.9955241, 37.571446], [126.995523, 37.5713808]], [[126.9957081, 37.5712575], [126.9957142, 37.5712712], [126.9955211, 37.5712656], [126.995523, 37.5713808]], [[126.9955241, 37.571446], [126.995519, 37.5714775], [126.9955444, 37.5715564], [126.9955546, 37.5716015], [126.9955536, 37.5716345], [126.9955556, 37.5716579]], [[126.9955383, 37.5710288], [126.9955434, 37.5709869]], [[126.9955383, 37.5710288], [126.995582, 37.5710223]], [[126.9955434, 37.5709869], [126.9955749, 37.5709957], [126.995582, 37.5710223]], [[126.9955556, 37.5716579], [126.9955841, 37.5716434], [126.9956493, 37.5716356]], [[126.995582, 37.5710223], [126.9956085, 37.5710739], [126.9956481, 37.5711528], [126.9957081, 37.5712575]], [[126.9959296, 37.5717304], [126.9956493, 37.5716356]], [[126.9956493, 37.5716356], [126.9956226, 37.5716266], [126.9955912, 37.5716072], [126.9955693, 37.5715604], [126.9955495, 37.5714485], [126.9955505, 37.571347], [126.9959083, 37.5713679], [126.9959093, 37.5714525], [126.996263, 37.5714718], [126.9962701, 37.5713582], [126.996168, 37.5713534]], [[126.9957081, 37.5712575], [126.9959693, 37.5712712], [126.9959652, 37.5713437], [126.996168, 37.5713534]], [[126.9963898, 37.5722611], [126.9961669, 37.5720899], [126.9958577, 37.572016], [126.9958422, 37.5720147]], [[126.9959296, 37.5717304], [126.9959327, 37.5717546], [126.9959195, 37.571819], [126.9958971, 37.5718649], [126.9958473, 37.5719664], [126.9958422, 37.5720147]], [[126.9959296, 37.5717304], [126.9960089, 37.5716764], [126.9960831, 37.5716716], [126.9962595, 37.5716871]], [[126.9961822, 37.5711548], [126.9960156, 37.5712089]], [[126.996168, 37.5713534], [126.9961822, 37.5711548]], [[126.9961822, 37.5711548], [126.9963189, 37.5710749]], [[126.9954195, 37.5706944], [126.9954195, 37.5707123], [126.9954217, 37.570732], [126.9954492, 37.5707737], [126.9955253, 37.5707774], [126.9963439, 37.5708173], [126.9963307, 37.5707713], [126.9963149, 37.5707534], [126.9962743, 37.5707373], [126.9961728, 37.5707302], [126.9954375, 37.5706784], [126.9954195, 37.5706944]]]}, "properties": {"name": "종묘광장공원", "green_type": "garden", "type_label": "Garden walk", "path_m": 2592, "segments": 132, "quiet_value": 27404.5, "quiet_label": "busy", "access": "", "fee": "", "access_class": "public"}}, {"type": "Feature", "geometry": {"type": "MultiLineString", "coordinates": [[[127.004514, 37.5812239], [127.0046986, 37.5812163], [127.004947, 37.5812124], [127.0050539, 37.5812568], [127.0051757, 37.581295], [127.0052357, 37.5812929], [127.0053509, 37.5812774], [127.0053922, 37.5812412], [127.0053907, 37.5810186], [127.0053506, 37.5808429]], [[127.0052801, 37.5818297], [127.0054794, 37.581831], [127.0055416, 37.5818221], [127.0056405, 37.5818158]], [[127.0052821, 37.5815929], [127.0053643, 37.5815919], [127.0054411, 37.5815934]], [[127.0054411, 37.5815934], [127.0055113, 37.5816212], [127.0056548, 37.581625]], [[127.0054411, 37.5815934], [127.0054459, 37.5814493], [127.0054938, 37.5813406], [127.005497, 37.5812774]]]}, "properties": {"name": "광명 가든 레지던스 Gwangmyeong Garden Residence", "green_type": "garden", "type_label": "Garden walk", "path_m": 227, "segments": 10, "quiet_value": 393.8, "quiet_label": "calm", "access": "", "fee": "", "access_class": "private"}}, {"type": "Feature", "geometry": {"type": "MultiLineString", "coordinates": [[[127.0079467, 37.5682285], [127.0079372, 37.5682732], [127.0074406, 37.5684085], [127.0073754, 37.5684263], [127.0073169, 37.5684638], [127.0073057, 37.568692]], [[127.0079007, 37.5680291], [127.0078635, 37.5680713], [127.0077678, 37.5681633], [127.0077267, 37.5682021], [127.0077297, 37.5682289]], [[127.0078531, 37.5678631], [127.0079007, 37.5680291]], [[127.0079007, 37.5680291], [127.0079467, 37.5682285]], [[127.0079467, 37.5682285], [127.0081528, 37.5683905], [127.0081562, 37.5684568]]]}, "properties": {"name": "선큰가든", "green_type": "garden", "type_label": "Garden walk", "path_m": 191, "segments": 12, "quiet_value": null, "quiet_label": "—", "access": "", "fee": "", "access_class": "review"}}, {"type": "Feature", "geometry": {"type": "MultiLineString", "coordinates": [[[127.0091986, 37.5698449], [127.009319, 37.5698513], [127.00991099683276, 37.569867732281004]], [[127.0099252, 37.5697121], [127.0094518, 37.5697287]], [[127.00991099683276, 37.569867732281004], [127.00992172849556, 37.569868030163846]], [[127.0099191, 37.5698932], [127.0099087, 37.5698929], [127.00991099683276, 37.569867732281004]], [[127.00991099683276, 37.569867732281004], [127.0099252, 37.5697121]], [[127.0099191, 37.5698932], [127.0099856, 37.5698954], [127.0099908, 37.5698936], [127.009993, 37.5698894], [127.0100006, 37.5698719], [127.0100119, 37.5698346], [127.0100168, 37.5698102], [127.0100221, 37.5697835], [127.0100196, 37.5697156], [127.0100182, 37.5697089]], [[127.0103459, 37.57103], [127.0103067, 37.5709812], [127.0101979, 37.5708434], [127.0101775, 37.5708428], [127.0101264, 37.5707836], [127.010105, 37.5707757], [127.0098312, 37.5704656], [127.0098406, 37.570411], [127.0098601, 37.5703932], [127.0098938, 37.5701185], [127.0100395, 37.5701297], [127.0100303, 37.5701001], [127.0100135, 37.5700711], [127.0099907, 37.5700538], [127.0099645, 37.5700447], [127.00996, 37.5700915], [127.0098984, 37.5700869], [127.0099039, 37.5700389], [127.009862, 37.570054], [127.0098758, 37.5700226], [127.0099026, 37.5699977], [127.0098919, 37.5699685], [127.009898, 37.5699494], [127.0099191, 37.5698932]], [[127.00992172849556, 37.569868030163846], [127.0099191, 37.5698932]], [[127.00992172849556, 37.569868030163846], [127.0099999, 37.5698702]], [[127.00993805854644, 37.56971165755539], [127.00992172849556, 37.569868030163846]], [[127.0099455, 37.5696404], [127.0099317, 37.5696408], [127.0099252, 37.5697121]], [[127.00993805854644, 37.56971165755539], [127.0099252, 37.5697121]], [[127.0099455, 37.5696404], [127.00993805854644, 37.56971165755539]], [[127.0100182, 37.5697089], [127.00993805854644, 37.56971165755539]], [[127.0099497, 37.5695328], [127.0099523, 37.5696151], [127.0099455, 37.5696404]], [[127.0099455, 37.5696404], [127.0100035, 37.5696388], [127.0100182, 37.5697089]], [[127.0099497, 37.5695328], [127.0099573, 37.569373], [127.0098846, 37.5693773], [127.0098688, 37.5693975], [127.009849, 37.5695047], [127.0098528, 37.5695222], [127.0098608, 37.5695358], [127.0099497, 37.5695328]], [[127.0100689, 37.5693763], [127.0100665, 37.5695287], [127.009987, 37.5695315], [127.0099497, 37.5695328]], [[127.0103469, 37.5699909], [127.0100534, 37.5699937], [127.0100534, 37.5699628]], [[127.0103474, 37.5700118], [127.010174, 37.5700111], [127.0100979, 37.5700085], [127.0099738, 37.5700043], [127.0099671, 37.5700035], [127.009961, 37.5700011], [127.0099562, 37.5699973], [127.0099532, 37.5699925], [127.0099524, 37.5699871], [127.0099538, 37.5699818], [127.0099568, 37.5699775], [127.0099613, 37.5699742], [127.0099668, 37.569972], [127.0100534, 37.5699628]], [[127.0100567, 37.5699499], [127.0100534, 37.5699628]]]}, "properties": {"name": "오간수문", "green_type": "grass", "type_label": "Green lane", "path_m": 568, "segments": 44, "quiet_value": 5287.6, "quiet_label": "moderate", "access": "", "fee": "", "access_class": "public"}}]}