{"type": "FeatureCollection", "features": [{"type": "Feature", "geometry": {"type": "LineString", "coordinates": [[126.9867159, 37.5798926], [126.9873482, 37.5799237], [126.9876803, 37.5799401], [126.9876993, 37.5798762], [126.9876942, 37.5796267], [126.987687, 37.5793358]]}, "properties": {"name": "계동", "description": "북촌 계동 일대의 골목길로, 오래된 한옥과 현대적인 건물이 어우러진 사이로 카페와 작은 밥집이 이어져 걷기 좋다.", "description_en": "An alley in the Gyedong area of Bukchon where old hanok and modern buildings sit side by side, lined with cafés and small eateries and pleasant to walk.", "why": "계동길, 도토리가든, 담솥", "confidence": 0.75, "evidence": "both", "wikidata": null, "wikipedia": null, "headline": false, "part": "main", "ways": 1}}, {"type": "Feature", "geometry": {"type": "MultiLineString", "coordinates": [[[126.9868615, 37.5824801], [126.9871715, 37.5825128], [126.9872307, 37.5825732], [126.9871405, 37.5830935]], [[126.9876993, 37.5798762], [126.9879828, 37.5798735], [126.9879505, 37.5801471], [126.9881679, 37.5801552]]]}, "properties": {"name": "계동", "description": "북촌 계동 일대의 골목길로, 오래된 한옥과 현대적인 건물이 어우러진 사이로 카페와 작은 밥집이 이어져 걷기 좋다.", "description_en": "An alley in the Gyedong area of Bukchon where old hanok and modern buildings sit side by side, lined with cafés and small eateries and pleasant to walk.", "why": "계동길, 도토리가든, 담솥", "confidence": 0.75, "evidence": "both", "wikidata": null, "wikipedia": null, "headline": false, "part": "branch", "ways": 2}}, {"type": "Feature", "geometry": {"type": "MultiLineString", "coordinates": [[[126.9863511, 37.5816491], [126.9868149, 37.5816383]], [[126.9863885, 37.5819677], [126.9864369, 37.5819611], [126.9868149, 37.5819276]], [[126.9864497, 37.5820961], [126.9864369, 37.5819611]], [[126.9868582, 37.5830793], [126.9868691, 37.5827751], [126.9868615, 37.5824801], [126.9868465, 37.5822454], [126.9868287, 37.5821734], [126.9868149, 37.5819276], [126.9868149, 37.5816383], [126.9868054, 37.5814423], [126.9867796, 37.5812267], [126.9867731, 37.5810835], [126.9867887, 37.5808907], [126.9867665, 37.5805906], [126.9867587, 37.580454], [126.9867534, 37.5803703], [126.9867379, 37.5802367], [126.9867159, 37.5798926], [126.9867255, 37.5796211], [126.9867211, 37.5793403]], [[126.9876942, 37.5796267], [126.9867255, 37.5796211]], [[126.9872105, 37.5805921], [126.9872393, 37.5804434], [126.9867587, 37.580454]], [[126.9867699, 37.5776461], [126.9868122, 37.5774304], [126.9868294, 37.5773172], [126.9868906, 37.5771453]], [[126.9867731, 37.5810835], [126.9873807, 37.5810787], [126.9874058, 37.581071]], [[126.9868054, 37.5814423], [126.9872785, 37.5814843], [126.9874207, 37.5815078], [126.9874438, 37.5815106], [126.9875439, 37.5815212]], [[126.9874438, 37.5815106], [126.9874554, 37.5812966]]]}, "properties": {"name": "계동길", "description": "북촌의 대표적인 옛 골목길로, 언덕 위 계동교회를 중심으로 오래된 집과 현대적 건물이 어우러지고 카페와 찻집, 밥집이 늘어서 있다.", "description_en": "A signature old Bukchon lane centred on the hillside Gyedong Church, mixing old and modern houses and lined with cafés, tea houses and eateries.", "why": "도토리가든, 시노라, 담솥 안국역점", "confidence": 0.75, "evidence": "both", "wikidata": null, "wikipedia": null, "headline": false, "part": "main", "ways": 10}}, {"type": "Feature", "geometry": {"type": "LineString", "coordinates": [[127.0072124, 37.5789537], [127.0072043, 37.5790142], [127.0071954, 37.579108], [127.0071932, 37.5792071], [127.0071775, 37.579285], [127.0071842, 37.579393], [127.0071462, 37.5795063], [127.0071306, 37.5796302], [127.0071261, 37.5797417], [127.0071328, 37.5798125], [127.0071395, 37.5798709], [127.0071485, 37.5799099], [127.0071485, 37.5799488], [127.0071551, 37.5799789], [127.007146, 37.5800261], [127.0071333, 37.5800653], [127.0070435, 37.58014], [127.0070003, 37.5802282], [127.0072367, 37.580252]]}, "properties": {"name": "낙산", "description": "이화동 벽화마을과 낙산공원을 잇는 언덕길로, 하늘정원길과 한양도성 성곽길을 따라 걷기 좋고 서울 도심 전망이 트인다.", "description_en": "A hillside street linking the Ihwa mural village to Naksan Park, pleasant to walk along the Sky Garden path and the city-wall trail with open views over central Seoul.", "why": "낙산냉면, 시간 코스, 북악산", "confidence": 0.75, "evidence": "both", "wikidata": null, "wikipedia": null, "headline": false, "part": "main", "ways": 1}}, {"type": "Feature", "geometry": {"type": "MultiLineString", "coordinates": [[[127.005741, 37.5793875], [127.0063491, 37.5794032], [127.0063308, 37.5797829], [127.0062609, 37.5798328], [127.006227, 37.5798792], [127.0061407, 37.5800428], [127.0061007, 37.5800721], [127.0061007, 37.5801624], [127.0061007, 37.5802552], [127.0060576, 37.5803285], [127.0059929, 37.5803969], [127.0059158, 37.5804945], [127.0058651, 37.5805326]], [[127.0070246, 37.5775774], [127.007169, 37.578151], [127.0071771, 37.5783212], [127.0072116, 37.5788012], [127.0072124, 37.5789537]]]}, "properties": {"name": "낙산", "description": "이화동 벽화마을과 낙산공원을 잇는 언덕길로, 하늘정원길과 한양도성 성곽길을 따라 걷기 좋고 서울 도심 전망이 트인다.", "description_en": "A hillside street linking the Ihwa mural village to Naksan Park, pleasant to walk along the Sky Garden path and the city-wall trail with open views over central Seoul.", "why": "낙산냉면, 시간 코스, 북악산", "confidence": 0.75, "evidence": "both", "wikidata": null, "wikipedia": null, "headline": false, "part": "branch", "ways": 3}}, {"type": "Feature", "geometry": {"type": "MultiLineString", "coordinates": [[[127.0044295, 37.580483], [127.0049556, 37.5804834], [127.0057518, 37.5804795], [127.00582, 37.5804969], [127.0058651, 37.5805326], [127.0059662, 37.5806262], [127.0060347, 37.5806478], [127.0061032, 37.5806474], [127.0062051, 37.5805963], [127.0062839, 37.5805195], [127.0063695, 37.580434], [127.0064666, 37.5803632], [127.0065665, 37.5803395], [127.0067275, 37.579553], [127.0067786, 37.5792259], [127.0068425, 37.5789965], [127.0069155, 37.5789013], [127.0070254, 37.5788426], [127.0072116, 37.5788012]], [[127.0065665, 37.5803395], [127.0067223, 37.580338], [127.0068256, 37.5802633], [127.0070003, 37.5802282], [127.0069296, 37.5804002], [127.0069168, 37.5804748], [127.0068885, 37.5805514], [127.0068564, 37.5806222], [127.0068229, 37.5807119], [127.0068067, 37.5807934], [127.0067887, 37.5808812], [127.006759, 37.5809763], [127.006733, 37.5810637], [127.0066717, 37.5811647], [127.0066317, 37.5812755], [127.0066136, 37.5813298], [127.0065904, 37.5813993], [127.0065956, 37.5814456], [127.0066224, 37.5814908], [127.0066778, 37.5814908], [127.0067352, 37.5814694], [127.0067755, 37.5814429], [127.0068559, 37.5813614], [127.006972, 37.581257], [127.0070323, 37.5812021], [127.0070748, 37.5811791], [127.0071217, 37.5811667], [127.0071436, 37.5811664], [127.0071511, 37.5812044], [127.0071752, 37.5812602], [127.0071912, 37.5813135], [127.0071933, 37.5813769], [127.0071719, 37.5814371], [127.0071556, 37.5815051], [127.0071442, 37.5815811], [127.0071384, 37.5816565], [127.007156, 37.5817283], [127.0072117, 37.5817748], [127.00724, 37.5817875], [127.0072764, 37.581797], [127.007317, 37.5818026], [127.007372, 37.5818033], [127.0073917, 37.5818107], [127.0075115, 37.5816674], [127.0078869, 37.5814958], [127.0081273, 37.5812142], [127.0081632, 37.5811881], [127.0082498, 37.5811241], [127.0083798, 37.5810072], [127.0084295, 37.5808541], [127.0084533, 37.5806839], [127.0085967, 37.5805469], [127.0089539, 37.5804586], [127.0095529, 37.5802934], [127.0099703, 37.5801891], [127.0103565, 37.5802111], [127.0105064, 37.5802597], [127.010597, 37.5803792], [127.010727, 37.580626], [127.0108541, 37.5807994], [127.010993, 37.5810088], [127.0112915, 37.581291], [127.0115205, 37.5814669], [127.0116338, 37.5814993], [127.0118379, 37.5815483], [127.0119561, 37.5815526], [127.0120742, 37.5815441], [127.0122724, 37.5814767], [127.0125753, 37.5813738], [127.0126275, 37.5813561], [127.0129275, 37.5813396], [127.0131384, 37.5814048], [127.0136326, 37.5816515], [127.0141114, 37.5819635], [127.0145019, 37.5821875], [127.0147259, 37.5823078], [127.0150924, 37.5821216], [127.0155119, 37.5819144], [127.0156056, 37.5819027], [127.0158996, 37.5818922], [127.0163083, 37.5819008], [127.0165022, 37.5818557], [127.0166356, 37.581764], [127.0167614, 37.5816739], [127.0168096, 37.5815658], [127.0168658, 37.5814373], [127.0168902, 37.5809635], [127.0169204, 37.5808064], [127.0169531, 37.5806949], [127.0171246, 37.5804493], [127.0172861, 37.580272]]]}, "properties": {"name": "낙산길", "description": "낙산공원으로 오르는 언덕길로, 대학로·혜화와 이어지며 분위기 좋은 카페와 루프탑이 자리한 산책하기 좋은 길이다.", "description_en": "A hillside street climbing to Naksan Park, connected to Daehangno and Hyehwa, with atmospheric cafés and rooftops and good for a stroll.", "why": "불법, 커피머신패키지, 발코니", "confidence": 0.75, "evidence": "both", "wikidata": null, "wikipedia": null, "headline": false, "part": "main", "ways": 3}}, {"type": "Feature", "geometry": {"type": "MultiLineString", "coordinates": [[[127.0085727, 37.5724578], [127.0086863, 37.5723169], [127.0087225, 37.5722608], [127.0087551, 37.5721841], [127.0087744, 37.5720993], [127.0088024, 37.5720155], [127.0088417, 37.5719507], [127.0089299, 37.571879], [127.0089957, 37.5718367], [127.0090843, 37.5717778], [127.009169, 37.5717067], [127.0091775, 37.571675], [127.0092549, 37.5715539], [127.0093161, 37.5715527], [127.0093483, 37.5715366], [127.0094466, 37.5715524], [127.0095235, 37.5715661], [127.0096099, 37.5715842], [127.0096593, 37.5715952]], [[127.0089539, 37.5804586], [127.0088841, 37.5802058], [127.0088344, 37.5799719], [127.0087361, 37.5798093], [127.008597, 37.5796462], [127.0083946, 37.5794553], [127.0083369, 37.5793868], [127.0082617, 37.5792585], [127.008191, 37.5791423], [127.0081626, 37.5789163], [127.0081254, 37.5786386], [127.0081201, 37.5785432], [127.008159, 37.5784549], [127.0082705, 37.5782936], [127.0084209, 37.5781197], [127.0084758, 37.5780117], [127.0084775, 37.577922], [127.0084227, 37.5777621], [127.0084174, 37.5777005], [127.008413, 37.57765], [127.0084457, 37.5775776], [127.0084982, 37.5775228], [127.0085756, 37.5774398], [127.0087164, 37.5772067], [127.0087306, 37.5771576], [127.0087138, 37.5770413], [127.0087532, 37.576996], [127.008711, 37.5769728], [127.0086924, 37.5767177], [127.0086709, 37.5766009], [127.0086408, 37.5765074], [127.0086076, 37.5763969], [127.0085632, 37.5761536], [127.0085493, 37.5759804], [127.0085533, 37.5758323], [127.0085786, 37.5757235], [127.0086196, 37.5755982], [127.0087018, 37.5754302], [127.0087681, 37.5752924], [127.0087925, 37.5752543], [127.0088486, 37.5751545], [127.0089647, 37.5749845], [127.0090435, 37.5748263], [127.0090521, 37.5747002], [127.0090517, 37.5745817], [127.0089518, 37.5743157], [127.0088409, 37.5741488], [127.0088519, 37.573994], [127.0089475, 37.5738173], [127.0089603, 37.5737272], [127.0090106, 37.5736724], [127.0089486, 37.5734914], [127.0089229, 37.5734171], [127.0089453, 37.5731879], [127.0089328, 37.5731054], [127.0089315, 37.5729683], [127.0089073, 37.5729152], [127.0089047, 37.572777], [127.0089208, 37.5727302], [127.009012, 37.5726579], [127.0091058, 37.5726218], [127.0092531, 37.5726165], [127.0093327, 37.5725426], [127.009358, 37.5725192], [127.0095392, 37.5723324], [127.0096484, 37.572149], [127.0097412, 37.5719486], [127.0097331, 37.5716141], [127.0097474, 37.5715402]], [[127.0094372, 37.572858], [127.0093327, 37.5725426]]]}, "properties": {"name": "낙산성곽길", "description": "흥인지문에서 낙산으로 오르는 한양도성 성곽길로, 서울 도심 야경과 이화벽화마을로 이름난 걷기 좋은 코스다.", "description_en": "The Hanyang City Wall trail climbing from Heunginjimun up Naksan, a walkable route famed for the city night view and the Ihwa mural village.", "why": "종로와인바, 가볼만한곳 혜화, 낙산공원", "confidence": 1, "evidence": "text", "wikidata": null, "wikipedia": null, "headline": true, "part": "main", "ways": 7}}, {"type": "Feature", "geometry": {"type": "MultiLineString", "coordinates": [[[127.009183, 37.5758766], [127.0091919, 37.5760428], [127.0092326, 37.5761006], [127.0092554, 37.5761697], [127.0092481, 37.576242], [127.0092061, 37.5762977]], [[127.0092014, 37.5730564], [127.0093414, 37.5730287]], [[127.0092531, 37.5726165], [127.0092012, 37.5726647], [127.0091567, 37.5727514], [127.0091746, 37.5729065], [127.0092014, 37.5730564], [127.0091707, 37.5735181], [127.0091868, 37.573856], [127.0092079, 37.5739498], [127.0092529, 37.5742431], [127.0092517, 37.5743019], [127.0092473, 37.5745255], [127.0092391, 37.5747188], [127.0092044, 37.5748855], [127.0091219, 37.5751692], [127.0091293, 37.5752663], [127.0091222, 37.5754612], [127.0090932, 37.5756818], [127.0089758, 37.575879], [127.0089343, 37.5761223], [127.0092061, 37.5762977], [127.0093378, 37.5763828], [127.0093249, 37.576544], [127.0092405, 37.5767191], [127.0090474, 37.577562], [127.0088838, 37.5780073], [127.0087524, 37.5782985], [127.0086102, 37.5787598], [127.0085852, 37.5789587], [127.0088912, 37.5790527], [127.0092343, 37.5791963], [127.0093391, 37.5791896]]]}, "properties": {"name": "낙산성곽동길", "description": "한양도성 성벽 바깥을 따라 걷는 길로, 성벽의 웅장함과 창신동 절벽 풍경, 동대문 일대의 야경을 감상할 수 있다.", "description_en": "A path along the outer side of the Hanyang city wall, taking in the wall's grandeur, the Changsin-dong cliff scenery and the Dongdaemun night view.", "why": "온고회경로당, 온고회경로당 지봉, 창신동", "confidence": 1, "evidence": "text", "wikidata": null, "wikipedia": null, "headline": true, "part": "main", "ways": 4}}, {"type": "Feature", "geometry": {"type": "MultiLineString", "coordinates": [[[127.0074403, 37.5730157], [127.0075554, 37.5730907], [127.0076109, 37.573125], [127.007861, 37.5731219], [127.0078678, 37.5731217], [127.0080301, 37.5731198], [127.0082048, 37.5731106], [127.0082446, 37.5731071], [127.008271, 37.5731068], [127.0083179, 37.5731064], [127.0084431, 37.5731105], [127.0084797, 37.5732601], [127.0085242, 37.5733284], [127.0085803, 37.5734146], [127.0086054, 37.5734531], [127.0086211, 37.5734739], [127.0086375, 37.5734955], [127.0086535, 37.5735372], [127.0086277, 37.5737574], [127.0086323, 37.5738522], [127.0086287, 37.5739281], [127.0086171, 37.5739932], [127.0085934, 37.5740501], [127.0085919, 37.5740537], [127.0085254, 37.5741908], [127.008516, 37.5742324], [127.0085344, 37.5743142], [127.0085706, 37.5744523], [127.0085924, 37.5744935], [127.0086161, 37.5745669], [127.0086928, 37.5748042], [127.0086887, 37.5749809], [127.0086318, 37.5751478], [127.0086199, 37.5752025], [127.0085887, 37.5752691], [127.0085305, 37.5753745], [127.0084982, 37.5754392], [127.0083979, 37.5755581], [127.0083598, 37.5756123], [127.0083159, 37.5757068], [127.0083195, 37.5757998], [127.0083281, 37.5760183], [127.0083254, 37.5762824], [127.0084273, 37.5765215], [127.0084437, 37.5767287], [127.0084843, 37.5768809], [127.0085158, 37.5770072]], [[127.0077766, 37.577014], [127.0078607, 37.5770484], [127.0079587, 37.5770884], [127.0079771, 37.5770959], [127.0080678, 37.5771291], [127.0080943, 37.5771355], [127.0081173, 37.5771369], [127.0084202, 37.5770913], [127.0084589, 37.5770822], [127.0084801, 37.5770736], [127.0084917, 37.5770665], [127.0085022, 37.5770569], [127.0085082, 37.5770461], [127.0085122, 37.5770366], [127.0085161, 37.5770186], [127.0085158, 37.5770072]], [[127.0078666, 37.5734457], [127.0078678, 37.5731217]], [[127.0079493, 37.5750515], [127.0081261, 37.5750466], [127.0082623, 37.5751836], [127.0083518, 37.5752464], [127.0084249, 37.5752786], [127.0085887, 37.5752691]], [[127.0079963, 37.5767482], [127.0079769, 37.5768576], [127.0081273, 37.576859], [127.0081308, 37.5769025], [127.0084843, 37.5768809]], [[127.0081125, 37.5758059], [127.0083195, 37.5757998]], [[127.0081173, 37.5771369], [127.0081686, 37.5772381], [127.0082965, 37.5773437]], [[127.0084437, 37.5767287], [127.0082756, 37.5767526], [127.00815, 37.5767105], [127.0081175, 37.576641], [127.0080249, 37.5764172], [127.0081479, 37.5763164]], [[127.0082459, 37.5734574], [127.0082446, 37.5731071]], [[127.0085706, 37.5744523], [127.0084351, 37.574479]], [[127.0085967, 37.5805469], [127.0084796, 37.580197], [127.0083031, 37.5796528], [127.0081261, 37.5794703], [127.0079976, 37.5792678], [127.0079673, 37.5789356], [127.0079364, 37.5786224], [127.0079293, 37.5785505], [127.0081484, 37.5782758], [127.0082536, 37.5781799], [127.0083109, 37.5781063], [127.0083246, 37.5780648], [127.0083317, 37.5780349], [127.0083433, 37.5779744], [127.0083465, 37.5778701], [127.0083469, 37.5778654], [127.0083182, 37.5777279], [127.0083152, 37.5777128], [127.0082996, 37.5776338], [127.0083172, 37.5775083], [127.0084078, 37.5773128], [127.0084251, 37.5772836], [127.0085116, 37.577192], [127.008523, 37.5771767], [127.0085304, 37.577163], [127.0085348, 37.5771497], [127.0085364, 37.5771372], [127.0085368, 37.5771228], [127.0085363, 37.5771083], [127.0085158, 37.5770072]]]}, "properties": {"name": "낙산성곽서길", "description": "한양도성 성벽 안쪽을 따라 걷는 길로, 남산타워와 서울 도심이 한눈에 보이고 이화벽화마을과 세련된 카페가 이어진다.", "description_en": "A path along the inner side of the Hanyang city wall, with Namsan Tower and central Seoul in full view and the Ihwa mural village and stylish cafés along the way.", "why": "낙산공원길, 흥인지문공원, 낙산놀이마당", "confidence": 1, "evidence": "both", "wikidata": null, "wikipedia": null, "headline": true, "part": "main", "ways": 12}}, {"type": "Feature", "geometry": {"type": "MultiLineString", "coordinates": [[[126.9827576, 37.5686771], [126.9827069, 37.5686277], [126.9827046, 37.5686034], [126.9826964, 37.568011], [126.9826797, 37.5675031], [126.98265, 37.5669124], [126.982644, 37.5668049], [126.9826318, 37.5667275], [126.9826291, 37.5666308], [126.9826207, 37.5665062], [126.9825964, 37.5662216], [126.9825837, 37.5660534]], [[126.9827547, 37.5660524], [126.9827596, 37.5662241], [126.982752, 37.5666332], [126.9827563, 37.5667246], [126.9827615, 37.5667899], [126.9827736, 37.5668871], [126.9827906, 37.5675005], [126.982806, 37.5679808], [126.9827978, 37.5685272], [126.9828025, 37.5686048], [126.9828022, 37.5686218], [126.9827576, 37.5686771]], [[126.9827576, 37.5686771], [126.9827654, 37.5687357], [126.9827679, 37.5687625]], [[126.9827769, 37.5690066], [126.9827849, 37.5690741]]]}, "properties": {"name": "남대문로", "description": "숭례문에서 종로로 이어지는 도심의 옛 상업 간선로로, 1910년대 절충식 한옥상가와 근대 은행 건물이 남아 상업지구의 역사를 간직하고 있다.", "description_en": "An old commercial artery running from Sungnyemun to Jongno, where 1910s hybrid hanok shophouses and early-modern bank buildings preserve the district's mercantile history.", "why": "숭례문, 집회, 을지로입구역 사무실", "confidence": 1, "evidence": "both", "wikidata": null, "wikipedia": null, "headline": true, "part": "main", "ways": 4}}, {"type": "Feature", "geometry": {"type": "MultiLineString", "coordinates": [[[126.9792495, 37.5678811], [126.9798119, 37.5678831], [126.9806489, 37.5676971], [126.9813331, 37.5678901], [126.9820259, 37.5679833], [126.9820502, 37.5679877], [126.9821981, 37.5680142], [126.9826964, 37.568011]], [[126.9806489, 37.5676971], [126.9805828, 37.5673118]]]}, "properties": {"name": "다동길", "description": "종각과 을지로 사이에 자리한 다동 먹자골목으로, 골목 안쪽에 곰탕·짬뽕집 같은 노포와 직장인 점심 맛집이 숨어 있다.", "description_en": "A downtown food alley in Dadong between Jonggak and Euljiro, its lanes hiding old-established eateries and lunch spots favoured by office workers.", "why": "원흥, 짬뽕, 황소막창", "confidence": 0.75, "evidence": "both", "wikidata": null, "wikipedia": null, "headline": false, "part": "main", "ways": 2}}, {"type": "Feature", "geometry": {"type": "LineString", "coordinates": [[127.0007914, 37.5835191], [127.000805, 37.5834562], [127.0008394, 37.5833527], [127.0008635, 37.5832801], [127.0008733, 37.5832345], [127.0008758, 37.5831594], [127.0008811, 37.5830515], [127.0007311, 37.5830438], [127.0007333, 37.5829705], [127.000727, 37.5829055], [127.0007313, 37.5828184], [127.0007309, 37.5827514], [127.0007479, 37.5826394], [127.0007496, 37.5825281], [127.0007825, 37.5823403], [127.0007953, 37.5822878]]}, "properties": {"name": "대명", "description": "광장시장 주단부에 자리한 길로, 혼주·전통 한복을 짓고 빌려주는 오래된 한복 상점들이 모여 시장의 정취가 짙다.", "description_en": "A lane in Gwangjang Market's silk quarter, lined with long-standing shops that make and rent traditional and wedding hanbok, thick with old-market atmosphere.", "why": "대명주단, 광장시장 대명주단, 광장시장한복집", "confidence": 0.75, "evidence": "both", "wikidata": null, "wikipedia": null, "headline": false, "part": "main", "ways": 1}}, {"type": "Feature", "geometry": {"type": "LineString", "coordinates": [[127.000727, 37.5829055], [127.0005406, 37.5829321], [127.0002879, 37.5829437], [127.0002072, 37.5829402], [127.000075, 37.5829382], [126.9999666, 37.58289], [126.9999403, 37.5828784], [126.999868, 37.5828485], [126.999744, 37.5827972], [126.999726, 37.5827892], [126.9996029, 37.5827229]]}, "properties": {"name": "대명", "description": "광장시장 주단부에 자리한 길로, 혼주·전통 한복을 짓고 빌려주는 오래된 한복 상점들이 모여 시장의 정취가 짙다.", "description_en": "A lane in Gwangjang Market's silk quarter, lined with long-standing shops that make and rent traditional and wedding hanbok, thick with old-market atmosphere.", "why": "대명주단, 광장시장 대명주단, 광장시장한복집", "confidence": 0.75, "evidence": "both", "wikidata": null, "wikipedia": null, "headline": false, "part": "branch", "ways": 1}}, {"type": "Feature", "geometry": {"type": "MultiLineString", "coordinates": [[[126.9984427, 37.5826457], [126.9987541, 37.58279], [126.9988878, 37.5828257], [126.998949, 37.582839], [126.9990223, 37.582844], [126.9994173, 37.5829679], [126.999576, 37.5830449], [126.9997588, 37.5831335], [126.9998973, 37.5832019], [126.9999887, 37.5832293], [127.0002046, 37.583294], [127.0004546, 37.5833806], [127.0005997, 37.5834374], [127.0006055, 37.5834396], [127.0007914, 37.5835191], [127.000985, 37.5836019], [127.0011682, 37.5836803], [127.001321, 37.5837214], [127.0016014, 37.5837502]], [[126.999787, 37.5824234], [126.9997256, 37.5825331], [126.9996575, 37.5826461], [126.9996029, 37.5827229], [126.9995016, 37.5828495], [126.9994478, 37.5829246], [126.9994173, 37.5829679]], [[127.0004546, 37.5833806], [127.0004852, 37.5833362], [127.0005391, 37.5832366], [127.000624, 37.5830869], [127.0006561, 37.5830795], [127.0007276, 37.5830755], [127.0007311, 37.5830438]]]}, "properties": {"name": "대명길", "description": "광장시장 안 한복 상가 골목으로, 수십 년 경력의 전통 한복 맞춤·대여점이 이어져 재래시장 특유의 활기가 남아 있다.", "description_en": "A hanbok-shop lane inside Gwangjang Market, lined with decades-old traditional hanbok tailors and rental shops that keep the bustle of an old market.", "why": "광장시장한복집, 종로혼주한복, 맞춤대여", "confidence": 0.75, "evidence": "both", "wikidata": null, "wikipedia": null, "headline": false, "part": "main", "ways": 5}}, {"type": "Feature", "geometry": {"type": "MultiLineString", "coordinates": [[[127.0007496, 37.5825281], [127.0007911, 37.5825443], [127.0010862, 37.5825473], [127.0012864, 37.5825389], [127.0015458, 37.5825295], [127.0016391, 37.5825295], [127.0019201, 37.5824838]], [[127.0008733, 37.5832345], [127.0012221, 37.5832472], [127.0012722, 37.5832593], [127.0012768, 37.5832963], [127.0014748, 37.5833288], [127.001721, 37.5832942]], [[127.0011723, 37.5745453], [127.001654, 37.5743067], [127.0017142, 37.5743082], [127.0018064, 37.5743216], [127.0019513, 37.5743216], [127.0020808, 37.574314]], [[127.0012312, 37.5852806], [127.001303, 37.5851947], [127.0013935, 37.5851572]], [[127.0013935, 37.5851572], [127.001427, 37.5852358], [127.0014365, 37.5853544]], [[127.0020808, 37.574314], [127.002101, 37.5747789], [127.0021168, 37.5751435], [127.0021526, 37.5761203], [127.0021652, 37.5763253], [127.0021925, 37.5767555], [127.0021944, 37.5775111], [127.0022068, 37.5782864], [127.0021935, 37.5785971], [127.0021804, 37.5789028], [127.0021506, 37.5795998], [127.0021478, 37.5796656], [127.0021446, 37.5797252], [127.0021277, 37.5800225], [127.0020902, 37.5807368], [127.0020746, 37.5809498], [127.00201, 37.5815754], [127.0019838, 37.5817549], [127.0019693, 37.5820802], [127.0019366, 37.582341], [127.0019201, 37.5824838], [127.0018896, 37.582614], [127.001775, 37.5831035], [127.001721, 37.5832942], [127.0016014, 37.5837502], [127.0015782, 37.5838345], [127.0014115, 37.5850279], [127.001398, 37.5851349], [127.0013935, 37.5851572]], [[127.0019428, 37.5709191], [127.0019431, 37.5709639], [127.0019432, 37.5709762], [127.0019438, 37.5709893], [127.0019477, 37.5710257], [127.0019537, 37.5710814], [127.0019592, 37.5714422], [127.0020208, 37.5729161], [127.0020377, 37.5733186], [127.0020522, 37.5736536], [127.002064, 37.5738865]], [[127.002064, 37.5738865], [127.0024295, 37.5739273], [127.0024691, 37.5743293], [127.0024519, 37.5743938]], [[127.002064, 37.5738865], [127.0020808, 37.574314]], [[127.0020808, 37.574314], [127.0022148, 37.5743174], [127.0024519, 37.5743938]], [[127.0024519, 37.5743938], [127.0023582, 37.5746761], [127.002101, 37.5747789]], [[127.0024519, 37.5743938], [127.0026551, 37.5744593], [127.0031131, 37.5745271], [127.0032728, 37.5745458]]]}, "properties": {"name": "대학로", "description": "소극장과 공연장이 밀집한 서울의 대표 공연문화 거리로, 마로니에공원을 중심으로 연극·뮤지컬을 즐기려는 젊은 활기가 넘친다.", "description_en": "Seoul's foremost performing-arts street, dense with small and large theatres and centred on Marronnier Park, buzzing with a young crowd out for plays and musicals.", "why": "연지물놀이터, 스탠다드 더블, 스탠다드", "confidence": 0.75, "evidence": "both", "wikidata": null, "wikipedia": null, "headline": false, "part": "main", "ways": 31}}, {"type": "Feature", "geometry": {"type": "MultiLineString", "coordinates": [[[127.0004448, 37.5816522], [127.0003514, 37.5816188], [127.0003137, 37.5816021], [127.0002279, 37.581583], [126.9998658, 37.581499], [126.9994688, 37.5814023], [126.999442, 37.5813949], [126.9994863, 37.5812928], [126.9995265, 37.581296], [126.9996365, 37.5813173], [126.9996754, 37.5813162], [126.999729, 37.5812482]], [[127.0025807, 37.5811213], [127.002472, 37.581765], [127.0022917, 37.5826335], [127.0022413, 37.583011], [127.0024834, 37.5831178], [127.0028387, 37.5831682], [127.0031668, 37.5831471], [127.0032746, 37.5831227], [127.0033487, 37.5830765], [127.0033889, 37.5829239], [127.0033896, 37.5826266], [127.0033969, 37.582401], [127.0034104, 37.5817586], [127.003397, 37.58093], [127.0033962, 37.5808728], [127.0033854, 37.5801304], [127.0033794, 37.5797414]]]}, "properties": {"name": "대학로", "description": "소극장과 공연장이 밀집한 서울의 대표 공연문화 거리로, 마로니에공원을 중심으로 연극·뮤지컬을 즐기려는 젊은 활기가 넘친다.", "description_en": "Seoul's foremost performing-arts street, dense with small and large theatres and centred on Marronnier Park, buzzing with a young crowd out for plays and musicals.", "why": "연지물놀이터, 스탠다드 더블, 스탠다드", "confidence": 0.75, "evidence": "both", "wikidata": null, "wikipedia": null, "headline": false, "part": "branch", "ways": 3}}, {"type": "Feature", "geometry": {"type": "MultiLineString", "coordinates": [[[126.9901197, 37.5773626], [126.9901622, 37.5772446], [126.990205, 37.5771257], [126.9902149, 37.5770743], [126.990224, 37.5770431], [126.990333, 37.5766721], [126.9903362, 37.5766612], [126.9904098, 37.5764177], [126.9904777, 37.5761937], [126.9905927, 37.5757648], [126.9906216, 37.5756569], [126.9906413, 37.5755908], [126.99071, 37.57536], [126.9909656, 37.5744966], [126.9909782, 37.5744485], [126.9910658, 37.5741567], [126.9911551, 37.5738596], [126.99117, 37.57381], [126.9912491, 37.5735646], [126.991489, 37.57282], [126.9915241, 37.5727019], [126.9915676, 37.5725692], [126.9917455, 37.5720092], [126.9919479, 37.5713713], [126.992113, 37.5708077], [126.9921216, 37.5707303], [126.9921569, 37.5705172], [126.9921623, 37.5704713], [126.9921665, 37.5704357], [126.9921668, 37.5704181], [126.9921671, 37.5704048], [126.9921827, 37.5703619], [126.9921882, 37.5703256], [126.9921938, 37.5702889], [126.9922156, 37.5699961], [126.9922225, 37.5698519], [126.9922355, 37.5695822], [126.9922502, 37.5692801], [126.992265, 37.5691087], [126.9923753, 37.5685537]], [[126.9906216, 37.5756569], [126.9909009, 37.5756979], [126.9910556, 37.5757137]], [[126.9910658, 37.5741567], [126.9913423, 37.5741861], [126.9915667, 37.574215]], [[126.991331, 37.5692486], [126.9922502, 37.5692801]], [[126.9913709, 37.5689333], [126.991603, 37.5688998], [126.9917591, 37.5689526], [126.9919774, 37.5690592], [126.992265, 37.5691087]]]}, "properties": {"name": "돈화문로", "description": "창덕궁 돈화문으로 이어지는 옛 '왕의 길'로, '국악로'라 불릴 만큼 국악기 상점과 전통 한복점이 늘어서고 돈화문국악당의 한옥과 국악마당이 고즈넉한 정취를 자아낸다.", "description_en": "The old 'royal road' to Changdeokgung's Donhwamun gate; known as 'Gugak-ro', it is lined with Korean-instrument shops and hanbok stores, the Donhwamun Gugakdang hanok and music yard lending a serene mood.", "why": "한쥬얼리, 티퍼런스서울, 맛집 참돼짓간", "confidence": 1, "evidence": "both", "wikidata": null, "wikipedia": null, "headline": true, "part": "main", "ways": 8}}, {"type": "Feature", "geometry": {"type": "MultiLineString", "coordinates": [[[126.9915676, 37.5725692], [126.9912389, 37.5725595], [126.991067, 37.5725576], [126.9909804, 37.5725565], [126.9906954, 37.5725603], [126.9903851, 37.5725629], [126.9899785, 37.5725663], [126.9898995, 37.5725648], [126.9895103, 37.5725572], [126.9887084, 37.5725442], [126.9885227, 37.5725457], [126.9884272, 37.5725514], [126.9878884, 37.5725723], [126.9878099, 37.5725786]], [[126.9891901, 37.5736917], [126.9894302, 37.5737162], [126.989519, 37.5737252], [126.9897856, 37.5737219], [126.9901687, 37.5737322], [126.9903278, 37.573734], [126.9903456, 37.5736025], [126.9904522, 37.5734428], [126.9905858, 37.5732129], [126.9906624, 37.5730581], [126.990707, 37.5728886]], [[126.9910227, 37.5729706], [126.9907579, 37.5733099], [126.9905822, 37.5735683], [126.99031, 37.5739688], [126.9902252, 37.5740736], [126.9902082, 37.5741056], [126.9900832, 37.5742987], [126.9898881, 37.574523], [126.9897992, 37.5746404], [126.9897183, 37.5748565], [126.9897022, 37.5748992], [126.9897436, 37.5751479], [126.9896111, 37.5751658], [126.9894327, 37.5752903], [126.9892978, 37.5753965], [126.9892565, 37.5755238]], [[126.9893293, 37.5771444], [126.9895674, 37.5770896], [126.9897692, 37.5770248], [126.989904, 37.5770195], [126.9901114, 37.5770623], [126.9901682, 37.5770949]], [[126.9893792, 37.5739469], [126.9895219, 37.5739601], [126.9895769, 37.5739667], [126.9896024, 37.5739743], [126.9897897, 37.5739846], [126.9899535, 37.5740037], [126.9899803, 37.5740079], [126.9902252, 37.5740736], [126.9903569, 37.5741522]], [[126.9895365, 37.572847], [126.9895026, 37.5727876], [126.9895103, 37.5725572]], [[126.9901778, 37.5760525], [126.9899017, 37.5759933], [126.9896401, 37.5759353]], [[126.989904, 37.5770195], [126.990116, 37.5762871], [126.9901778, 37.5760525], [126.9903175, 37.5756019], [126.9905414, 37.5748597], [126.9906184, 37.5746733], [126.9907009, 37.5743876], [126.9907305, 37.5742213], [126.9907733, 37.5740998], [126.9908779, 37.5738031], [126.9909245, 37.573671], [126.9909373, 37.5736346], [126.9909963, 37.5734348], [126.991106, 37.5730164], [126.9911345, 37.5729047], [126.9912197, 37.5726408], [126.9912389, 37.5725595], [126.9913248, 37.572378], [126.9914177, 37.5719506], [126.99166, 37.5712198], [126.991644, 37.5711234], [126.9916541, 37.5709736], [126.9917646, 37.5707877]], [[126.990116, 37.5762871], [126.9899221, 37.5762454]], [[126.9899785, 37.5725663], [126.9901438, 37.5726455], [126.9902622, 37.5727023], [126.9902982, 37.5727195], [126.990707, 37.5728886], [126.9910227, 37.5729706]], [[126.9901554, 37.5729635], [126.990278, 37.5729818]], [[126.9911345, 37.5729047], [126.9910227, 37.5729706]], [[126.9919479, 37.5713713], [126.992251, 37.5714403], [126.9920525, 37.5720403], [126.992082, 37.5720498], [126.992053, 37.5721407], [126.9920345, 37.5721561], [126.9918851, 37.572581]], [[126.992053, 37.5721407], [126.9922639, 37.5721989], [126.9924143, 37.5722398]], [[126.992113, 37.5708077], [126.9922151, 37.5708425], [126.9928374, 37.570856], [126.9929178, 37.5708496], [126.9936006, 37.5708786], [126.9937629, 37.570887]], [[126.9921426, 37.5725987], [126.9922639, 37.5721989], [126.9923296, 37.5720142], [126.9924918, 37.5717262], [126.9926124, 37.5714448], [126.9929178, 37.5708496]], [[126.9922156, 37.5699961], [126.9927048, 37.5700493], [126.9929987, 37.5700624], [126.9933241, 37.5700662], [126.9936802, 37.5700737], [126.9939233, 37.5700789], [126.9941828, 37.5701135], [126.9943972, 37.5700992], [126.994492, 37.5700839], [126.9948868, 37.5700761]], [[126.9924918, 37.5717262], [126.9928097, 37.5718845]]]}, "properties": {"name": "돈화문로", "description": "창덕궁 돈화문으로 이어지는 옛 '왕의 길'로, '국악로'라 불릴 만큼 국악기 상점과 전통 한복점이 늘어서고 돈화문국악당의 한옥과 국악마당이 고즈넉한 정취를 자아낸다.", "description_en": "The old 'royal road' to Changdeokgung's Donhwamun gate; known as 'Gugak-ro', it is lined with Korean-instrument shops and hanbok stores, the Donhwamun Gugakdang hanok and music yard lending a serene mood.", "why": "한쥬얼리, 티퍼런스서울, 맛집 참돼짓간", "confidence": 1, "evidence": "both", "wikidata": null, "wikipedia": null, "headline": true, "part": "branch", "ways": 25}}, {"type": "Feature", "geometry": {"type": "MultiLineString", "coordinates": [[[126.9962813, 37.5744594], [126.9967461, 37.5745384], [126.9966943, 37.5747505]], [[126.9963767, 37.5740861], [126.9973695, 37.5742834], [126.997452, 37.574304], [126.9974954, 37.5743097]], [[126.9964319, 37.5707088], [126.9964199, 37.5708244], [126.9964069, 37.5709824], [126.9963212, 37.5720271], [126.9964377, 37.5721937], [126.9964531, 37.5722156], [126.9964641, 37.5722314], [126.9965519, 37.5723687], [126.9967195, 37.5726475], [126.9967376, 37.5726944], [126.996765, 37.5728445], [126.9967558, 37.5729145], [126.9967149, 37.5730539], [126.9966047, 37.573362], [126.9965601, 37.5734014], [126.9963767, 37.5740861], [126.9962813, 37.5744594], [126.99623, 37.5746654], [126.9962007, 37.5747811], [126.9960324, 37.5750211], [126.9958645, 37.57532], [126.9958296, 37.5754862], [126.9958183, 37.575662], [126.9958189, 37.5758838], [126.9964487, 37.5760181]]]}, "properties": {"name": "동순라길", "description": "창경궁과 종묘의 돌담을 따라 이어지는 고즈넉한 길로, 돌담 뷰 카페와 브런치 가게, 반지·주얼리 공방이 자리한다.", "description_en": "A serene lane along the stone walls of Changgyeonggung and Jongmyo, with wall-view cafés, brunch spots and ring- and jewellery-making studios.", "why": "일트, 일트 커피, 카페 일트", "confidence": 1, "evidence": "text", "wikidata": null, "wikipedia": null, "headline": true, "part": "main", "ways": 5}}, {"type": "Feature", "geometry": {"type": "MultiLineString", "coordinates": [[[127.0021506, 37.5795998], [127.0023631, 37.5796053], [127.0025312, 37.5796278], [127.0032816, 37.5797283], [127.0033794, 37.5797414], [127.0038525, 37.5798216], [127.0044519, 37.579953], [127.0044382, 37.5801634], [127.0044295, 37.580483], [127.0043611, 37.580549], [127.004312, 37.5807433], [127.0042681, 37.5809173], [127.0042272, 37.5811901], [127.0041529, 37.5814585], [127.0041121, 37.5818289], [127.0042121, 37.5826639], [127.0040228, 37.5826906], [127.0039518, 37.5827088], [127.0038962, 37.5827691], [127.0038547, 37.5828489], [127.003749, 37.5830522], [127.0037059, 37.5831385], [127.003546, 37.583349], [127.0035229, 37.5833708], [127.0034881, 37.5833922], [127.00336, 37.583462], [127.0031643, 37.5835177], [127.0027417, 37.5835702], [127.0025969, 37.5835872], [127.0024995, 37.5835205], [127.0021623, 37.5832896], [127.001775, 37.5831035]], [[127.003546, 37.583349], [127.0036331, 37.5833959], [127.0041158, 37.5836124]]]}, "properties": {"name": "동숭길", "description": "대학로와 이어지는 동숭길로, 소극장과 감성 카페가 자리해 공연을 즐기려는 발걸음이 이어진다.", "description_en": "Dongsung-gil, connected to Daehangno, lined with small theatres and characterful cafés that draw a crowd out for performances.", "why": "전화 문의, 알엠씨, 제작", "confidence": 1, "evidence": "both", "wikidata": null, "wikipedia": null, "headline": true, "part": "main", "ways": 3}}, {"type": "Feature", "geometry": {"type": "MultiLineString", "coordinates": [[[127.0008993, 37.5703379], [127.0011644, 37.5703479], [127.0014302, 37.5703589], [127.0017479, 37.5703729], [127.001839, 37.570375], [127.0019568, 37.5703796]], [[127.0015442, 37.5683776], [127.0020989, 37.5687789]], [[127.0019568, 37.5703796], [127.0019332, 37.5706506], [127.0019316, 37.570665], [127.0019428, 37.5709191]], [[127.0020223, 37.5697327], [127.0020214, 37.5697636], [127.0019568, 37.5703796]], [[127.0020989, 37.5687789], [127.0020873, 37.5689111], [127.0020423, 37.5694343], [127.0020397, 37.5694731]], [[127.002393, 37.5646125], [127.0023481, 37.5655229], [127.0023212, 37.5660664], [127.0023119, 37.5662534], [127.002299, 37.5664969], [127.0022968, 37.566538], [127.0022839, 37.5667799], [127.0022748, 37.5669045], [127.0022667, 37.5669802], [127.0022478, 37.5671993], [127.0022393, 37.5672808], [127.0022334, 37.5673369], [127.0021924, 37.5677277], [127.0021707, 37.5679345], [127.002153, 37.5681029], [127.002124, 37.5683792], [127.0020989, 37.5687789]]]}, "properties": {"name": "동호로", "description": "청계천과 광장시장을 낀 종로5가의 길로, '약국 성지'로 불리는 약국 거리와 청계천 뷰 카페가 어우러진다.", "description_en": "A Jongno 5-ga street between the Cheonggyecheon and Gwangjang Market, mixing its noted 'pharmacy mecca' with stream-view cafés.", "why": "폴딩도어, cocoda, 유성약국", "confidence": 1, "evidence": "both", "wikidata": null, "wikipedia": null, "headline": true, "part": "main", "ways": 19}}, {"type": "Feature", "geometry": {"type": "MultiLineString", "coordinates": [[[126.9861959, 37.5768371], [126.986145, 37.5769], [126.9860838, 37.5770296], [126.9858367, 37.577516], [126.9856637, 37.5778827], [126.9855507, 37.5781329], [126.985506, 37.5782186], [126.9854185, 37.5784468], [126.9852767, 37.5787952], [126.9851722, 37.5790633], [126.9850901, 37.5792002], [126.9849995, 37.5792618], [126.9850162, 37.5793822], [126.9850196, 37.5796162], [126.9850363, 37.5800671], [126.9850378, 37.580164], [126.9850565, 37.580607], [126.9850602, 37.5809683], [126.9850709, 37.5812601], [126.9850747, 37.581459], [126.9850864, 37.5817996], [126.9851239, 37.5825466], [126.9851304, 37.5828059], [126.9851418, 37.5833384], [126.9851528, 37.5836832], [126.9851629, 37.584048], [126.9851644, 37.5842361], [126.9851679, 37.5843178], [126.9851882, 37.5850189], [126.985222, 37.5851534], [126.9855358, 37.5858512], [126.9855585, 37.5860006], [126.9855436, 37.5861189], [126.9854831, 37.5862031], [126.9853029, 37.5864119], [126.985119, 37.5864905], [126.9846319, 37.5867192], [126.9842792, 37.5868345], [126.9837794, 37.5867338], [126.9836945, 37.5867607], [126.9836407, 37.5868123]], [[126.9850196, 37.5796162], [126.9845685, 37.5795943], [126.9841696, 37.579603], [126.9839815, 37.579598], [126.9837057, 37.5794262]], [[126.9851239, 37.5825466], [126.9846824, 37.5825732]], [[126.9851304, 37.5828059], [126.9847139, 37.5828534]], [[126.9850565, 37.580607], [126.985425, 37.5806075], [126.9857413, 37.5805558], [126.9857321, 37.5802681]], [[126.9850709, 37.5812601], [126.9855285, 37.5812634], [126.9855414, 37.5809947]], [[126.9851879, 37.5825412], [126.985358, 37.5825365], [126.9854068, 37.5825373], [126.9854469, 37.5825387], [126.9855516, 37.5825369]], [[126.9854316, 37.5827451], [126.9854469, 37.5825387]], [[126.9855507, 37.5781329], [126.9860165, 37.578131]]]}, "properties": {"name": "북촌로", "description": "북촌한옥마을을 지나는 길로, 갤러리와 떡볶이·만두 노포, 개성 있는 카페가 한옥 사이에 어우러진다.", "description_en": "The road through Bukchon Hanok Village, where galleries, old tteokbokki and dumpling eateries and characterful cafés sit among the hanok.", "why": "논픽션, 정수진, 풍년쌀농산", "confidence": 0.75, "evidence": "both", "wikidata": null, "wikipedia": null, "headline": false, "part": "main", "ways": 11}}, {"type": "Feature", "geometry": {"type": "MultiLineString", "coordinates": [[[126.9849995, 37.5792618], [126.9848197, 37.5792958], [126.984652, 37.5793185], [126.9840251, 37.5794032], [126.9837719, 37.5794156], [126.9837057, 37.5794262], [126.9832843, 37.5794679], [126.9824156, 37.5795216], [126.9822523, 37.5795864], [126.9819805, 37.5796618], [126.9818847, 37.5796962], [126.9816955, 37.579756], [126.9815448, 37.5797966], [126.9811345, 37.5798792], [126.9808062, 37.5799376], [126.9799897, 37.5800657], [126.9799272, 37.5800832], [126.9798764, 37.5800936]], [[126.9811153, 37.5814955], [126.9811555, 37.5814673], [126.9812812, 37.5813827], [126.981399, 37.5813155], [126.9815044, 37.581227], [126.981546, 37.5811338], [126.9815931, 37.581022], [126.9818844, 37.5805389], [126.9820474, 37.5802856], [126.9820829, 37.5802238], [126.9821834, 37.5800839], [126.9822899, 37.5799714], [126.9823699, 37.5799271], [126.9822523, 37.5795864], [126.9823876, 37.579633], [126.9828972, 37.5796427]], [[126.9813513, 37.5809541], [126.9815931, 37.581022], [126.9816819, 37.5810215], [126.9818375, 37.5810441], [126.9819649, 37.5810626], [126.9819835, 37.5810603], [126.982172, 37.5810751], [126.9822132, 37.5811469], [126.9822371, 37.5814253], [126.9821675, 37.581665], [126.9821561, 37.5817485], [126.9821583, 37.5818698], [126.9821621, 37.5820795], [126.9822074, 37.5825672], [126.982215, 37.5827782], [126.9822373, 37.5830328], [126.9822631, 37.5835232], [126.9822799, 37.5837292], [126.9822967, 37.5837864], [126.9823509, 37.5838651], [126.9824317, 37.5839395], [126.9824792, 37.5839718], [126.9825698, 37.5839907], [126.9825796, 37.5840441], [126.9826857, 37.5842401], [126.9829207, 37.5845722], [126.9829905, 37.5846847], [126.9830165, 37.5850226], [126.9830294, 37.585327], [126.983419, 37.5854279], [126.9835559, 37.5854074]], [[126.9814073, 37.5819064], [126.9814102, 37.5819076], [126.9814368, 37.5818968], [126.9816271, 37.5818219], [126.9816646, 37.5817635], [126.9815822, 37.5815939], [126.9815777, 37.5815849], [126.9814868, 37.5814342], [126.981399, 37.5813155]], [[126.9820474, 37.5802856], [126.981898, 37.5802415], [126.9818114, 37.5802432], [126.9818088, 37.5802012], [126.9817285, 37.5801756]], [[126.9818375, 37.5810441], [126.9817927, 37.5812725], [126.9817759, 37.5814657], [126.9818474, 37.581639], [126.9819315, 37.5817755], [126.982082, 37.5819651]], [[126.9818847, 37.5796962], [126.9820285, 37.579858], [126.9821042, 37.5799712], [126.9821834, 37.5800839], [126.9823053, 37.5801511], [126.9823693, 37.580232], [126.982429, 37.5803516], [126.9824665, 37.5805528], [126.9821949, 37.58058], [126.9821605, 37.5808165], [126.9822102, 37.5809347], [126.982172, 37.5810751]], [[126.9819835, 37.5810603], [126.9819631, 37.5811801], [126.9819468, 37.581344]], [[126.9822074, 37.5825672], [126.982547, 37.5825556], [126.9828108, 37.582545]], [[126.9822373, 37.5830328], [126.9825573, 37.5830197], [126.982826, 37.583007]], [[126.9823699, 37.5799271], [126.9825394, 37.5803242], [126.982429, 37.5803516], [126.9822409, 37.5803502]], [[126.98258, 37.5835097], [126.9822631, 37.5835232]], [[126.9826857, 37.5842401], [126.982609, 37.5842546], [126.9824347, 37.5842929], [126.9822764, 37.5843184]], [[126.9836765, 37.58394], [126.9832198, 37.5839575], [126.9829222, 37.5839683], [126.9826079, 37.5839889], [126.9825698, 37.5839907]], [[126.9832195, 37.5834698], [126.9832198, 37.5839575], [126.9832572, 37.5840153], [126.9833076, 37.5843491], [126.9833301, 37.5843844], [126.98346, 37.5844274], [126.983572, 37.5844179], [126.98368, 37.5844098], [126.9837758, 37.5843758], [126.983847, 37.5843255], [126.984098, 37.5840455], [126.9844394, 37.5842217], [126.9845246, 37.584176], [126.9846278, 37.5841439], [126.9851629, 37.584048]], [[126.9850747, 37.581459], [126.9847494, 37.5814651], [126.9846784, 37.5814818], [126.9846343, 37.5815216], [126.9845149, 37.5817312], [126.9844388, 37.58181], [126.9843284, 37.581863], [126.9837976, 37.5820356], [126.9836216, 37.5822091], [126.983551, 37.5823256], [126.9835857, 37.5823494], [126.9837317, 37.5824495], [126.983702, 37.5825081], [126.9835192, 37.5829869], [126.9833794, 37.5833189], [126.9833594, 37.5833812]], [[126.9850378, 37.580164], [126.9847249, 37.5802092], [126.9843727, 37.5802946], [126.9840616, 37.5804181], [126.9838377, 37.580508], [126.983766, 37.5805581], [126.9837525, 37.5805821], [126.9837423, 37.5806232], [126.9837414, 37.580659], [126.9837683, 37.580782], [126.9838121, 37.5809356]], [[126.984098, 37.5840455], [126.9841836, 37.583926], [126.9841835, 37.5837955], [126.9841516, 37.5836781], [126.9842978, 37.5834776]], [[126.9841696, 37.579603], [126.9841937, 37.5796439], [126.9842432, 37.5799234], [126.9843727, 37.5802946]], [[126.9845685, 37.5795943], [126.9845097, 37.5796493], [126.984557, 37.5800564], [126.9846868, 37.5800541], [126.9847249, 37.5802092]]]}, "properties": {"name": "북촌로", "description": "북촌한옥마을을 지나는 길로, 갤러리와 떡볶이·만두 노포, 개성 있는 카페가 한옥 사이에 어우러진다.", "description_en": "The road through Bukchon Hanok Village, where galleries, old tteokbokki and dumpling eateries and characterful cafés sit among the hanok.", "why": "논픽션, 정수진, 풍년쌀농산", "confidence": 0.75, "evidence": "both", "wikidata": null, "wikipedia": null, "headline": false, "part": "branch", "ways": 26}}, {"type": "Feature", "geometry": {"type": "LineString", "coordinates": [[126.9844472, 37.5691915], [126.984724, 37.5691897], [126.9851137, 37.569191], [126.9851918, 37.5691889], [126.9857549, 37.5691737], [126.9869027, 37.5691743], [126.9876178, 37.5691646]]}, "properties": {"name": "삼일대로", "description": "종각과 청계천 사이 골목으로, 7080 라이브바와 레트로 감성 다방, 해산물 주점이 어우러져 퇴근길 직장인들이 즐겨 찾는다.", "description_en": "An alley between Jonggak and the Cheonggyecheon, mixing a retro '70s-'80s live-music bar, an old-style tearoom and seafood pubs favoured by office workers after work.", "why": "어망집, 학사다방, 해산물", "confidence": 0.75, "evidence": "both", "wikidata": null, "wikipedia": null, "headline": false, "part": "main", "ways": 1}}, {"type": "Feature", "geometry": {"type": "MultiLineString", "coordinates": [[[126.9857361, 37.5688524], [126.9868951, 37.5688374], [126.9875918, 37.5688157]], [[126.9876406, 37.5666628], [126.9884035, 37.5667147], [126.9886846, 37.566725], [126.9896637, 37.5667609]], [[126.9879858, 37.5734061], [126.9887818, 37.5735793], [126.9890389, 37.5736404], [126.9891901, 37.5736917], [126.989053, 37.5741513]]]}, "properties": {"name": "삼일대로", "description": "종각과 청계천 사이 골목으로, 7080 라이브바와 레트로 감성 다방, 해산물 주점이 어우러져 퇴근길 직장인들이 즐겨 찾는다.", "description_en": "An alley between Jonggak and the Cheonggyecheon, mixing a retro '70s-'80s live-music bar, an old-style tearoom and seafood pubs favoured by office workers after work.", "why": "어망집, 학사다방, 해산물", "confidence": 0.75, "evidence": "both", "wikidata": null, "wikipedia": null, "headline": false, "part": "branch", "ways": 4}}, {"type": "Feature", "geometry": {"type": "MultiLineString", "coordinates": [[[126.9801316, 37.5809937], [126.9800444, 37.5807232], [126.979979, 37.5804808], [126.9799253, 37.5802514], [126.9798764, 37.5800936], [126.9798576, 37.580033], [126.9798339, 37.5799631], [126.9797021, 37.5795746], [126.9796879, 37.5795328], [126.9795888, 37.5792383], [126.9795463, 37.5789859], [126.979511, 37.5786381], [126.9794779, 37.5781536], [126.979472, 37.5780014], [126.979472, 37.5777826], [126.979472, 37.5774881], [126.979472, 37.5771852], [126.9794685, 37.5769299], [126.9794829, 37.5764019], [126.9792501, 37.5761501]], [[126.97954, 37.5759024], [126.9795539, 37.5759737], [126.979561, 37.5760104], [126.9795728, 37.5760682], [126.9795775, 37.5761366]], [[126.9795427, 37.5778364], [126.9796031, 37.5778198], [126.9796779, 37.5778097], [126.9804216, 37.5777095], [126.9806577, 37.5776777]], [[126.9795775, 37.5761366], [126.9795808, 37.5764003], [126.9795463, 37.5770617], [126.9795463, 37.5774769], [126.9795427, 37.5778364], [126.9795613, 37.5781478], [126.97957, 37.5782758], [126.9795783, 37.5784128], [126.9796111, 37.5789219], [126.9796323, 37.5792004], [126.979746, 37.5795655], [126.9798871, 37.5799528], [126.9799272, 37.5800832], [126.9799878, 37.5802505], [126.9802278, 37.5808894], [126.9802423, 37.5809256], [126.9802626, 37.5810095], [126.9803957, 37.581079], [126.9806016, 37.5811669], [126.980901, 37.5813232], [126.9810216, 37.5814153], [126.9811153, 37.5814955], [126.9812469, 37.5816325], [126.9814073, 37.5819064], [126.9814694, 37.5819785], [126.9815947, 37.5821314], [126.9816387, 37.58218], [126.9817327, 37.5822858], [126.9817917, 37.582363], [126.9818299, 37.5824533], [126.9818403, 37.582659], [126.9818388, 37.5826845], [126.9818244, 37.5829314], [126.9818142, 37.5831259], [126.981894, 37.5833977], [126.9818825, 37.5834788], [126.9818758, 37.5836238], [126.9819089, 37.583815], [126.9820609, 37.5843601], [126.9820937, 37.5844451], [126.9821284, 37.5845475], [126.9821317, 37.5846045], [126.9821292, 37.5847023], [126.9821256, 37.5848361], [126.9820218, 37.5850625], [126.9820188, 37.5851596], [126.9820127, 37.5851886], [126.9820106, 37.5852425], [126.9820024, 37.5853109], [126.9819917, 37.5853962], [126.9819687, 37.5855098], [126.9818616, 37.5856864], [126.9818111, 37.5857697], [126.9817581, 37.5858939], [126.9817085, 37.5860204], [126.9816909, 37.5862259], [126.9816866, 37.5863541], [126.9816885, 37.5863874], [126.9816973, 37.5866737], [126.9817062, 37.5869645]], [[126.9799148, 37.5759551], [126.9797842, 37.5760575], [126.9796963, 37.5760871], [126.9795775, 37.5761366]], [[126.9799878, 37.5802505], [126.9800554, 37.5802413], [126.9803532, 37.5801946], [126.9803805, 37.5802897], [126.980514, 37.5802643], [126.9805645, 37.5802571], [126.9805659, 37.5803198], [126.9805122, 37.5803719], [126.9805028, 37.5804558], [126.9805256, 37.5805696]], [[126.9802278, 37.5808894], [126.9801809, 37.5806461], [126.9805256, 37.5805696], [126.9805419, 37.5805908], [126.9805704, 37.5806157], [126.9807766, 37.580584], [126.9808537, 37.5805291]], [[126.9802423, 37.5809256], [126.9802713, 37.5809129], [126.9803825, 37.5808905], [126.9805488, 37.5808608], [126.9805863, 37.5809586]], [[126.980337, 37.581978], [126.9806255, 37.5817973], [126.9807767, 37.5816798], [126.98085, 37.5816062], [126.9808982, 37.5815577], [126.9810216, 37.5814153]], [[126.9804216, 37.5777095], [126.9804243, 37.5780774]], [[126.9805583, 37.5869055], [126.9804606, 37.586658], [126.9804646, 37.586579], [126.9805745, 37.5864115], [126.9806678, 37.5862763], [126.9807006, 37.5862323], [126.9807832, 37.586099], [126.9809562, 37.5861917], [126.9813472, 37.5862106], [126.9815394, 37.5858884], [126.9816901, 37.5857755], [126.9818111, 37.5857697]], [[126.98085, 37.5816062], [126.9806581, 37.5814849]], [[126.9807832, 37.586099], [126.9807355, 37.5857759], [126.9806609, 37.585494]], [[126.9812469, 37.5816325], [126.9811972, 37.5816622], [126.9810728, 37.581737], [126.9811032, 37.5817861]], [[126.9818388, 37.5826845], [126.981802, 37.5826924], [126.9814389, 37.5827813], [126.9813162, 37.582826], [126.9811465, 37.5828975]], [[126.9814073, 37.5819064], [126.9813562, 37.5819354], [126.981214, 37.5819999], [126.9812865, 37.5820829]], [[126.9813394, 37.5824875], [126.9812867, 37.582414], [126.9812356, 37.5822966], [126.9812433, 37.582275], [126.9813539, 37.5822295], [126.9815395, 37.5821532], [126.9815947, 37.5821314]], [[126.9816866, 37.5863541], [126.9819046, 37.586362], [126.981908, 37.5864285], [126.9819148, 37.5865415]], [[126.9816909, 37.5862259], [126.9819862, 37.5862282]], [[126.9821292, 37.5847023], [126.9818126, 37.5847465], [126.9817688, 37.5846303]], [[126.9820188, 37.5851596], [126.9819269, 37.5851683], [126.9818919, 37.5851986], [126.9818046, 37.5852001]], [[126.9818142, 37.5831259], [126.9821376, 37.58313]], [[126.9818244, 37.5829314], [126.9820681, 37.582941]], [[126.981894, 37.5833977], [126.982073, 37.5834078]], [[126.9819089, 37.583815], [126.9821391, 37.5837748]], [[126.9820218, 37.5850625], [126.9820892, 37.5850763], [126.9823712, 37.5851149], [126.9824181, 37.5851624], [126.9825946, 37.5850867], [126.982786, 37.5852685], [126.9830294, 37.585327]], [[126.9820937, 37.5844451], [126.9821566, 37.5844345], [126.9823032, 37.5844098], [126.9822764, 37.5843184], [126.9821954, 37.5841098], [126.9823697, 37.5840703], [126.9825421, 37.5840369], [126.9825796, 37.5840441]], [[126.9821256, 37.5848361], [126.982235, 37.5848425], [126.9823956, 37.5848554], [126.9825176, 37.5849053], [126.9826986, 37.5848995]], [[126.9821284, 37.5845475], [126.9823056, 37.5845285], [126.9825213, 37.5845155], [126.9825517, 37.5845129], [126.9825971, 37.5846445]]]}, "properties": {"name": "삼청로", "description": "경복궁과 북촌 사이의 예술적이고 보행 친화적인 거리로, 서울에서 미술관과 갤러리가 가장 많이 모여 있고 공방·디자이너숍과 전통 한옥이 어우러져 문화예술 산책을 즐기기 좋다.", "description_en": "An artistic, pedestrian-friendly street between Gyeongbokgung and Bukchon, home to Seoul's densest cluster of museums and galleries, where craft studios, designer shops and traditional hanok make it ideal for an art-and-culture stroll.", "why": "미러룸, 조개칼국수, 사고", "confidence": 1, "evidence": "both", "wikidata": null, "wikipedia": null, "headline": true, "part": "main", "ways": 37}}, {"type": "Feature", "geometry": {"type": "MultiLineString", "coordinates": [[[126.9795458, 37.5838596], [126.9795434, 37.5841161], [126.9794498, 37.5842806], [126.979432, 37.5844736], [126.9794145, 37.5845926], [126.9794105, 37.5847456], [126.9793666, 37.5848085], [126.9793514, 37.5849683]], [[126.9794498, 37.5842806], [126.9798198, 37.5843068]], [[126.9819089, 37.583815], [126.9815782, 37.5838475], [126.9814755, 37.5838529], [126.9808942, 37.5838581], [126.980801, 37.583859], [126.9806455, 37.5838666], [126.9803667, 37.5838864], [126.9797525, 37.583897], [126.9796597, 37.5838802], [126.9795458, 37.5838596], [126.9795068, 37.5837765], [126.9794676, 37.5836982], [126.9794508, 37.5836648], [126.9794388, 37.5835862], [126.9794635, 37.5834416]], [[126.9802427, 37.5829346], [126.9801844, 37.5828584], [126.9802178, 37.5827411], [126.9803654, 37.5824022], [126.9803583, 37.5820981], [126.980337, 37.581978]], [[126.9817327, 37.5822858], [126.9816901, 37.5823088], [126.981496, 37.5824077], [126.9813394, 37.5824875], [126.9810726, 37.5825785], [126.9809531, 37.5826192], [126.9808417, 37.5826684], [126.980642, 37.5827566], [126.9802427, 37.5829346], [126.9802751, 37.5829688], [126.9803346, 37.5830319], [126.9804956, 37.5830931]], [[126.9811345, 37.5798792], [126.9812293, 37.5800521], [126.9813235, 37.5801719], [126.9814503, 37.5803232], [126.9815044, 37.5803847], [126.9814298, 37.5804082], [126.9812867, 37.5804563], [126.9812719, 37.5805478], [126.9812714, 37.5806513], [126.9812505, 37.5807508], [126.9812132, 37.5807943], [126.9810288, 37.5807933], [126.9808994, 37.5807854], [126.9808431, 37.5807822], [126.9807371, 37.5807779], [126.9807664, 37.580921], [126.9807689, 37.5809332], [126.9807917, 37.5810384], [126.9806016, 37.5811669]], [[126.980642, 37.5827566], [126.9807441, 37.5828981]], [[126.9806455, 37.5838666], [126.9807102, 37.5838107], [126.9807299, 37.583745], [126.9808333, 37.5835544], [126.9808622, 37.5835245], [126.9809575, 37.5834257], [126.9812438, 37.5833462]], [[126.9808622, 37.5835245], [126.9807239, 37.5834383], [126.9806824, 37.5834737]], [[126.9812743, 37.5813768], [126.9812175, 37.5813187], [126.9811448, 37.5812706], [126.9810368, 37.5812252], [126.9809834, 37.5811869], [126.9808211, 37.5810366], [126.9807917, 37.5810384]], [[126.9808417, 37.5826684], [126.9809104, 37.5827501], [126.9809411, 37.5827391], [126.9809806, 37.5828104]], [[126.9810652, 37.5802156], [126.9810431, 37.58011], [126.9811419, 37.5800948], [126.9812293, 37.5800521], [126.9813775, 37.5800448], [126.9816088, 37.5800105]], [[126.9812719, 37.5805478], [126.9815032, 37.580583], [126.9814826, 37.5806492]], [[126.9818844, 37.5805389], [126.981764, 37.5804909], [126.9816413, 37.58045], [126.9815507, 37.5804148], [126.9815044, 37.5803847]]]}, "properties": {"name": "삼청로", "description": "경복궁과 북촌 사이의 예술적이고 보행 친화적인 거리로, 서울에서 미술관과 갤러리가 가장 많이 모여 있고 공방·디자이너숍과 전통 한옥이 어우러져 문화예술 산책을 즐기기 좋다.", "description_en": "An artistic, pedestrian-friendly street between Gyeongbokgung and Bukchon, home to Seoul's densest cluster of museums and galleries, where craft studios, designer shops and traditional hanok make it ideal for an art-and-culture stroll.", "why": "미러룸, 조개칼국수, 사고", "confidence": 1, "evidence": "both", "wikidata": null, "wikipedia": null, "headline": true, "part": "branch", "ways": 17}}, {"type": "Feature", "geometry": {"type": "MultiLineString", "coordinates": [[[126.9910556, 37.5757137], [126.9914156, 37.5757505]], [[126.9915667, 37.574215], [126.9922077, 37.5742903]], [[126.9916115, 37.5773384], [126.9918593, 37.5772232]], [[126.991858, 37.5775458], [126.9918733, 37.577473], [126.9918602, 37.5772289], [126.9918593, 37.5772232], [126.9918317, 37.5770472], [126.9917878, 37.5769046], [126.9916092, 37.576557], [126.9914186, 37.5759779], [126.9914156, 37.5757505], [126.9915725, 37.5752585], [126.9919571, 37.5745818], [126.9922077, 37.5742903], [126.992434, 37.574027], [126.9925738, 37.5737676], [126.9927417, 37.5734661], [126.9933421, 37.5726227], [126.9935033, 37.5722977], [126.9935666, 37.5722171], [126.9937766, 37.5720769], [126.9937623, 37.5720253], [126.9937631, 37.5715117], [126.9937631, 37.57148], [126.9937629, 37.570887], [126.993764, 37.5708489], [126.9937639, 37.5708327], [126.9937629, 37.5706747], [126.9937679, 37.5705833]], [[126.9935033, 37.5722977], [126.9931938, 37.5719398], [126.9931084, 37.5718644]], [[126.9931938, 37.5719398], [126.9936477, 37.5716986], [126.9936987, 37.571616], [126.9937631, 37.5715117]]]}, "properties": {"name": "서순라길", "description": "종묘 돌담을 따라 이어지는 길로, 100년 넘은 나무가 큰 그늘을 드리우고 감성 카페와 루프탑, 힙한 야장이 어우러져 조용하면서도 멋스러운 산책로다.", "description_en": "A lane along the Jongmyo stone wall where century-old trees cast deep shade and mood cafés, rooftops and hip open-air eateries make for a quiet yet stylish walk.", "why": "돌담길 맛집, 최애였던, 맛집 최애였던", "confidence": 1, "evidence": "both", "wikidata": null, "wikipedia": null, "headline": true, "part": "main", "ways": 8}}, {"type": "Feature", "geometry": {"type": "LineString", "coordinates": [[126.9895131, 37.5692323], [126.9903265, 37.5693951], [126.9904285, 37.5694], [126.9907587, 37.5693501], [126.9910916, 37.5693077], [126.9912107, 37.569344]]}, "properties": {"name": "수표로", "description": "종로3가 관수동 골목으로, 1976년부터 자리를 지켜온 야장 삼겹살 노포를 비롯한 오래된 고깃집이 있다.", "description_en": "A Gwansu-dong alley in Jongno 3-ga, home to old grill houses including an open-air pork-belly institution running since 1976.", "why": "골드바, 자기앞수표, 계좌이체", "confidence": 0.75, "evidence": "both", "wikidata": null, "wikipedia": null, "headline": false, "part": "main", "ways": 1}}, {"type": "Feature", "geometry": {"type": "MultiLineString", "coordinates": [[[126.9895365, 37.572847], [126.9890303, 37.5728605], [126.9888167, 37.5728038], [126.9885717, 37.5726675]], [[126.9894978, 37.5698609], [126.9903797, 37.5699465], [126.9909489, 37.5699967], [126.9912165, 37.5700054], [126.9917828, 37.5700001], [126.9922156, 37.5699961]], [[126.989519, 37.5737252], [126.9895365, 37.572847]], [[126.9909963, 37.5734348], [126.9908271, 37.5733587], [126.9907579, 37.5733099], [126.9905858, 37.5732129], [126.9901748, 37.5731266], [126.9901713, 37.5729795], [126.9901554, 37.5729635], [126.9899251, 37.5729143], [126.9897823, 37.57288], [126.9895756, 37.572852], [126.9895365, 37.572847]], [[126.9897823, 37.57288], [126.9897856, 37.5737219]], [[126.9901748, 37.5731266], [126.9901687, 37.5737322]], [[126.9907587, 37.5693501], [126.9907926, 37.5694735], [126.9907885, 37.5697575], [126.9910912, 37.569798], [126.9912213, 37.5697988]]]}, "properties": {"name": "수표로", "description": "종로3가 관수동 골목으로, 1976년부터 자리를 지켜온 야장 삼겹살 노포를 비롯한 오래된 고깃집이 있다.", "description_en": "A Gwansu-dong alley in Jongno 3-ga, home to old grill houses including an open-air pork-belly institution running since 1976.", "why": "골드바, 자기앞수표, 계좌이체", "confidence": 0.75, "evidence": "both", "wikidata": null, "wikipedia": null, "headline": false, "part": "branch", "ways": 10}}, {"type": "Feature", "geometry": {"type": "LineString", "coordinates": [[126.9853029, 37.5864119], [126.9856767, 37.5869116], [126.9859795, 37.5873883], [126.986032, 37.5875418], [126.986032, 37.5875936], [126.986032, 37.5878746], [126.9860602, 37.5881049], [126.9861894, 37.5884249], [126.9863307, 37.5887288], [126.986456, 37.5889036], [126.9865331, 37.5889615], [126.9866564, 37.5890198], [126.9867866, 37.5889955], [126.9868421, 37.5889686], [126.9869269, 37.5889035], [126.9870117, 37.5887309], [126.9870792, 37.5886875], [126.9871661, 37.5886657], [126.9872856, 37.5886858], [126.9873941, 37.5886905], [126.9874635, 37.5886795], [126.9875765, 37.5886151], [126.9876451, 37.5885563], [126.9877829, 37.5884162], [126.9878729, 37.5883834], [126.987982, 37.5883949], [126.9880588, 37.5884611], [126.9881382, 37.5886145], [126.9883117, 37.5886732], [126.9884639, 37.5886839], [126.988636, 37.5886682], [126.9887544, 37.5886221], [126.9888568, 37.5885869], [126.9891165, 37.5885912], [126.9893305, 37.5886488], [126.9893628, 37.5887096], [126.9893265, 37.5889815], [126.9893467, 37.5891127], [126.9894516, 37.5891735], [126.9897302, 37.5891959], [126.9899442, 37.5892439]]}, "properties": {"name": "와룡공원길", "description": "북악산 기슭 와룡공원으로 오르는 무장애 산책길로, 한양도성과 이어지며 도심 속에서 여유로운 자연 산책을 즐길 수 있다.", "description_en": "A barrier-free path climbing to Waryong Park on the slopes of Bukaksan, linked to the Hanyang City Wall and offering a relaxed nature walk within the city.", "why": "삼청공원, 성북동, 북악산", "confidence": 1, "evidence": "text", "wikidata": null, "wikipedia": null, "headline": true, "part": "main", "ways": 1}}, {"type": "Feature", "geometry": {"type": "MultiLineString", "coordinates": [[[126.9810112, 37.5730969], [126.981175, 37.5730631], [126.9815489, 37.5730295], [126.9822502, 37.5729625], [126.9822536, 37.572998], [126.982992, 37.5730413]], [[126.9819747, 37.5733264], [126.9822778, 37.5732935], [126.9823462, 37.5733371], [126.9825836, 37.57337], [126.9825889, 37.5734731], [126.9826627, 37.5734806], [126.9826573, 37.5735497], [126.9829767, 37.5735832]], [[126.9822796, 37.5755827], [126.9825218, 37.5753986], [126.9828927, 37.5751204]], [[126.9827849, 37.5690741], [126.9828055, 37.5691989], [126.9828538, 37.5695301], [126.9828751, 37.5696619], [126.9829231, 37.5699071], [126.982946, 37.5700618], [126.982955, 37.5701487], [126.9829626, 37.5702074], [126.9829662, 37.5702748], [126.9829761, 37.5704046], [126.9830043, 37.5706352], [126.9830117, 37.5706959], [126.9830552, 37.5710945], [126.9830729, 37.5713685], [126.9830595, 37.5716453], [126.9830546, 37.5720235], [126.9830432, 37.5723613], [126.9829986, 37.5728976], [126.982992, 37.5730413], [126.9829767, 37.5735832], [126.9829707, 37.5737285], [126.9829605, 37.5738803], [126.9829181, 37.5746101], [126.9829034, 37.5749752], [126.9828927, 37.5751204]], [[126.9829568, 37.5756319], [126.9829197, 37.5755547], [126.9828921, 37.5754685], [126.982897, 37.5754074], [126.9828939, 37.5753219], [126.9828927, 37.5751204]], [[126.9829181, 37.5746101], [126.9824096, 37.5746191], [126.9824201, 37.5747485], [126.9824292, 37.5748033], [126.9824457, 37.5748867], [126.9824858, 37.5749758], [126.9829034, 37.5749752]], [[126.9830432, 37.5723613], [126.9834303, 37.5724275], [126.9837307, 37.5725447], [126.9839802, 37.5726283], [126.9838911, 37.5728248]], [[126.9830552, 37.5710945], [126.9841075, 37.571108], [126.9843434, 37.571113]], [[126.983662, 37.5727079], [126.9837307, 37.5725447]]]}, "properties": {"name": "우정국로", "description": "조계사와 OCI미술관을 낀 길로, 부처님오신날이면 연등이 거리를 가득 밝히는 연등행사가 펼쳐진다.", "description_en": "A street beside Jogyesa temple and the OCI Museum, where on Buddha's Birthday the Lotus Lantern festival fills the road with light.", "why": "토리고야 종로본점, 토리고야, 관철동차돌박이탄탄나베맛집", "confidence": 1, "evidence": "both", "wikidata": null, "wikipedia": null, "headline": true, "part": "main", "ways": 15}}, {"type": "Feature", "geometry": {"type": "MultiLineString", "coordinates": [[[126.983427, 37.5774176], [126.9825406, 37.5772843]], [[126.9834737, 37.5773086], [126.9832438, 37.5772395], [126.9831552, 37.5772139]], [[126.9838027, 37.5775006], [126.9835415, 37.5774429], [126.983427, 37.5774176]], [[126.983427, 37.5774176], [126.9834737, 37.5773086], [126.9835188, 37.577212], [126.9835747, 37.5770875], [126.9836408, 37.5769497], [126.9838736, 37.577015], [126.9839134, 37.5769262], [126.9840349, 37.5769638]], [[126.9835188, 37.577212], [126.9832034, 37.5771276], [126.9832472, 37.5770287], [126.9833072, 37.5770123], [126.9835747, 37.5770875]], [[126.9837057, 37.5794262], [126.9831817, 37.5789289], [126.9835369, 37.5781922], [126.9837492, 37.5776398], [126.9838027, 37.5775006], [126.9839085, 37.5772092], [126.9839402, 37.5771446], [126.9840349, 37.5769638], [126.9840787, 37.5768788], [126.984084, 37.5768577], [126.9841341, 37.5766598], [126.9841939, 37.5764232], [126.9842353, 37.5762161], [126.9843539, 37.5759937]], [[126.9838736, 37.577015], [126.9838338, 37.5771097], [126.9839402, 37.5771446]]]}, "properties": {"name": "윤보선길", "description": "4대 대통령 윤보선 가옥에서 이름을 딴 길로, 담장 사이로 한옥과 전통이 어우러지고 자그마한 카페와 갤러리가 인사동의 정취를 잇는 조용한 산책로다.", "description_en": "A street named after the house of President Yun Bo-seon, a quiet walking lane where hanok and tradition meet between garden walls and small cafés and galleries carry over the mood of Insadong.", "why": "티테라피, 종로서적, 카페 이드라", "confidence": 1, "evidence": "both", "wikidata": null, "wikipedia": null, "headline": true, "part": "main", "ways": 8}}, {"type": "Feature", "geometry": {"type": "LineString", "coordinates": [[126.9908094, 37.5774068], [126.9908945, 37.5772403], [126.9909629, 37.5768392], [126.990979, 37.5767448], [126.9910436, 37.5763652], [126.991051, 37.576322], [126.9910556, 37.5757137], [126.9910521, 37.5755932], [126.9910633, 37.5755559], [126.9910905, 37.5755228], [126.991121, 37.5754823], [126.9912171, 37.5753645], [126.9912928, 37.5752462], [126.9913147, 37.5752144], [126.9914597, 37.574728], [126.9914927, 37.5746364], [126.9915391, 37.5742615], [126.9915667, 37.574215], [126.9916168, 37.5739724], [126.9916622, 37.5738483], [126.9917073, 37.5737275], [126.991858, 37.5733099], [126.9918614, 37.5733006], [126.9920601, 37.5728634], [126.9921118, 37.5725988]]}, "properties": {"name": "율곡로", "description": "종묘 궁궐 담장을 따라 걷는 서순라길 곁 골목으로, 한옥을 개조한 식당과 테라스가 있는 카페가 자리한다.", "description_en": "An alley beside Seosunra-gil, following the Jongmyo palace wall, with hanok-converted restaurants and a terraced café.", "why": "걷기 점심, 창신 구역재개발, 소개 출발", "confidence": 0.75, "evidence": "both", "wikidata": null, "wikipedia": null, "headline": false, "part": "main", "ways": 1}}, {"type": "Feature", "geometry": {"type": "MultiLineString", "coordinates": [[[126.9886832, 37.5759677], [126.9889116, 37.5759741], [126.9889138, 37.5760985]], [[126.9892565, 37.5755238], [126.9892844, 37.5758424], [126.9893166, 37.5763695], [126.9893293, 37.5771444], [126.9893297, 37.5773717]], [[126.990979, 37.5767448], [126.9911889, 37.5767541], [126.9912896, 37.5767435], [126.991408, 37.5767157], [126.9915276, 37.5766876], [126.9914592, 37.5765278]], [[127.0046344, 37.5746248], [127.0046535, 37.5743988]], [[127.0059606, 37.5736458], [127.0058055, 37.5738644], [127.0056949, 37.5740929], [127.0056061, 37.5742638], [127.0054964, 37.5745016], [127.0053432, 37.5748738], [127.0052839, 37.5750793], [127.0052217, 37.5753768]]]}, "properties": {"name": "율곡로", "description": "종묘 궁궐 담장을 따라 걷는 서순라길 곁 골목으로, 한옥을 개조한 식당과 테라스가 있는 카페가 자리한다.", "description_en": "An alley beside Seosunra-gil, following the Jongmyo palace wall, with hanok-converted restaurants and a terraced café.", "why": "걷기 점심, 창신 구역재개발, 소개 출발", "confidence": 0.75, "evidence": "both", "wikidata": null, "wikipedia": null, "headline": false, "part": "branch", "ways": 5}}, {"type": "Feature", "geometry": {"type": "LineString", "coordinates": [[126.9908884, 37.5663388], [126.9908487, 37.5668192], [126.9908439, 37.5672628], [126.9908436, 37.5672865], [126.9908809, 37.5676246], [126.9909308, 37.5680767]]}, "properties": {"name": "을지로", "description": "골목마다 야장이 들어찬 종로3가·을지로3가 일대의 길로, 저녁이면 고깃집과 곱창집 앞에 줄이 늘어선다.", "description_en": "A street in the Jongno 3-ga / Euljiro 3-ga area where open-air grills fill every alley, with evening queues outside the pork and gopchang joints.", "why": "맛집 다원, 다원, 다원 닭한마리", "confidence": 0.75, "evidence": "both", "wikidata": null, "wikipedia": null, "headline": false, "part": "main", "ways": 1}}, {"type": "Feature", "geometry": {"type": "MultiLineString", "coordinates": [[[126.9919028, 37.5672767], [126.9919421, 37.5668893], [126.9920061, 37.5663928]], [[127.0015318, 37.5689396], [127.0000985, 37.5688954]], [[127.0004729, 37.5668157], [127.0004826, 37.5668606], [127.0004748, 37.5669014], [127.0005842, 37.5671311], [127.0006084, 37.5671819], [127.0007353, 37.5674485], [127.0007995, 37.567536]], [[127.0007995, 37.567536], [127.0008694, 37.5676313], [127.0010388, 37.5678119], [127.0011269, 37.5679058], [127.0011424, 37.567923], [127.0013521, 37.5681566], [127.001514, 37.5683779], [127.0015347, 37.5684996], [127.0015442, 37.5686703], [127.0015318, 37.5689396], [127.0015067, 37.569343], [127.0015053, 37.569358]], [[127.0007995, 37.567536], [127.001418, 37.567335], [127.0016649, 37.5672643]], [[127.0010388, 37.5678119], [127.0017084, 37.5675713], [127.0018259, 37.5677381], [127.0018418, 37.5678577]]]}, "properties": {"name": "을지로", "description": "골목마다 야장이 들어찬 종로3가·을지로3가 일대의 길로, 저녁이면 고깃집과 곱창집 앞에 줄이 늘어선다.", "description_en": "A street in the Jongno 3-ga / Euljiro 3-ga area where open-air grills fill every alley, with evening queues outside the pork and gopchang joints.", "why": "맛집 다원, 다원, 다원 닭한마리", "confidence": 0.75, "evidence": "both", "wikidata": null, "wikipedia": null, "headline": false, "part": "branch", "ways": 9}}, {"type": "Feature", "geometry": {"type": "MultiLineString", "coordinates": [[[127.0044519, 37.579953], [127.0044641, 37.5796906], [127.0044698, 37.5791262], [127.0044831, 37.5788295], [127.0045016, 37.5783852], [127.004524, 37.5781007], [127.0045274, 37.5780328], [127.0045855, 37.5770347], [127.0046042, 37.5768392], [127.0041923, 37.5768448], [127.0039184, 37.5768479], [127.0034283, 37.5768304], [127.003338, 37.5768767], [127.0027447, 37.5768298], [127.0021925, 37.5767555]], [[127.0041923, 37.5768448], [127.004194, 37.5762297]], [[127.0044641, 37.5796906], [127.0046811, 37.579694], [127.004718, 37.5796704], [127.0050926, 37.579674], [127.0051799, 37.5796653], [127.0054504, 37.5796581], [127.0057319, 37.5796513]], [[127.0044698, 37.5791262], [127.0050693, 37.579131], [127.005418, 37.579134], [127.0053993, 37.5795263]], [[127.0045016, 37.5783852], [127.0049125, 37.5783836], [127.0055658, 37.5786041]]]}, "properties": {"name": "이화장길", "description": "초대 대통령 이승만이 살던 이화장이 자리한 길로, 이화 벽화마을과 낙산으로 이어지는 고즈넉한 산책로다.", "description_en": "The street of Ihwajang, home of Korea's first president Syngman Rhee, a serene walk leading up to the Ihwa mural village and Naksan.", "why": "대통령, 이승, 평생학습관", "confidence": 1, "evidence": "both", "wikidata": null, "wikipedia": null, "headline": true, "part": "main", "ways": 6}}, {"type": "Feature", "geometry": {"type": "LineString", "coordinates": [[126.9850373, 37.5738965], [126.9856022, 37.5741787], [126.9857912, 37.5742905], [126.9859441, 37.5743651], [126.9862945, 37.574443], [126.9867133, 37.5745353], [126.9870015, 37.5745982]]}, "properties": {"name": "인사동", "description": "인사동 문화의 거리 곁 골목으로, 한옥 스테이와 오래된 닭한마리 노포 등 전통과 관광의 정취가 배어 있다.", "description_en": "An alley off the Insadong cultural street, steeped in tradition and tourism, with hanok stays and old dak-hanmari eateries.", "why": "수인, 솥내음, 인사동길", "confidence": 0.75, "evidence": "both", "wikidata": null, "wikipedia": null, "headline": false, "part": "main", "ways": 1}}, {"type": "Feature", "geometry": {"type": "MultiLineString", "coordinates": [[[126.9856022, 37.5741787], [126.9855633, 37.5742103], [126.9854691, 37.574308], [126.9853511, 37.5744915]], [[126.9862945, 37.574443], [126.9860892, 37.5748369], [126.9864339, 37.5749293], [126.9864231, 37.5749703], [126.9867586, 37.5751097]]]}, "properties": {"name": "인사동", "description": "인사동 문화의 거리 곁 골목으로, 한옥 스테이와 오래된 닭한마리 노포 등 전통과 관광의 정취가 배어 있다.", "description_en": "An alley off the Insadong cultural street, steeped in tradition and tourism, with hanok stays and old dak-hanmari eateries.", "why": "수인, 솥내음, 인사동길", "confidence": 0.75, "evidence": "both", "wikidata": null, "wikipedia": null, "headline": false, "part": "branch", "ways": 2}}, {"type": "Feature", "geometry": {"type": "MultiLineString", "coordinates": [[[126.9830871, 37.5754855], [126.9834422, 37.575289], [126.983794, 37.5748832], [126.9838161, 37.5748534], [126.9840589, 37.5746176], [126.9841016, 37.5745812], [126.9843672, 37.5743551], [126.9844481, 37.5742863], [126.9846, 37.5741832], [126.9846443, 37.5741531], [126.9849366, 37.5739674], [126.9850373, 37.5738965], [126.9851722, 37.573804], [126.985358, 37.5736896], [126.9854904, 37.5735932], [126.9858163, 37.573379], [126.9858983, 37.5733092], [126.9860179, 37.573197], [126.9860785, 37.5731572], [126.9862331, 37.5729775], [126.9864178, 37.5727617], [126.9865377, 37.5725934], [126.9867327, 37.5722442], [126.9868246, 37.5720595], [126.9868471, 37.5720188], [126.9870064, 37.571709], [126.9870191, 37.5716871], [126.9870232, 37.5716792], [126.9870304, 37.5716655], [126.9870865, 37.5715711], [126.9871718, 37.5714413], [126.9873859, 37.5712809], [126.9874849, 37.5712511], [126.9875946, 37.5712381]], [[126.9834422, 37.575289], [126.9834945, 37.5753098], [126.9837154, 37.575388], [126.9837778, 37.5753789], [126.9838677, 37.575397]], [[126.9843672, 37.5743551], [126.9842371, 37.5742469], [126.9841634, 37.574214], [126.9840722, 37.5741906], [126.983934, 37.5741577]], [[126.9851722, 37.573804], [126.9844768, 37.5734061], [126.984355, 37.5735431]], [[126.9849366, 37.5739674], [126.985187, 37.5741151], [126.985139, 37.574166]], [[126.9858163, 37.573379], [126.9855084, 37.5731898], [126.9852647, 37.5731024]], [[126.985358, 37.5736896], [126.9851444, 37.5735421], [126.9852778, 37.5733849]], [[126.9867327, 37.5722442], [126.9864404, 37.5721486], [126.9864289, 37.5721878], [126.985856, 37.5720294], [126.9857225, 37.5719993]], [[126.9858983, 37.5733092], [126.986214, 37.5735262], [126.9861617, 37.5735799], [126.9862639, 37.5736377], [126.9861829, 37.5737502], [126.9862146, 37.573774]], [[126.9864178, 37.5727617], [126.986779, 37.5728988], [126.9868162, 37.5729343], [126.9869285, 37.5729828], [126.987045, 37.5730286]], [[126.986779, 37.5728988], [126.9870073, 37.5725959]], [[126.9868471, 37.5720188], [126.9875558, 37.5722767]]]}, "properties": {"name": "인사동길", "description": "전통찻집과 공예품점, 100여 개의 화랑이 밀집한 서울의 대표 문화 거리로, 차 없는 거리를 따라 한옥과 골목 풍경 속에서 전통과 예술을 여유롭게 즐긴다.", "description_en": "Seoul's signature cultural street, packed with traditional tearooms, craft shops and over a hundred galleries; a car-free lane where hanok and old alleys let you take in tradition and art at leisure.", "why": "솥내음, 쌈지길, 양반댁", "confidence": 1, "evidence": "both", "wikidata": null, "wikipedia": null, "headline": true, "part": "main", "ways": 13}}, {"type": "Feature", "geometry": {"type": "LineString", "coordinates": [[127.0042047, 37.5734947], [127.00426, 37.5733928], [127.00434, 37.5730726], [127.0043883, 37.572907], [127.0044436, 37.5727843], [127.0044972, 37.5727046], [127.0047859, 37.5725611], [127.0049865, 37.5724611], [127.0052413, 37.5723341], [127.0053502, 37.5722798], [127.0055038, 37.5721958], [127.0058145, 37.5720261], [127.0060225, 37.5718902], [127.0061325, 37.5717908], [127.0062496, 37.5716254], [127.006282, 37.5715572], [127.0063665, 37.571227], [127.0063781, 37.5711818]]}, "properties": {"name": "종로", "description": "종로3가 골목에 시간이 멈춘 듯한 39년 전통의 경양식 돈가스 노포가 자리한 레트로한 길이다.", "description_en": "A retro Jongno 3-ga alley home to a 39-year-old Western-style pork-cutlet diner where time seems to have stopped.", "why": "평원숯불갈비, 엘지포차, 동대문 돼지갈비", "confidence": 0.75, "evidence": "both", "wikidata": null, "wikipedia": null, "headline": false, "part": "main", "ways": 1}}, {"type": "Feature", "geometry": {"type": "MultiLineString", "coordinates": [[[126.9885573, 37.5701832], [126.988558, 37.57014], [126.9885739, 37.5698415], [126.9885854, 37.5696593], [126.9886689, 37.569311], [126.9886766, 37.5692327], [126.9886897, 37.5691634], [126.9888744, 37.5682877]], [[126.9955413, 37.5687537], [126.9954737, 37.5692614], [126.9954052, 37.56977], [126.995385, 37.5698993], [126.9953829, 37.5699131], [126.9953547, 37.5701501], [126.9953119, 37.5704076], [126.9953073, 37.5704354], [126.995298, 37.5704727], [126.9952829, 37.5705145]], [[127.0049865, 37.5724611], [127.0054231, 37.5727911], [127.0056201, 37.5726339], [127.0057041, 37.5725669], [127.0058365, 37.5724534]], [[127.005044, 37.5710156], [127.0050449, 37.5709538], [127.0050551, 37.5703864], [127.0050495, 37.5697895]], [[127.0067256, 37.5703862], [127.0065057, 37.5703508], [127.006126, 37.5702899], [127.0058852, 37.5702981], [127.0055577, 37.570325], [127.0054775, 37.5703231], [127.0052375, 37.5703784], [127.0050551, 37.5703864]], [[127.0052413, 37.5723341], [127.0056201, 37.5726339]]]}, "properties": {"name": "종로", "description": "종로3가 골목에 시간이 멈춘 듯한 39년 전통의 경양식 돈가스 노포가 자리한 레트로한 길이다.", "description_en": "A retro Jongno 3-ga alley home to a 39-year-old Western-style pork-cutlet diner where time seems to have stopped.", "why": "평원숯불갈비, 엘지포차, 동대문 돼지갈비", "confidence": 0.75, "evidence": "both", "wikidata": null, "wikipedia": null, "headline": false, "part": "branch", "ways": 8}}, {"type": "Feature", "geometry": {"type": "LineString", "coordinates": [[126.9979002, 37.5697295], [126.9980079, 37.5697505], [126.9982492, 37.569778], [126.998442, 37.5697997], [126.9988255, 37.5698475], [126.9990214, 37.5698719], [126.9991723, 37.5698776], [126.9992259, 37.5698796], [126.9993231, 37.5698833], [126.9998761, 37.5698947], [126.9999032, 37.5698951], [126.9999146, 37.5698953], [126.9999556, 37.5698972], [127.0000081, 37.5698997], [127.0002766, 37.5699124], [127.0004235, 37.5699215], [127.0005079, 37.5699267], [127.0008587, 37.5699722], [127.0009171, 37.5699798], [127.0010412, 37.5699959], [127.0012316, 37.5700207]]}, "properties": {"name": "창경궁로", "description": "광장시장과 세운상가 사이의 길로, 한복 원단과 옷감을 파는 시장 상가가 이어지고 늘 사람들로 붐빈다.", "description_en": "A street between Gwangjang Market and Sewoon Sangga, lined with market stalls selling hanbok fabric and cloth and always thick with people.", "why": "종로광장새마을금, 황금단, 팔도상회", "confidence": 0.75, "evidence": "both", "wikidata": null, "wikipedia": null, "headline": false, "part": "main", "ways": 1}}, {"type": "Feature", "geometry": {"type": "LineString", "coordinates": [[126.9867211, 37.5793403], [126.987687, 37.5793358], [126.9878242, 37.5793392], [126.9885126, 37.5793144]]}, "properties": {"name": "창덕궁", "description": "창덕궁 담장 곁 한옥마을의 길로, 궁궐을 둘러보고 들르기 좋은 한옥 맛집과 브런치 카페가 자리한다.", "description_en": "A hanok-village street beside the Changdeokgung wall, with hanok restaurants and brunch cafés handy for a stop after visiting the palace.", "why": "천하보쌈, 홍매화, 노우즈", "confidence": 0.75, "evidence": "both", "wikidata": null, "wikipedia": null, "headline": false, "part": "main", "ways": 1}}, {"type": "Feature", "geometry": {"type": "LineString", "coordinates": [[126.9892809, 37.5793541], [126.988655, 37.5793422], [126.9885126, 37.5793144], [126.9886317, 37.5792917], [126.9892828, 37.579246]]}, "properties": {"name": "창덕궁", "description": "창덕궁 담장 곁 한옥마을의 길로, 궁궐을 둘러보고 들르기 좋은 한옥 맛집과 브런치 카페가 자리한다.", "description_en": "A hanok-village street beside the Changdeokgung wall, with hanok restaurants and brunch cafés handy for a stop after visiting the palace.", "why": "천하보쌈, 홍매화, 노우즈", "confidence": 0.75, "evidence": "both", "wikidata": null, "wikipedia": null, "headline": false, "part": "branch", "ways": 2}}, {"type": "Feature", "geometry": {"type": "MultiLineString", "coordinates": [[[126.9893297, 37.5773717], [126.9893112, 37.5774989], [126.9892379, 37.5779339], [126.9892153, 37.5782333], [126.9892104, 37.5782975], [126.9892097, 37.5783065], [126.9892051, 37.5783677], [126.9891826, 37.5786657], [126.98918, 37.5787], [126.9891888, 37.5787547], [126.98922, 37.57895], [126.9892828, 37.579246], [126.9892809, 37.5793541], [126.9892708, 37.5805945], [126.9892868, 37.5809349], [126.9893239, 37.5809921], [126.9893403, 37.5812689], [126.9893564, 37.5815816], [126.9894133, 37.5818926], [126.9894579, 37.5820834], [126.989484, 37.5822476], [126.9894388, 37.582468], [126.9893866, 37.5825818], [126.9892629, 37.5828277], [126.9892329, 37.5829215], [126.9891307, 37.5829323], [126.9890197, 37.582938], [126.9886883, 37.5829475], [126.9886289, 37.5829627], [126.9886154, 37.5829659], [126.9883149, 37.5830429], [126.9881488, 37.5830767], [126.9877484, 37.583088], [126.9873614, 37.5830956], [126.9871405, 37.5830935], [126.9870401, 37.5830926], [126.9868582, 37.5830793], [126.9864863, 37.5831298], [126.9863972, 37.5831543], [126.9862658, 37.583187], [126.9860646, 37.5832263], [126.9857694, 37.5832493], [126.9857378, 37.5832518], [126.9856367, 37.5832933], [126.9854848, 37.5833275], [126.9851418, 37.5833384]], [[126.9873614, 37.5830956], [126.9873063, 37.5833845]], [[126.9882655, 37.5787369], [126.9891888, 37.5787547]]]}, "properties": {"name": "창덕궁길", "description": "창덕궁 담장을 따라 원서동으로 이어지는 돌담 산책길로, 한옥 감성 골목에 창덕궁이 내려다보이는 카페가 자리한다.", "description_en": "A stone-wall walking lane following the Changdeokgung wall into Wonseo-dong, with hanok-mood alleys and cafés that look over the palace.", "why": "후원, 원서동, 노우즈", "confidence": 1, "evidence": "both", "wikidata": null, "wikipedia": null, "headline": true, "part": "main", "ways": 3}}, {"type": "Feature", "geometry": {"type": "MultiLineString", "coordinates": [[[126.9773585, 37.5837052], [126.9775185, 37.5836855], [126.9783001, 37.5835879], [126.9787807, 37.5835197], [126.9790003, 37.5835004], [126.9792826, 37.5834696], [126.9794635, 37.5834416]], [[126.9794635, 37.5834416], [126.9795192, 37.5833265], [126.9795728, 37.5832649], [126.9797267, 37.5831176], [126.9799434, 37.5828849], [126.9800333, 37.5827541], [126.9801111, 37.5825724], [126.9801553, 37.5824427], [126.980166, 37.5823747], [126.9801835, 37.5822599], [126.9801741, 37.5819811], [126.9801701, 37.5818603], [126.980157, 37.5812514], [126.9801564, 37.581222], [126.9801316, 37.5809937]], [[126.9802626, 37.5810095], [126.9802659, 37.5812548], [126.9802715, 37.581925], [126.9802728, 37.5819792], [126.9802796, 37.5822704], [126.9802594, 37.5824319], [126.9802272, 37.5825595], [126.9801817, 37.5826658], [126.9801012, 37.5828156], [126.9800113, 37.5829464], [126.9797946, 37.5831791], [126.9795966, 37.5833385], [126.9795378, 37.5833905], [126.9794635, 37.5834416]]]}, "properties": {"name": "청와대로", "description": "청와대로 이어지는 길로, 대중에 개방된 옛 대통령 관저 청와대와 경복궁을 둘러보려는 방문객이 찾는다.", "description_en": "The road up to Cheong Wa Dae, drawing visitors to the now publicly opened former presidential residence and nearby Gyeongbokgung.", "why": "관람신청, 개방, 관람", "confidence": 1, "evidence": "text", "wikidata": null, "wikipedia": null, "headline": true, "part": "main", "ways": 3}}, {"type": "Feature", "geometry": {"type": "MultiLineString", "coordinates": [[[126.9814755, 37.5838529], [126.9814438, 37.5837695], [126.9812991, 37.5835396], [126.9812438, 37.5833462], [126.9811608, 37.5829632], [126.9811465, 37.5828975], [126.9810501, 37.5827588], [126.9809531, 37.5826192], [126.9807282, 37.5823047], [126.9806235, 37.5821842], [126.980337, 37.581978], [126.9802728, 37.5819792], [126.9801741, 37.5819811]], [[126.9809512, 37.5830582], [126.980877, 37.5829607]], [[126.9808942, 37.5838581], [126.9809006, 37.5837856], [126.9809097, 37.5837387], [126.9810499, 37.5836504], [126.9811433, 37.583596], [126.9812991, 37.5835396], [126.9814106, 37.583496], [126.9814689, 37.5834924], [126.9817511, 37.5834731], [126.9818825, 37.5834788]], [[126.9809501, 37.5832069], [126.9808382, 37.5831094], [126.9809512, 37.5830582], [126.9811608, 37.5829632]], [[126.9810501, 37.5827588], [126.9811535, 37.5827204], [126.9810726, 37.5825785]], [[126.9814689, 37.5834924], [126.9814548, 37.5833649], [126.9815265, 37.5833572], [126.9815102, 37.5831213]]]}, "properties": {"name": "팔판길", "description": "삼청로에서 갈라지는 삼청동의 조용한 골목으로, 종로구가 우수 골목길로 꼽은 길답게 아기자기한 분식집과 스콘 가게가 정겹게 자리한다.", "description_en": "A quiet Samcheong-dong lane branching off Samcheong-ro, named a 'model alley' by the district, with endearing snack shops and a scone café.", "why": "루미에블랑쉬, 스낵서울, 우수 골목길", "confidence": 1, "evidence": "both", "wikidata": null, "wikipedia": null, "headline": true, "part": "main", "ways": 7}}, {"type": "Feature", "geometry": {"type": "LineString", "coordinates": [[126.9785891, 37.5703733], [126.9787181, 37.5703798], [126.9792174, 37.5703919], [126.9793361, 37.5704153], [126.9795464, 37.5704077], [126.9809987, 37.570395], [126.9821444, 37.5704], [126.9821889, 37.5703983], [126.9823312, 37.5704159], [126.9824508, 37.5704363], [126.9826368, 37.570493], [126.982739, 37.5705707], [126.9828275, 37.5707027], [126.9828572, 37.5708144]]}, "properties": {"name": "피마길", "description": "조선시대 서민들이 고관의 행차를 피해 다니던 데서 이름이 유래한 좁은 골목으로, 옛 목로술집의 자취를 이어 지금도 갈매기살·곱창 골목이 밤늦게까지 활기를 띤다.", "description_en": "A narrow alley named for how commoners once slipped past noble processions in the Joseon era; heir to its old taverns, it still buzzes late with skirt-meat and gopchang grill joints.", "why": "돈의동 갈매기살, 갈매기살, 말을", "confidence": 1, "evidence": "both", "wikidata": "Q11283642", "wikipedia": "ko:피맛골", "headline": true, "part": "main", "ways": 1}}]}